{"type":"FeatureCollection","features":[{"type":"Feature","properties":{},"geometry":{"coordinates":[[[-75.17702553521801,40.99528283665768],[-75.17703956862242,40.995261652848825],[-75.17690204125978,40.99477442336837],[-75.1768346807791,40.9947807785984],[-75.1767448669914,40.99477230501117],[-75.17662698639447,40.994768068217155],[-75.1765371726068,40.994806199353576],[-75.17643051873337,40.994876106380076],[-75.17630421809424,40.99501168343099],[-75.17618914417821,40.99519174627122],[-75.17609933039009,40.995284955077835],[-75.1759814497936,40.99535697997453],[-75.17597022307008,40.99540146590047],[-75.17609933039009,40.99543324154405],[-75.17621159762527,40.99547772741852],[-75.1763603517114,40.99549679278391],[-75.17702553521801,40.99528283665768]]],"type":"Polygon"}},{"type":"Feature","properties":{},"geometry":{"coordinates":[[[-75.17603896544682,40.99560351416048],[-75.1763135963942,40.99551405622873],[-75.17617194464215,40.995490055299996],[-75.1760418562989,40.995442053415644],[-75.17597536670098,40.9954245981763],[-75.17603896544682,40.99560351416048]]],"type":"Polygon"}},{"type":"Feature","properties":{},"geometry":{"coordinates":[[[-75.17583371494938,40.99532859427731],[-75.17591754965933,40.995311139007924],[-75.17599849351765,40.99526968272494],[-75.17610834589678,40.9951780424272],[-75.17637430428793,40.99481147996303],[-75.17569495404946,40.99498385185183],[-75.17583371494938,40.99532859427731]]],"type":"Polygon"}},{"type":"Feature","properties":{},"geometry":{"coordinates":[[[-75.17552439377704,40.99454092064653],[-75.17565737297238,40.99488348346486],[-75.17632805065459,40.99471329324274],[-75.17579324302025,40.99454092064653],[-75.17569206319735,40.994525647103245],[-75.17559377422702,40.994525647103245],[-75.17552439377704,40.99454092064653]]],"type":"Polygon"}},{"type":"Feature","properties":{},"geometry":{"coordinates":[[[-75.17579613387232,40.99533514000245],[-75.17566253531065,40.994983851780006],[-75.17561049997366,40.994970760259946],[-75.17525781602001,40.99505803701126],[-75.17532141476585,40.99515404130432],[-75.17544283055287,40.99528495602334],[-75.17550642929865,40.9953111389361],[-75.17563362679032,40.99533950374686],[-75.17570940830986,40.995341685726316],[-75.17579613387232,40.99533514000245]]],"type":"Polygon"}},{"type":"Feature","properties":{},"geometry":{"coordinates":[[[-75.17524914346379,40.99503403591652],[-75.17559315486115,40.994948941054076],[-75.17562784508615,40.99490093877566],[-75.1755006475945,40.99454746637741],[-75.17544861225703,40.994560557981515],[-75.17536766839916,40.994599832778306],[-75.17529828794918,40.99467620037211],[-75.1752607068721,40.994724202813444],[-75.17524336175963,40.99477875100092],[-75.17522890749919,40.9948660280065],[-75.17522890749919,40.99496639641933],[-75.17524914346379,40.99503403591652]]],"type":"Polygon"}},{"type":"Feature","properties":{},"geometry":{"coordinates":[[[-75.17668478218737,40.994550910109126],[-75.17661829258994,40.994400356483],[-75.17656914810452,40.9943458079824],[-75.1759158155348,40.994123249634356],[-75.17574525526238,40.99436980932842],[-75.1756469662916,40.99445926881222],[-75.17582908997278,40.99447672430719],[-75.17591870638687,40.99450290754092],[-75.17607192154726,40.99457272944679],[-75.17627428119259,40.99462073196415],[-75.17640726038792,40.99464036934717],[-75.17651422191494,40.99464036934717],[-75.17662118344201,40.9945967307095],[-75.17668478218737,40.994550910109126]]],"type":"Polygon"},"id":6},{"type":"Feature","properties":{},"geometry":{"coordinates":[[[-75.17661472254615,40.99364262076236],[-75.17655155952944,40.993667592965465],[-75.17624476748847,40.99420108950244],[-75.1765876527108,40.99431459884718],[-75.17665081577813,40.994384974542385],[-75.17671397884551,40.994525725708115],[-75.17683428939887,40.99449621347219],[-75.17661472254615,40.99364262076236]]],"type":"Polygon"},"id":7},{"type":"Feature","properties":{},"geometry":{"coordinates":[[[-75.17660799477743,40.99361178884922],[-75.17658516152689,40.993529926619175],[-75.17656232827629,40.9935126924525],[-75.17628071818649,40.99355290550065],[-75.17642532877285,40.99360173559813],[-75.17645387033636,40.99361609738466],[-75.1764595786487,40.993629022990035],[-75.17652998117103,40.9936462571263],[-75.17660799477743,40.99361178884922]]],"type":"Polygon"}},{"type":"Feature","properties":{},"geometry":{"coordinates":[[[-75.1755032732848,40.99447339269895],[-75.17558465120017,40.99446315572479],[-75.17571059321178,40.994368098029355],[-75.1758946623058,40.99409023628746],[-75.17619834386126,40.99356972518811],[-75.175982731327,40.993602273324],[-75.17589648631385,40.99364567081352],[-75.17578149296224,40.993621259729196],[-75.17532870664138,40.99368364359299],[-75.17542932582349,40.99421526021399],[-75.1755032732848,40.99447339269895]]],"type":"Polygon"},"id":9},{"type":"Feature","properties":{},"geometry":{"coordinates":[[[-75.17471555981894,40.9952035340024],[-75.17519160091291,40.99533237338994],[-75.17530460056689,40.99532148556429],[-75.17539115349365,40.99533237338994],[-75.1753094090628,40.995274304965506],[-75.17528055808724,40.99523982681458],[-75.17523247312793,40.995176314383855],[-75.17518438817103,40.995081952942854],[-75.17471555981894,40.9952035340024]]],"type":"Polygon"}},{"type":"Feature","properties":{},"geometry":{"coordinates":[[[-75.17471075029769,40.9951744999656],[-75.175140013588,40.99505654813768],[-75.17488516330442,40.99496037187981],[-75.17471075029769,40.9951744999656]]],"type":"Polygon"}},{"type":"Feature","properties":{},"geometry":{"coordinates":[[[-75.17479620727879,40.995439436247636],[-75.17513280199316,40.99534870445933],[-75.17469763311259,40.995221679745924],[-75.17479620727879,40.995439436247636]]],"type":"Polygon"}},{"type":"Feature","properties":{},"geometry":{"coordinates":[[[-75.1749068026852,40.9949422245154],[-75.17517367420265,40.9950365861539],[-75.17514963172299,40.99494585381112],[-75.17515924871486,40.994829716230754],[-75.17517848269858,40.99474624221807],[-75.17498373861379,40.994851492042756],[-75.1749068026852,40.9949422245154]]],"type":"Polygon"}},{"type":"Feature","properties":{},"geometry":{"coordinates":[[[-75.17470595654189,40.99546780499949],[-75.1747587378802,40.995450270888995],[-75.17465447641364,40.995214192789945],[-75.17458701311173,40.99523270874988],[-75.17470595654189,40.99546780499949]]],"type":"Polygon"}},{"type":"Feature","properties":{},"geometry":{"coordinates":[[[-75.17456861402941,40.99520493480799],[-75.17465447641364,40.995186418840206],[-75.17485686631885,40.99495033979625],[-75.17477100393509,40.99491099320622],[-75.17463914384504,40.994945710786936],[-75.174556347975,40.99516790286728],[-75.17456861402941,40.99520493480799]]],"type":"Polygon"}},{"type":"Feature","properties":{},"geometry":{"coordinates":[[[-75.17452831391749,40.99513168045246],[-75.17459884373312,40.99495577835336],[-75.17446698364307,40.99499743941922],[-75.17452831391749,40.99513168045246]]],"type":"Polygon"}},{"type":"Feature","properties":{},"geometry":{"coordinates":[[[-75.1737762714086,40.99502695407534],[-75.1741687851646,40.99492280140822],[-75.1738406681968,40.99429325289347],[-75.1736505443465,40.99463348758002],[-75.17365667737394,40.99481170504822],[-75.1737762714086,40.99502695407534]]],"type":"Polygon"}},{"type":"Feature","properties":{},"geometry":{"coordinates":[[[-75.17504580200793,40.99540444281385],[-75.17471141410684,40.99549568903777],[-75.17474742511168,40.99575777855358],[-75.17516926831017,40.99564906006657],[-75.17504580200793,40.99540444281385]]],"type":"Polygon"}},{"type":"Feature","properties":{},"geometry":{"coordinates":[[[-75.17430706660932,40.99615802956026],[-75.17480506675162,40.99599308035744],[-75.17473341205528,40.995871396254785],[-75.17464742641901,40.99585787578505],[-75.17461876454026,40.995822722550685],[-75.17419600182915,40.99594711083378],[-75.17430706660932,40.99615802956026]]],"type":"Polygon"}},{"type":"Feature","properties":{},"geometry":{"coordinates":[[[-75.1747666622339,40.99617496360324],[-75.17491969107407,40.99621803103847],[-75.1749300659116,40.99611623525061],[-75.1747666622339,40.99617496360324]]],"type":"Polygon"}},{"type":"Feature","properties":{},"geometry":{"coordinates":[[[-75.17504418913363,40.99626892887346],[-75.17497156526507,40.996135811375865],[-75.17495081558833,40.996233691914966],[-75.17504418913363,40.99626892887346]]],"type":"Polygon"}},{"type":"Feature","properties":{},"geometry":{"coordinates":[[[-75.17351631298835,40.99668448751652],[-75.17357856201855,40.99655137085813],[-75.17346443879653,40.9965905228444],[-75.17351631298835,40.99668448751652]]],"type":"Polygon"}},{"type":"Feature","properties":{},"geometry":{"coordinates":[[[-75.17349556331163,40.99670014828223],[-75.17343590799061,40.99660422603378],[-75.17325434832001,40.99665903876408],[-75.17349556331163,40.99670014828223]]],"type":"Polygon"}},{"type":"Feature","properties":{},"geometry":{"coordinates":[[[-75.17354097725575,40.99672116929676],[-75.17357210177083,40.996754448401134],[-75.17380553563326,40.99668005979234],[-75.17370697466882,40.99650583351195],[-75.17362397596187,40.996539112724435],[-75.17354097725575,40.99672116929676]]],"type":"Polygon"}},{"type":"Feature","properties":{},"geometry":{"coordinates":[[[-75.17306537799445,40.99538588895891],[-75.17309131509033,40.99532715989761],[-75.17305759686525,40.995254727316876],[-75.1728890057422,40.99529779534765],[-75.17291234912892,40.99532715989761],[-75.17294087993403,40.99535065152841],[-75.17306537799445,40.99538588895891]]],"type":"Polygon"}},{"type":"Feature","properties":{},"geometry":{"coordinates":[[[-75.17289419316138,40.995272346059835],[-75.17304462831771,40.99522732037357],[-75.17301350380258,40.99516663352972],[-75.17298756670667,40.99517837937478],[-75.17290975541891,40.99524298148543],[-75.17289419316138,40.995272346059835]]],"type":"Polygon"}},{"type":"Feature","properties":{},"geometry":{"coordinates":[[[-75.1722068601208,40.99545636376345],[-75.1723002336661,40.995430914536854],[-75.17217314189652,40.99539371949646],[-75.1722068601208,40.99545636376345]]],"type":"Polygon"}},{"type":"Feature","properties":{},"geometry":{"coordinates":[[[-75.17207976835121,40.99549160113682],[-75.1721757356057,40.9954622366601],[-75.17215239221979,40.99539959239871],[-75.17204605012694,40.995430914536854],[-75.17207976835121,40.99549160113682]]],"type":"Polygon"}},{"type":"Feature","properties":{},"geometry":{"coordinates":[[[-75.17234352466166,40.99623232723974],[-75.17246024159287,40.99612465863683],[-75.17231499385656,40.99616968371015],[-75.17234352466166,40.99623232723974]]],"type":"Polygon"}},{"type":"Feature","properties":{},"geometry":{"coordinates":[[[-75.17254842771902,40.99615402281847],[-75.17258733336328,40.996083548760424],[-75.17253027175227,40.99610704012167],[-75.17254842771902,40.99615402281847]]],"type":"Polygon"}},{"type":"Feature","properties":{},"geometry":{"coordinates":[[[-75.17179365408357,40.99597122679103],[-75.17169509311906,40.99578329527995],[-75.17154206425354,40.99584006631363],[-75.17161987554131,40.99598688772613],[-75.17169768682906,40.99599471819229],[-75.17179365408357,40.99597122679103]]],"type":"Polygon"}},{"type":"Feature","properties":{},"geometry":{"coordinates":[[[-75.17153168904173,40.995814219042984],[-75.17169509274562,40.99575353273997],[-75.17177549774256,40.99560279555169],[-75.17146944001152,40.995690888755405],[-75.17153168904173,40.995814219042984]]],"type":"Polygon"}},{"type":"Feature","properties":{},"geometry":{"coordinates":[[[-75.17132678544404,40.99653070502211],[-75.1714279401177,40.9965032986093],[-75.17119191254525,40.99609024343718],[-75.17111928867669,40.996117650021716],[-75.17132678544404,40.99653070502211]]],"type":"Polygon"}},{"type":"Feature","properties":{},"geometry":{"coordinates":[[[-75.17110880408721,40.996086079159966],[-75.17117364682662,40.99606650301996],[-75.17103877392785,40.99580613980504],[-75.17096615005926,40.995833546507725],[-75.17110880408721,40.996086079159966]]],"type":"Polygon"}},{"type":"Feature","properties":{},"geometry":{"coordinates":[[[-75.17096501372727,40.99580463854167],[-75.17103245017665,40.99578114707262],[-75.17100132553055,40.99572829121121],[-75.17092610795284,40.99573807933183],[-75.17096501372727,40.99580463854167]]],"type":"Polygon"}},{"type":"Feature","properties":{},"geometry":{"coordinates":[[[-75.17041238215253,40.99564013320031],[-75.17056022359886,40.99578695505815],[-75.17077290778536,40.99572235348117],[-75.17082737568637,40.99571843823202],[-75.17091037439332,40.99571843823202],[-75.17098299826189,40.995708650107844],[-75.17097521713272,40.995667539972004],[-75.17077290778536,40.99541109044898],[-75.17041238215253,40.99564013320031]]],"type":"Polygon"}},{"type":"Feature","properties":{},"geometry":{"coordinates":[[[-75.17189941837475,40.9966040222597],[-75.17181317437918,40.99643513333439],[-75.17169429761792,40.99646680006728],[-75.17171760680601,40.996509022319],[-75.1717012903747,40.99656883712879],[-75.17189941837475,40.9966040222597]]],"type":"Polygon"}},{"type":"Feature","properties":{},"geometry":{"coordinates":[[[-75.17167983643441,40.9965639970512],[-75.17168916010964,40.99652177483517],[-75.17166352000312,40.99647251554836],[-75.17146772282317,40.99652177483517],[-75.17148870109209,40.99654288594627],[-75.17167983643441,40.9965639970512]]],"type":"Polygon"}},{"type":"Feature","properties":{},"geometry":{"coordinates":[[[-75.17339248773851,40.99582922497049],[-75.17349119407076,40.99580348883373],[-75.17332787995814,40.99578858896081],[-75.17339248773851,40.99582922497049]]],"type":"Polygon"}},{"type":"Feature","properties":{},"geometry":{"coordinates":[[[-75.17332429063697,40.99584818843269],[-75.17335659452743,40.995837352169445],[-75.17330096004913,40.99580348883373],[-75.17332429063697,40.99584818843269]]],"type":"Polygon"}},{"type":"Feature","properties":{},"geometry":{"coordinates":[[[-75.17341469200713,40.995845608099984],[-75.17348590752756,40.995888023386584],[-75.17347234266674,40.99586389055446],[-75.17347476496315,40.99583061648397],[-75.17341469200713,40.995845608099984]]],"type":"Polygon"}},{"type":"Feature","properties":{},"geometry":{"coordinates":[[[-75.17392110548434,40.99664280148144],[-75.1739643141654,40.99670465116486],[-75.174053711437,40.996693405772504],[-75.17392557530422,40.99646287478211],[-75.17388832644127,40.9964516293478],[-75.17373635108,40.996499984699994],[-75.17383617803306,40.99666641680443],[-75.17392110548434,40.99664280148144]]],"type":"Polygon"}},{"type":"Feature","properties":{},"geometry":{"coordinates":[[[-75.17475357530138,40.9958444652421],[-75.1747552943551,40.995836983323926],[-75.17472817257536,40.99578313050887],[-75.17464346917096,40.99580738002794],[-75.17466203715887,40.995834463894596],[-75.17471106499119,40.9958443841459],[-75.17475357530138,40.9958444652421]]],"type":"Polygon"}},{"type":"Feature","properties":{},"geometry":{"coordinates":[[[-75.17164633084413,40.99605203200784],[-75.17168341954844,40.996013428915546],[-75.17162240264766,40.99600643069181],[-75.17164633084413,40.99605203200784]]],"type":"Polygon"}},{"type":"Feature","properties":{},"geometry":{"coordinates":[[[-75.17163513841773,40.9975214464377],[-75.17177161053138,40.997678080428045],[-75.17188870198933,40.99738126784246],[-75.17163513841773,40.9975214464377]]],"type":"Polygon"}},{"type":"Feature","properties":{},"geometry":{"coordinates":[[[-75.17191195192964,40.997394229717855],[-75.1720185455326,40.99743201701389],[-75.17214290473636,40.9974594432629],[-75.1722188123022,40.99744847276435],[-75.17244330489103,40.99733998662748],[-75.17228987470452,40.9971662865415],[-75.17192971752996,40.99735705187402],[-75.17191195192964,40.997394229717855]]],"type":"Polygon"}},{"type":"Feature","properties":{},"geometry":{"coordinates":[[[-75.17155893773737,40.99744195991394],[-75.17161340013084,40.99750339136199],[-75.17187553780259,40.99736336371336],[-75.17166666554768,40.99736607392856],[-75.17156252866421,40.99735026433706],[-75.17154158159038,40.99734168198631],[-75.17140871729069,40.99728883274693],[-75.17150866475941,40.99738323862326],[-75.17155893773737,40.99744195991394]]],"type":"Polygon"}},{"type":"Feature","properties":{},"geometry":{"coordinates":[[[-75.1716085442712,40.99706260701592],[-75.17134105818229,40.99721533595192],[-75.17136431784247,40.997244009161165],[-75.17147053695581,40.997196610584126],[-75.1715721041374,40.99711000568925],[-75.1716085442712,40.99706260701592]]],"type":"Polygon"}},{"type":"Feature","properties":{},"geometry":{"coordinates":[[[-75.1719427050394,40.99808313107664],[-75.17177539625078,40.997997342345826],[-75.17176007025486,40.99817855885911],[-75.1719427050394,40.99808313107664]]],"type":"Polygon"}},{"type":"Feature","properties":{},"geometry":{"coordinates":[[[-75.1721904752772,40.99818627020295],[-75.17178816788525,40.99773804765357],[-75.1717805048869,40.99781998103515],[-75.17177922772119,40.99796553302721],[-75.1721904752772,40.99818627020295]]],"type":"Polygon"}},{"type":"Feature","properties":{},"geometry":{"coordinates":[[[-75.17160871376657,40.998032315120724],[-75.17172879346565,40.99816784875421],[-75.17174502045187,40.99798169405378],[-75.17157193259771,40.99793025647807],[-75.17140966273416,40.99789514826847],[-75.17144211670661,40.99792862353823],[-75.1714897158667,40.99797842817716],[-75.1715329878304,40.99802251749787],[-75.17160871376657,40.998032315120724]]],"type":"Polygon"}},{"type":"Feature","properties":{},"geometry":{"coordinates":[[[-75.17174680684072,40.99795571485939],[-75.17175165665023,40.997831264160226],[-75.17176378117367,40.9977132187951],[-75.17160858726989,40.99753203247417],[-75.17106055879535,40.99781204748709],[-75.17115876771777,40.99781936803646],[-75.17138913366941,40.99786512200524],[-75.1715855509544,40.99790904578569],[-75.17174680684072,40.99795571485939]]],"type":"Polygon"}},{"type":"Feature","properties":{},"geometry":{"coordinates":[[[-75.1721432843362,40.997482871940946],[-75.17201453703336,40.99745599497956],[-75.1719775564252,40.99744255649449],[-75.17190907381666,40.99741464578642],[-75.17180087129603,40.99770512331909],[-75.17208920650776,40.998034358337094],[-75.1729260818607,40.99757929435418],[-75.17265920428756,40.997559400774975],[-75.17250599679181,40.997425118958546],[-75.17245492762675,40.99736916812071],[-75.17223417704162,40.99747112294517],[-75.1721432843362,40.997482871940946]]],"type":"Polygon"}},{"type":"Feature","properties":{},"geometry":{"coordinates":[[[-75.17293682125936,40.997553232390686],[-75.17293832598523,40.99754482033151],[-75.17254829513452,40.99703791992118],[-75.17231186118674,40.99715034142517],[-75.17278472908157,40.99753578512659],[-75.17293682125936,40.997553232390686]]],"type":"Polygon"}},{"type":"Feature","properties":{},"geometry":{"coordinates":[[[-75.17175510931118,40.99709525301881],[-75.17169322634292,40.99702139275743],[-75.17166444356688,40.9970355131081],[-75.17159968232103,40.99711806278887],[-75.17150038174391,40.997203870899966],[-75.17138956805641,40.99725926595025],[-75.17147303810646,40.997290765075974],[-75.17156514298978,40.99732335036211],[-75.17166444356688,40.99733964299915],[-75.17191053630177,40.997341815350836],[-75.17196234529818,40.99731031624947],[-75.17175510931118,40.99709525301881]]],"type":"Polygon"}},{"type":"Feature","properties":{},"geometry":{"coordinates":[[[-75.17195461050387,40.9973168868263],[-75.17252505848194,40.99701766079167],[-75.17242237784608,40.99688311626906],[-75.1724280823259,40.99682391659201],[-75.1723168449699,40.99681100029176],[-75.17215997177598,40.99681422936692],[-75.17205443889983,40.996832527457485],[-75.17171217011305,40.997007973595004],[-75.17195461050387,40.9973168868263]]],"type":"Polygon"}},{"type":"Feature","properties":{},"geometry":{"coordinates":[[[-75.17274311835774,40.99872641325243],[-75.17275414635486,40.99864734379662],[-75.1727938471432,40.99851583859697],[-75.17278612754566,40.99841596105469],[-75.17255453961393,40.99852332940671],[-75.17274311835774,40.99872641325243]]],"type":"Polygon"}},{"type":"Feature","properties":{},"geometry":{"coordinates":[[[-75.17249597460774,40.99869659545408],[-75.17262289821997,40.998632210393595],[-75.1725427906945,40.99854152157346],[-75.1725349880135,40.99859530673302],[-75.17251157996976,40.99866401033955],[-75.17249597460774,40.99869659545408]]],"type":"Polygon"}},{"type":"Feature","properties":{},"geometry":{"coordinates":[[[-75.17172881272718,40.99913287618409],[-75.1716669270704,40.999167458522834],[-75.17170758644423,40.9992135224459],[-75.1717076150369,40.99920040404854],[-75.17171539565395,40.999166207692525],[-75.17172881272718,40.99913287618409]]],"type":"Polygon"}},{"type":"Feature","properties":{},"geometry":{"coordinates":[[[-75.1756834434325,40.99571657487712],[-75.1758784279832,40.99565008567396],[-75.17568799857995,40.99552255100866],[-75.17570267822755,40.9954087156801],[-75.1756484494511,40.99540223439246],[-75.17554883222219,40.995390623761296],[-75.17544452835145,40.99535867123964],[-75.17533087233787,40.99534247679196],[-75.17526427639315,40.995348011881646],[-75.17519383436264,40.995356975601965],[-75.17507743075299,40.995390027748584],[-75.17520485463622,40.99564181441116],[-75.17528073874966,40.99562082853939],[-75.17542670835107,40.99565615979935],[-75.17549807541006,40.99577473481966],[-75.1756834434325,40.99571657487712]]],"type":"Polygon"}},{"type":"Feature","properties":{},"geometry":{"coordinates":[[[-75.17587922769796,40.99565058354679],[-75.1759195826208,40.995638831423264],[-75.17583719054674,40.99542404805675],[-75.17581025406986,40.99540450078237],[-75.17572775799361,40.99541117824012],[-75.17571032345461,40.99553886341164],[-75.17587922769796,40.99565058354679]]],"type":"Polygon"}},{"type":"Feature","properties":{},"geometry":{"coordinates":[[[-75.17469758206462,40.994367193873984],[-75.17494094665581,40.99485932704121],[-75.17496998268425,40.99483362225723],[-75.17520510923052,40.99470176407135],[-75.17523408507263,40.9946438019235],[-75.17531016134276,40.994555544903335],[-75.17539675844958,40.99450774446257],[-75.17548345060656,40.99448680977457],[-75.17541378516299,40.99428766285692],[-75.17531200988692,40.99378559573617],[-75.17469758206462,40.994367193873984]]],"type":"Polygon"}},{"type":"Feature","properties":{},"geometry":{"coordinates":[[[-75.17504432526331,40.99403661107931],[-75.17531288091638,40.993782447385286],[-75.17529017378598,40.99367749997501],[-75.17507380709255,40.99370794539425],[-75.17488243219445,40.99374199840406],[-75.17485616079331,40.99374752087405],[-75.17475456724962,40.99378141495902],[-75.17504432526331,40.99403661107931]]],"type":"Polygon"}},{"type":"Feature","properties":{},"geometry":{"coordinates":[[[-75.17397173226668,40.99446472316896],[-75.17421334665686,40.994919607102645],[-75.1742515578843,40.99496618002587],[-75.17429174685947,40.99498676702095],[-75.1743523719673,40.9949990675118],[-75.17443862378516,40.99498671735236],[-75.17462962546963,40.9949276749648],[-75.17476844994555,40.99488958911002],[-75.17487666250395,40.99493190285074],[-75.17494223613947,40.99485923479364],[-75.17478408098835,40.994548668395396],[-75.17468757953996,40.99454765677592],[-75.1746790017781,40.99453671947066],[-75.17458884359073,40.99433743314225],[-75.17455986417353,40.99431069956444],[-75.17421962434793,40.99444760777192],[-75.17417991181352,40.994385229511664],[-75.17397173226668,40.99446472316896]]],"type":"Polygon"}},{"type":"Feature","properties":{},"geometry":{"coordinates":[[[-75.17449254385902,40.995835787390064],[-75.17471603038662,40.99576501934078],[-75.1746798454697,40.99549393322778],[-75.17443315493836,40.99500818344552],[-75.174360209323,40.99502001836106],[-75.1742878394892,40.99500686853915],[-75.17423423220458,40.99498360346186],[-75.17419938747001,40.994945165491174],[-75.17377818971298,40.995056217790165],[-75.17379561208068,40.99507745979392],[-75.17445983035243,40.99584303242381],[-75.17449254385902,40.995835787390064]]],"type":"Polygon"}},{"type":"Feature","properties":{},"geometry":{"coordinates":[[[-75.17565741552858,40.99496124758997],[-75.17564502071174,40.994924866236715],[-75.17562711708628,40.9949524121202],[-75.17565741552858,40.99496124758997]]],"type":"Polygon"}},{"type":"Feature","properties":{},"geometry":{"coordinates":[[[-75.17568333689208,40.99496242528238],[-75.17637193786143,40.994790393280425],[-75.17637882387136,40.99477843937848],[-75.1763808896746,40.994763886798836],[-75.17637262646251,40.9947488144814],[-75.17635885444352,40.994739459247825],[-75.17634095081804,40.99473530136589],[-75.17566267886231,40.99490993218143],[-75.17568333689208,40.99496242528238]]],"type":"Polygon"}},{"type":"Feature","properties":{},"geometry":{"coordinates":[[[-75.17688815589436,40.99470392692132],[-75.17685742890983,40.99457209966704],[-75.17681376424983,40.99457557010089],[-75.17673532958347,40.994597541330194],[-75.17665253582206,40.99468170461594],[-75.17673016188348,40.99470550674181],[-75.17680051050154,40.994715271714114],[-75.17688815589436,40.99470392692132]]],"type":"Polygon"}},{"type":"Feature","properties":{},"geometry":{"coordinates":[[[-75.17685011895676,40.99553251949291],[-75.17683964752653,40.9954903358047],[-75.17658410673624,40.995571335216],[-75.17685011895676,40.99553251949291]]],"type":"Polygon"}},{"type":"Feature","properties":{},"geometry":{"coordinates":[[[-75.17651804122694,40.99563755733982],[-75.17659302319481,40.99558792216618],[-75.1764983738256,40.99560323021453],[-75.17651804122694,40.99563755733982]]],"type":"Polygon"}},{"type":"Feature","properties":{},"geometry":{"coordinates":[[[-75.17682262572566,40.996191254677456],[-75.17708961679102,40.99648733895779],[-75.1772997397234,40.99638185453881],[-75.17707296738237,40.995413374106164],[-75.1768628446113,40.99547957581174],[-75.17687730261113,40.99554286734974],[-75.1768686278116,40.995548687258264],[-75.17664019141279,40.995584334186276],[-75.17653223834644,40.99565417301042],[-75.17658428714597,40.995746563841095],[-75.17661416790105,40.99575456588482],[-75.17678862776671,40.99570655177408],[-75.1768512790994,40.99594152958778],[-75.17675778406368,40.99595555085645],[-75.17682262572566,40.996191254677456]]],"type":"Polygon"}},{"type":"Feature","properties":{},"geometry":{"coordinates":[[[-75.17638863847426,40.99684391499878],[-75.17708720816442,40.99648464259417],[-75.17682138076032,40.99619302394265],[-75.17626808883777,40.996463646094696],[-75.17638863847426,40.99684391499878]]],"type":"Polygon"}},{"type":"Feature","properties":{},"geometry":{"coordinates":[[[-75.1766424215552,40.99590718787729],[-75.17661447166216,40.99577639650519],[-75.17656863383843,40.9957671145271],[-75.1764780761854,40.99561185215276],[-75.17646339707342,40.995612879337585],[-75.17607500767483,40.995741341132884],[-75.17608395164052,40.995770874706835],[-75.17619463321603,40.99609996220761],[-75.1766424215552,40.99590718787729]]],"type":"Polygon"}},{"type":"Feature","properties":{},"geometry":{"coordinates":[[[-75.17512813281714,40.99626042903165],[-75.1751850642838,40.996277139259206],[-75.17520846944306,40.996235602400674],[-75.17514774254465,40.99621841472768],[-75.17512813281714,40.99626042903165]]],"type":"Polygon"}},{"type":"Feature","properties":{},"geometry":{"coordinates":[[[-75.17613759070329,40.99639259736111],[-75.17608383016885,40.99623029393379],[-75.17602091891612,40.996217344176074],[-75.17595457614067,40.996009284385224],[-75.17599689825575,40.99596180176832],[-75.17592926450538,40.99578737430787],[-75.17562042744672,40.995890109653345],[-75.17569363328407,40.99601788112645],[-75.17596423729336,40.99644482075587],[-75.17613759070329,40.99639259736111]]],"type":"Polygon"}},{"type":"Feature","properties":{},"geometry":{"coordinates":[[[-75.17529075914548,40.9961991369363],[-75.17518781345925,40.99603337976612],[-75.17498077824563,40.99609726539143],[-75.17507571732764,40.99626302236186],[-75.1751008818292,40.99625784246183],[-75.17513634089885,40.99619913689719],[-75.17522212897082,40.99621640324514],[-75.17529075914548,40.9961991369363]]],"type":"Polygon"}},{"type":"Feature","properties":{},"geometry":{"coordinates":[[[-75.17556207894937,40.99634161354018],[-75.17585261455338,40.99644693796458],[-75.1755941064963,40.99589614116272],[-75.17540422889694,40.99596002692101],[-75.17521320745719,40.99602563925728],[-75.17536991366846,40.9962863613157],[-75.17546828399084,40.99631744069768],[-75.17556207894937,40.99634161354018]]],"type":"Polygon"}},{"type":"Feature","properties":{},"geometry":{"coordinates":[[[-75.17540191700871,40.99684400563487],[-75.17557817716761,40.99676392265084],[-75.17555404801925,40.99635968793379],[-75.17534815664605,40.99629752919503],[-75.17530125916716,40.99621637741981],[-75.1752337725955,40.99623968674706],[-75.1752017450493,40.99629666564343],[-75.17519145048045,40.996299255591936],[-75.17511481313616,40.99627421941722],[-75.17508736074504,40.99628630562012],[-75.17540191700871,40.99684400563487]]],"type":"Polygon"}},{"type":"Feature","properties":{},"geometry":{"coordinates":[[[-75.17493226039632,40.99632828168788],[-75.17496075654219,40.99635489541575],[-75.1750659475194,40.99630385702048],[-75.17494250912756,40.99625686925617],[-75.17493226039632,40.99632828168788]]],"type":"Polygon"}},{"type":"Feature","properties":{},"geometry":{"coordinates":[[[-75.17471686637616,40.996266760108256],[-75.17482098399329,40.99621734181818],[-75.17471579303384,40.99618493652423],[-75.17453439226699,40.996246506758126],[-75.17471686637616,40.996266760108256]]],"type":"Polygon"}},{"type":"Feature","properties":{},"geometry":{"coordinates":[[[-75.17420095921653,40.99696646398036],[-75.17406381065837,40.99671657067296],[-75.1739488275238,40.99672911763989],[-75.17391003803297,40.99666638278137],[-75.17373825600028,40.99672598089791],[-75.17396129557478,40.99685354159922],[-75.17420095921653,40.99696646398036]]],"type":"Polygon"}},{"type":"Feature","properties":{},"geometry":{"coordinates":[[[-75.17317572238099,40.996928547248075],[-75.17318957577399,40.996901362225344],[-75.17322143857015,40.99688672413495],[-75.17327408145114,40.996784257413736],[-75.17347357026289,40.99671734028513],[-75.1732075851804,40.99667238030139],[-75.17266730298209,40.99684803773886],[-75.1726562202703,40.996865812572054],[-75.17293605874205,40.99721503480225],[-75.17314940094397,40.99711570531434],[-75.17317572238099,40.996928547248075]]],"type":"Polygon"}},{"type":"Feature","properties":{},"geometry":{"coordinates":[[[-75.1715912046853,40.997512633803524],[-75.17150528522484,40.997413398653094],[-75.17149356893493,40.99739669569166],[-75.17140634766741,40.997319075992806],[-75.17135948250859,40.997275844728335],[-75.17049892481887,40.997735690309895],[-75.17039478002157,40.99775141066331],[-75.17061739034254,40.998016399975086],[-75.1715912046853,40.997512633803524]]],"type":"Polygon"}},{"type":"Feature","properties":{},"geometry":{"coordinates":[[[-75.17133627589638,40.997878302023395],[-75.17118266231996,40.99784784389405],[-75.17114490983153,40.99784096625012],[-75.17102357670544,40.997831861087974],[-75.17076581833251,40.99797334392656],[-75.17073197127299,40.99796155370154],[-75.17061883082167,40.99801828261323],[-75.17076593534728,40.99820299573639],[-75.17133627589638,40.997878302023395]]],"type":"Polygon"}},{"type":"Feature","properties":{},"geometry":{"coordinates":[[[-75.17076804289229,40.998204114809795],[-75.17082206082554,40.99827138356429],[-75.17091119041625,40.998384177483274],[-75.17097781253493,40.99846367669602],[-75.17109125019572,40.99851124028149],[-75.17113388419548,40.99848069051163],[-75.17118970272742,40.99848069051163],[-75.17135715832204,40.99838964014705],[-75.17149139271648,40.99836652039329],[-75.17174617730429,40.998232662492455],[-75.17173267282041,40.998206842155156],[-75.17159222619298,40.99804988146795],[-75.17152380347679,40.99804172765579],[-75.17148135901168,40.998001500594455],[-75.17136882164938,40.99788530859058],[-75.17117525738716,40.9979926672913],[-75.17116265320232,40.99797975707713],[-75.17076804289229,40.998204114809795]]],"type":"Polygon"}},{"type":"Feature","properties":{},"geometry":{"coordinates":[[[-75.17277007739887,40.99875458128571],[-75.17284854969115,40.99883955610187],[-75.17309079024503,40.99809537899492],[-75.17297819956535,40.99815717948988],[-75.17300549427516,40.99819580476941],[-75.1728860799179,40.998276917783386],[-75.17278543067373,40.99865158136288],[-75.17277007739887,40.99875458128571]]],"type":"Polygon"}},{"type":"Feature","properties":{},"geometry":{"coordinates":[[[-75.17253934206317,40.998504730295195],[-75.1727903859904,40.99839027511791],[-75.17285704937403,40.99838637848785],[-75.17288574010863,40.99827578984383],[-75.17266338691535,40.99838947187379],[-75.17261727680668,40.998352351232455],[-75.17247792181004,40.998409578879375],[-75.17253934206317,40.998504730295195]]],"type":"Polygon"}},{"type":"Feature","properties":{},"geometry":{"coordinates":[[[-75.1716546862335,40.99914929392651],[-75.1724639892987,40.998706929415505],[-75.17251002510727,40.99860044414149],[-75.17252307198679,40.998518856201315],[-75.17240192238879,40.998333172927005],[-75.17173280383959,40.998670778491174],[-75.17169739087979,40.998659525000164],[-75.17136749120526,40.99883114052881],[-75.17139934015735,40.998870771482586],[-75.17144034463679,40.99891156524731],[-75.1716546862335,40.99914929392651]]],"type":"Polygon"}},{"type":"Feature","properties":{},"geometry":{"coordinates":[[[-75.17173273515864,40.99923770350432],[-75.17203314496692,40.999570988092046],[-75.17208872078129,40.99954718210577],[-75.17215030479234,40.99960159577569],[-75.17226446051914,40.99958119065437],[-75.17230351379428,40.99963673791345],[-75.1725288211504,40.999648074082614],[-75.1725768867198,40.99969795320541],[-75.17274661826151,40.9996083974809],[-75.17277215309498,40.999637871530666],[-75.17281721456632,40.99961293195088],[-75.17272558957488,40.999490501151456],[-75.17282622686056,40.99943835463114],[-75.17245071460012,40.99902571549168],[-75.17229900764694,40.99882392947751],[-75.1717627761395,40.999118672885686],[-75.17173573925669,40.99917081965964],[-75.17173273515864,40.99923770350432]]],"type":"Polygon"}},{"type":"Feature","properties":{},"geometry":{"coordinates":[[[-75.17263694062248,40.998651274133806],[-75.17249844679648,40.99872028073287],[-75.17230079055928,40.998824805296664],[-75.17245945342502,40.99903182432044],[-75.17247155482667,40.99902573553484],[-75.17248500082964,40.99902675033272],[-75.1726369406578,40.99919825091672],[-75.17285757060395,40.99943759853059],[-75.17299083120827,40.99956754616366],[-75.1731335456112,40.999636880482996],[-75.1732962422909,40.999699000927706],[-75.17331910049546,40.999721326245464],[-75.17339036430914,40.99967363123946],[-75.17342263471525,40.999652320694366],[-75.1734817971256,40.99963202493035],[-75.17353154733526,40.99962593619958],[-75.173461628122,40.99953561996588],[-75.17339843191026,40.999454436728456],[-75.17263694062248,40.998651274133806]]],"type":"Polygon"}},{"type":"Feature","properties":{},"geometry":{"coordinates":[[[-75.17275759821527,40.99949762906152],[-75.17285635797286,40.99962117653041],[-75.17279083582346,40.9996601663195],[-75.17293448053694,40.999814223308505],[-75.17300204628833,40.99988372278136],[-75.17302472703302,40.99992366338114],[-75.17306630839695,40.99988562471498],[-75.17329941604685,40.999734420800706],[-75.17327799534371,40.9997173033542],[-75.17314065078479,40.99966404904336],[-75.17296928516122,40.99958226556157],[-75.17291384334185,40.99952615823085],[-75.17284076094397,40.99945768820362],[-75.17275759821527,40.99949762906152]]],"type":"Polygon"}},{"type":"Feature","properties":{},"geometry":{"coordinates":[[[-75.17258551497605,41.000174066346034],[-75.17278208142582,41.000067558430715],[-75.172847603576,41.0000333237069],[-75.17257543464527,40.99973472008446],[-75.17250991249509,40.99967005415357],[-75.17228310505214,40.99965388766137],[-75.172251604019,40.99960729010144],[-75.17214576054563,40.999626309517566],[-75.17208532753874,40.9995737115527],[-75.17205256646402,40.999589878065166],[-75.17258551497605,41.000174066346034]]],"type":"Polygon"}},{"type":"Feature","properties":{},"geometry":{"coordinates":[[[-75.17272205113788,41.00013948933034],[-75.17276440066075,41.00018404174071],[-75.17319302916265,40.999962247919996],[-75.17316094619072,40.99993125483755],[-75.1731994457564,40.99991382122252],[-75.17315784182246,40.99987143864098],[-75.17302565997915,40.99997022912993],[-75.17272205113788,41.00013948933034]]],"type":"Polygon"}},{"type":"Feature","properties":{},"geometry":{"coordinates":[[[-75.17348784074609,41.000019028603674],[-75.17353917350087,40.99998416141494],[-75.17340955829486,40.99985340929291],[-75.17335309226463,40.99987568559919],[-75.17348784074609,41.000019028603674]]],"type":"Polygon"}},{"type":"Feature","properties":{},"geometry":{"coordinates":[[[-75.17323357923115,40.99990120533366],[-75.17339369449891,40.999837100780866],[-75.1733214473656,40.99976046996915],[-75.17318671622597,40.999853311133705],[-75.17323357923115,40.99990120533366]]],"type":"Polygon"}},{"type":"Feature","properties":{},"geometry":{"coordinates":[[[-75.1736740106411,41.000274397159586],[-75.17368532558599,41.000288191672865],[-75.17387680926628,41.00018637495765],[-75.17374364107049,41.00013185368363],[-75.17364615846932,41.000069449760844],[-75.17355912043259,40.999997849397914],[-75.17350254570911,41.00003726245109],[-75.1735808799419,41.00011937290344],[-75.17365486228073,41.00019754199309],[-75.17370882586326,41.000254690739894],[-75.1736740106411,41.000274397159586]]],"type":"Polygon"}},{"type":"Feature","properties":{},"geometry":{"coordinates":[[[-75.17334895508,40.99974914373169],[-75.17338743784254,40.99978980450743],[-75.17343105164089,40.9998353058221],[-75.17356317579343,40.99997277768861],[-75.1736285964902,41.00002021509738],[-75.17366194823161,41.000053130857054],[-75.17372352065149,41.00009088711846],[-75.1737453275507,41.0001044406427],[-75.17390625397599,41.000173086180524],[-75.17388316431783,41.00014404294021],[-75.17399732984804,41.000087892640266],[-75.17360608842557,40.999669668209805],[-75.17355862635107,40.99965127401896],[-75.17348935737823,40.99965901894211],[-75.17343419875158,40.9996793493612],[-75.17334895508,40.99974914373169]]],"type":"Polygon"}},{"type":"Feature","properties":{},"geometry":{"coordinates":[[[-75.17439451439769,41.000665804329145],[-75.17444780392817,41.00063796129126],[-75.17429920812249,41.00047244965677],[-75.17424284419617,41.00041057604176],[-75.1741752074841,41.00033787447009],[-75.17411166996729,41.000265172818246],[-75.17406145483264,41.00021412692925],[-75.17403378526892,41.00018164316154],[-75.17397844614142,41.00011899584942],[-75.17392105741628,41.00014993280101],[-75.17404710765169,41.000282188105444],[-75.17409322359106,41.000333233941234],[-75.17417828187992,41.000423724189886],[-75.17439451439769,41.000665804329145]]],"type":"Polygon"}},{"type":"Feature","properties":{},"geometry":{"coordinates":[[[-75.17424899298784,41.00054360424227],[-75.17415471151085,41.00043377865438],[-75.17413216594059,41.000525815602714],[-75.17412191794791,41.00054236682473],[-75.17413524033068,41.00057871750778],[-75.17424899298784,41.00054360424227]]],"type":"Polygon"}},{"type":"Feature","properties":{},"geometry":{"coordinates":[[[-75.17430562333993,41.00060995577351],[-75.1742687305887,41.00056200382724],[-75.17415805233307,41.000592167152405],[-75.17420211867542,41.000684203879985],[-75.17430562333993,41.00060995577351]]],"type":"Polygon"}},{"type":"Feature","properties":{},"geometry":{"coordinates":[[[-75.17410045750668,41.000520630074135],[-75.17410660629832,41.00050825536482],[-75.17413325106325,41.000410031027315],[-75.17393034092892,41.00019579318513],[-75.173905745761,41.0001950197624],[-75.17370143310043,41.00030632133428],[-75.17372807808688,41.00033803162867],[-75.17383055795254,41.00038985084211],[-75.17387257470389,41.00043238908407],[-75.1738643763146,41.00053757416026],[-75.17406320516696,41.00076032430971],[-75.17410045750668,41.000520630074135]]],"type":"Polygon"}},{"type":"Feature","properties":{},"geometry":{"coordinates":[[[-75.17430264527025,41.00036291594827],[-75.1743767677126,41.000342426813376],[-75.17536895465713,40.99986087949287],[-75.17535335422718,40.999847928290365],[-75.17505382597264,40.99985028305491],[-75.17427146192209,40.99896489041245],[-75.17460999110956,40.99853631603733],[-75.17453198896028,40.99852218716933],[-75.1745083072059,40.99847702515049],[-75.17448022631669,40.99847705341213],[-75.17441314446813,40.998533568904605],[-75.17440387782722,40.998510942431466],[-75.17367065762109,40.99813063919973],[-75.1734235654505,40.99783084927586],[-75.17357177019706,40.997763832384805],[-75.17353744925116,40.997728509794825],[-75.17405850361045,40.99744592839738],[-75.17395242068683,40.99744592839738],[-75.17378081595785,40.997469476893514],[-75.17355616976711,40.99753894490783],[-75.17337208469371,40.99762725160011],[-75.17321608039471,40.997679058137976],[-75.17323168082467,40.99770613881179],[-75.17322700069545,40.997781493672306],[-75.1731318381609,40.99808106311582],[-75.17430264527025,41.00036291594827]]],"type":"Polygon"}},{"type":"Feature","properties":{},"geometry":{"coordinates":[[[-75.17429716739474,41.00035841511729],[-75.17312720824977,40.99807867014576],[-75.1730714612021,40.9982591454596],[-75.172949697914,40.99861898740315],[-75.17287341248039,40.99886478600149],[-75.17308528566087,40.99909003339323],[-75.17357937751406,40.99962360983477],[-75.17364581404169,40.999646757098134],[-75.17367515459264,40.99968661577114],[-75.17429716739474,41.00035841511729]]],"type":"Polygon"}},{"type":"Feature","properties":{},"geometry":{"coordinates":[[[-75.17135609777989,40.999524877557946],[-75.17141953812957,40.99947593416849],[-75.17140262063127,40.99945252637096],[-75.17139980106018,40.99943124661763],[-75.17140262063127,40.99941103084515],[-75.17140825977343,40.999160993153396],[-75.17111220480976,40.99885881867678],[-75.17107414060031,40.99885243469373],[-75.17102479810606,40.998910954512496],[-75.17096417732793,40.99902267402268],[-75.17092188376162,40.999160993153396],[-75.17094444033029,40.999201424844244],[-75.17100224153737,40.999247176464735],[-75.17135609777989,40.999524877557946]]],"type":"Polygon"}},{"type":"Feature","properties":{},"geometry":{"coordinates":[[[-75.1704665271611,40.99940473232982],[-75.17089042498931,40.99918090774483],[-75.17088397787526,40.99915657893837],[-75.17093071946123,40.99899479215651],[-75.17098068460432,40.998914506838474],[-75.17081467138638,40.99893032062113],[-75.17086302475091,40.998988709938715],[-75.17058096345811,40.99914076521006],[-75.17053583365171,40.99908967467823],[-75.17047458605666,40.99912616791917],[-75.1701312771693,40.99874785367052],[-75.17003618221882,40.99880259380828],[-75.17026505481091,40.99905074853186],[-75.17050682163303,40.999308633822494],[-75.17042139735541,40.99935850774847],[-75.1704665271611,40.99940473232982]]],"type":"Polygon"}},{"type":"Feature","properties":{},"geometry":{"coordinates":[[[-75.17049588331201,40.998439452679406],[-75.17051361287875,40.99844796785467],[-75.17077472104668,40.99846986401545],[-75.17067962609669,40.99836159959568],[-75.17054101311889,40.99828861224691],[-75.17049588331201,40.998439452679406]]],"type":"Polygon"}},{"type":"Feature","properties":{},"geometry":{"coordinates":[[[-75.17053118808407,40.998251198877426],[-75.1705464622876,40.99826580087381],[-75.17063810750567,40.99831498652236],[-75.1705821020946,40.998256578560586],[-75.17055868165006,40.998231985719144],[-75.17053118808407,40.998251198877426]]],"type":"Polygon"}},{"type":"Feature","properties":{},"geometry":{"coordinates":[[[-75.17051285904073,40.9982296801399],[-75.17054238921065,40.99821738375326],[-75.17048129239842,40.99814591073968],[-75.17045278050885,40.99816358683043],[-75.17051285904073,40.9982296801399]]],"type":"Polygon"}},{"type":"Feature","properties":{},"geometry":{"coordinates":[[[-75.17044400956432,40.99826641021929],[-75.17049085045403,40.99824104885502],[-75.17042771708105,40.99817572408466],[-75.17038393103246,40.998201854000484],[-75.17044400956432,40.99826641021929]]],"type":"Polygon"}},{"type":"Feature","properties":{},"geometry":{"coordinates":[[[-75.17043505994856,40.99814477446685],[-75.17046459007464,40.998130172443695],[-75.17039840186123,40.99805562522164],[-75.17043505994856,40.99814477446685]]],"type":"Polygon"}},{"type":"Feature","properties":{},"geometry":{"coordinates":[[[-75.17078455943341,40.99890351980852],[-75.17100404781857,40.99888469563052],[-75.17103148386633,40.99884704725844],[-75.1709915768872,40.998842341210235],[-75.17093545766355,40.998807516432606],[-75.17092049255213,40.99876892680376],[-75.17094668150737,40.998693629905745],[-75.17094668150737,40.99867009960738],[-75.17090424023861,40.998610458385286],[-75.17079449604604,40.998491865447164],[-75.17047648730714,40.99846739386217],[-75.17007991170253,40.998681990530656],[-75.17010734775107,40.998720580208584],[-75.17016970240556,40.99878740618237],[-75.17057500766165,40.99858222199103],[-75.17078826058113,40.99882223095841],[-75.17073463557814,40.99884952604077],[-75.17078455943341,40.99890351980852]]],"type":"Polygon"}},{"type":"Feature","properties":{},"geometry":{"coordinates":[[[-75.17048498295885,40.998468013037325],[-75.17046378237602,40.998436011719775],[-75.17052239575139,40.998272240029905],[-75.1705049364484,40.99825906297991],[-75.17044008760735,40.99829388803511],[-75.1703976864252,40.99825341566927],[-75.17027671839533,40.99831271237949],[-75.17048498295885,40.998468013037325]]],"type":"Polygon"}},{"type":"Feature","properties":{},"geometry":{"coordinates":[[[-75.17038047927261,40.99823707022668],[-75.17034556066668,40.99819942148466],[-75.17035803159727,40.99818436198183],[-75.17041040950697,40.99815612540502],[-75.17035304322486,40.99800835378812],[-75.17032061880474,40.99797164613767],[-75.17020588623977,40.99783705124415],[-75.16964344725376,40.99812694759612],[-75.16959275386203,40.9981264554506],[-75.16920116126673,40.99833070012318],[-75.16924106824585,40.99838623189939],[-75.16946803918918,40.99828458047662],[-75.16952166419219,40.998337288641295],[-75.16956780663826,40.99831469942444],[-75.17003328165184,40.99880142283729],[-75.170109354331,40.998756244731084],[-75.17013928456531,40.99836093498158],[-75.17038047927261,40.99823707022668]]],"type":"Polygon"}},{"type":"Feature","properties":{},"geometry":{"coordinates":[[[-75.16969615693515,40.997903259960566],[-75.17008448334185,40.99771597845273],[-75.17010381909657,40.99768192721223],[-75.16977833389248,40.99732682037114],[-75.1693948414242,40.99757004444109],[-75.16969615693515,40.997903259960566]]],"type":"Polygon"}},{"type":"Feature","properties":{},"geometry":{"coordinates":[[[-75.17079879747136,40.99667479097931],[-75.17075979592441,40.99663403297754],[-75.17059778949918,40.99671781328831],[-75.17006976855714,40.995868683585],[-75.16952074678211,40.99620154373221],[-75.16918173333622,40.99641212785514],[-75.17024977637281,40.997591523310774],[-75.17028577780245,40.99758473003786],[-75.17118883577847,40.997075203446514],[-75.17079879747136,40.99667479097931]]],"type":"Polygon"}},{"type":"Feature","properties":{},"geometry":{"coordinates":[[[-75.1710674399004,40.99660099258534],[-75.17129575248646,40.99654024715784],[-75.17089661609533,40.99574559263854],[-75.17083419970483,40.995740633765905],[-75.17077671092434,40.995746832356076],[-75.17065516321652,40.99578650332302],[-75.1710674399004,40.99660099258534]]],"type":"Polygon"}},{"type":"Feature","properties":{},"geometry":{"coordinates":[[[-75.17216274306362,40.99537460800477],[-75.17234371168128,40.99541557549688],[-75.17244840424385,40.99538823126517],[-75.17237189129068,40.995247392344226],[-75.17207070184186,40.99534007661856],[-75.17216274306362,40.99537460800477]]],"type":"Polygon"}},{"type":"Feature","properties":{},"geometry":{"coordinates":[[[-75.17103092396935,40.99572265241525],[-75.17105717476693,40.99577675253687],[-75.17205044902974,40.995501291775895],[-75.17200098999713,40.99540617006423],[-75.171953487836,40.99523451903363],[-75.17105513957468,40.995491585886384],[-75.17114481430335,40.995602982330695],[-75.17115556406108,40.99563894489083],[-75.17114003199613,40.99567638666994],[-75.17111645581443,40.99568515832755],[-75.17103092396935,40.99572265241525]]],"type":"Polygon"}},{"type":"Feature","properties":{},"geometry":{"coordinates":[[[-75.17235587505442,40.99523417919798],[-75.17222404101592,40.99512764159934],[-75.17218183601659,40.995069344389236],[-75.17222139577152,40.99515848980636],[-75.17195394196729,40.99523608806942],[-75.17200972546738,40.99533453805168],[-75.17235587505442,40.99523417919798]]],"type":"Polygon"}},{"type":"Feature","properties":{},"geometry":{"coordinates":[[[-75.17101840080898,40.99570276031517],[-75.17108794230606,40.995674616950424],[-75.17107570930516,40.995649566318946],[-75.1708308904667,40.995365988666975],[-75.17079647379958,40.99538954145481],[-75.1708003738857,40.99540402344192],[-75.17101014561068,40.9956581332805],[-75.17101840080898,40.99570276031517]]],"type":"Polygon"}},{"type":"Feature","properties":{},"geometry":{"coordinates":[[[-75.17085401792413,40.99535267559162],[-75.17092586514366,40.9954360629915],[-75.17096539027546,40.99542468130059],[-75.17089056298369,40.99533899295716],[-75.17088999108793,40.99532601805359],[-75.17085401792413,40.99535267559162]]],"type":"Polygon"}},{"type":"Feature","properties":{},"geometry":{"coordinates":[[[-75.17094703599133,40.99545827551083],[-75.17111279045916,40.995654137572956],[-75.17112023318995,40.99565486015689],[-75.17112919805281,40.99563038202734],[-75.1711178438142,40.99560835524284],[-75.1709848741997,40.99544614010895],[-75.17094703599133,40.99545827551083]]],"type":"Polygon"}},{"type":"Feature","properties":{},"geometry":{"coordinates":[[[-75.1710867779666,40.99567345522118],[-75.17111701318038,40.995657895498624],[-75.17109776527545,40.99563771942539],[-75.17109006883153,40.995648463271095],[-75.17107621980077,40.995648463271095],[-75.1710867779666,40.99567345522118]]],"type":"Polygon"}},{"type":"Feature","properties":{},"geometry":{"coordinates":[[[-75.17207827484405,40.99507410264454],[-75.17207595281288,40.99496502519881],[-75.17196737911756,40.99496385132656],[-75.17174075675428,40.99497324931275],[-75.17158433123939,40.9949968146081],[-75.17143650589712,40.99502641331756],[-75.1712959968755,40.99508488940032],[-75.17091986679445,40.99531009789561],[-75.17091509361254,40.995328859613835],[-75.17093309675455,40.995347683415645],[-75.17117196168314,40.99527275948873],[-75.17159193398008,40.99515126579382],[-75.17194301982747,40.9950525917194],[-75.17207827484405,40.99507410264454]]],"type":"Polygon"}},{"type":"Feature","properties":{},"geometry":{"coordinates":[[[-75.17093590118954,40.9953495034992],[-75.17098852597202,40.995413273115844],[-75.17104816954702,40.99539829127613],[-75.17100502760351,40.99532599296856],[-75.17093590118954,40.9953495034992]]],"type":"Polygon"}},{"type":"Feature","properties":{},"geometry":{"coordinates":[[[-75.17100644387837,40.99543763084304],[-75.1710513082641,40.995491666397015],[-75.1710861322551,40.99548141038926],[-75.17105364457811,40.99542338497142],[-75.17100644387837,40.99543763084304]]],"type":"Polygon"}},{"type":"Feature","properties":{},"geometry":{"coordinates":[[[-75.17016216049197,40.99579716909216],[-75.17021249112838,40.99585036409644],[-75.17042583572905,40.99574652494127],[-75.17039556967045,40.99571011126602],[-75.17035003505465,40.99567627605765],[-75.17016216049197,40.99579716909216]]],"type":"Polygon"}},{"type":"Feature","properties":{},"geometry":{"coordinates":[[[-75.17014511000258,40.99577940656431],[-75.17033148613315,40.995659012729845],[-75.17030234739629,40.99563934557423],[-75.17012517290793,40.995756710246326],[-75.17014511000258,40.99577940656431]]],"type":"Polygon"}},{"type":"Feature","properties":{},"geometry":{"coordinates":[[[-75.17032346035032,40.99561997476235],[-75.17035372052186,40.99564649665862],[-75.17036069346668,40.99564272238837],[-75.17035440213996,40.9956000222609],[-75.17032346035032,40.99561997476235]]],"type":"Polygon"}},{"type":"Feature","properties":{},"geometry":{"coordinates":[[[-75.17035103054133,40.995551094294996],[-75.17034894123135,40.99552937301101],[-75.16997469668333,40.99575723057845],[-75.17001151249649,40.995768071762086],[-75.17035103054133,40.995551094294996]]],"type":"Polygon"}},{"type":"Feature","properties":{},"geometry":{"coordinates":[[[-75.17007271745975,40.995786940647065],[-75.17011623467921,40.99579819143699],[-75.17011965267068,40.995791935463444],[-75.17009614094434,40.995769703509524],[-75.17007271745975,40.995786940647065]]],"type":"Polygon"}},{"type":"Feature","properties":{},"geometry":{"coordinates":[[[-75.16949671044682,40.997024166334],[-75.16933470407206,40.9968410703415],[-75.16884817704756,40.997116274145014],[-75.1689807660575,40.99725677738769],[-75.16949671044682,40.997024166334]]],"type":"Polygon"}},{"type":"Feature","properties":{},"geometry":{"coordinates":[[[-75.17187440707656,40.99605905240452],[-75.17216912429537,40.99596089639431],[-75.17196171008906,40.99555137633544],[-75.17181108256456,40.99559003015119],[-75.17171970916732,40.99576322057925],[-75.17177223827228,40.99586455520256],[-75.17188649722229,40.995835198953586],[-75.17190050112026,40.99586682023681],[-75.17188250442153,40.99586115949299],[-75.171785854246,40.995887249878876],[-75.17187440707656,40.99605905240452]]],"type":"Polygon"}},{"type":"Feature","properties":{},"geometry":{"coordinates":[[[-75.17166187697242,40.99607186155822],[-75.17183723728434,40.996415324162854],[-75.17233246139736,40.996272215892446],[-75.17218273579282,40.99598166930994],[-75.17187111251256,40.99608648410313],[-75.1718489537185,40.996074108505496],[-75.17180578107617,40.99598829650523],[-75.17171222898637,40.996018224686054],[-75.17166187697242,40.99607186155822]]],"type":"Polygon"}},{"type":"Feature","properties":{},"geometry":{"coordinates":[[[-75.17145318716489,40.99654647369505],[-75.17144362351576,40.996526204815126],[-75.17136751608318,40.996542773843316],[-75.17145318716489,40.99654647369505]]],"type":"Polygon"}}]}