{"type":"FeatureCollection","features":[{"type":"Feature","properties":{},"geometry":{"coordinates":[[[-75.17686656593058,40.9948606946362],[-75.17687003021547,40.99486056618256],[-75.17687346113736,40.994860182058716],[-75.17687682565457,40.994859545964005],[-75.17688009136491,40.99485866402438],[-75.17688322681776,40.99485754473338],[-75.17688620181701,40.99485619887042],[-75.17688898771176,40.99485463939692],[-75.17689155767228,40.99485288133146],[-75.17689388694846,40.994850941605215],[-75.1768959531081,40.994848838898776],[-75.17689773625297,40.99484659346241],[-75.17689921921041,40.99484422692089],[-75.17690038769878,40.994841762065334],[-75.17690123046494,40.994839222633644],[-75.17690173939258,40.994836633081945],[-75.17690190958051,40.99483401834904],[-75.17690173938979,40.99483140361623],[-75.17690123045945,40.99482881406484],[-75.17690038769085,40.99482627463365],[-75.17689921920031,40.99482380977876],[-75.17689773624106,40.99482144323805],[-75.17689595309488,40.99481919780263],[-75.17689388693442,40.994817095097204],[-75.17689155765797,40.994815155372],[-75.17688898769772,40.9948133973076],[-75.1768862018038,40.99481183783511],[-75.17688322680588,40.994810491973084],[-75.17688009135479,40.99480937268291],[-75.17687682564663,40.99480849074395],[-75.17687346113189,40.994807854649736],[-75.17687003021268,40.994807470526204],[-75.17686656593058,40.99480734207266],[-75.17686310164846,40.994807470526204],[-75.17685967072926,40.994807854649736],[-75.17685630621453,40.99480849074395],[-75.17685304050637,40.99480937268291],[-75.17684990505526,40.994810491973084],[-75.17684693005735,40.99481183783511],[-75.17684414416343,40.9948133973076],[-75.1768415742032,40.994815155372],[-75.17683924492673,40.994817095097204],[-75.17683717876628,40.99481919780263],[-75.17683539562009,40.99482144323805],[-75.17683391266085,40.99482380977876],[-75.1768327441703,40.99482627463365],[-75.1768319014017,40.99482881406484],[-75.17683139247137,40.99483140361623],[-75.17683122228064,40.99483401834904],[-75.17683139246857,40.994836633081945],[-75.17683190139623,40.994839222633644],[-75.17683274416237,40.994841762065334],[-75.17683391265074,40.99484422692089],[-75.1768353956082,40.99484659346241],[-75.17683717875306,40.994848838898776],[-75.1768392449127,40.994850941605215],[-75.17684157418888,40.99485288133146],[-75.1768441441494,40.99485463939692],[-75.17684693004414,40.99485619887042],[-75.1768499050434,40.99485754473338],[-75.17685304049625,40.99485866402438],[-75.17685630620659,40.994859545964005],[-75.1768596707238,40.994860182058716],[-75.17686310164568,40.99486056618256],[-75.17686656593058,40.9948606946362]]],"type":"Polygon"}},{"type":"Feature","properties":{},"geometry":{"coordinates":[[[-75.17673422562915,40.99484446444367],[-75.17673770001404,40.9948443356155],[-75.17674114093867,40.994843950371674],[-75.17674451526501,40.994843312422276],[-75.17674779049642,40.99484242791116],[-75.17675093509058,40.99484130535664],[-75.17675391876334,40.99483995556954],[-75.17675671278025,40.99483839154906],[-75.1767592902334,40.99483662835758],[-75.1767616263005,40.994834682975636],[-75.17676369848395,40.99483257413832],[-75.17676548682752,40.994830322154904],[-75.17676697410849,40.99482794871324],[-75.17676814600354,40.99482547667086],[-75.17676899122672,40.9948229298349],[-75.17676950163813,40.99482033273282],[-75.17676967232224,40.994817710376104],[-75.17676950163532,40.99481508801951],[-75.17676899122122,40.994812490917724],[-75.17676814599555,40.99480994408228],[-75.1767669740983,40.99480747204057],[-75.17676548681555,40.99480509859973],[-75.17676369847067,40.994802846617254],[-75.17676162628639,40.99480073778095],[-75.17675929021901,40.99479879240007],[-75.17675671276614,40.99479702920965],[-75.17675391875005,40.99479546519019],[-75.17675093507863,40.99479411540402],[-75.17674779048625,40.994792992850336],[-75.17674451525701,40.99479210833988],[-75.17674114093317,40.99479147039099],[-75.17673770001123,40.99479108514747],[-75.17673422562915,40.994790956319406],[-75.17673075124708,40.99479108514747],[-75.17672731032513,40.99479147039099],[-75.1767239360013,40.99479210833988],[-75.17672066077205,40.994792992850336],[-75.17671751617968,40.99479411540402],[-75.17671453250824,40.99479546519019],[-75.17671173849217,40.99479702920965],[-75.17670916103928,40.99479879240007],[-75.17670682497192,40.99480073778095],[-75.17670475278764,40.994802846617254],[-75.17670296444274,40.99480509859973],[-75.17670147716,40.99480747204057],[-75.17670030526276,40.99480994408228],[-75.17669946003707,40.994812490917724],[-75.17669894962299,40.99481508801951],[-75.17669877893607,40.994817710376104],[-75.17669894962017,40.99482033273282],[-75.17669946003159,40.9948229298349],[-75.17670030525477,40.99482547667086],[-75.17670147714982,40.99482794871324],[-75.17670296443079,40.994830322154904],[-75.17670475277434,40.99483257413832],[-75.1767068249578,40.994834682975636],[-75.1767091610249,40.99483662835758],[-75.17671173847806,40.99483839154906],[-75.17671453249497,40.99483995556954],[-75.17671751616771,40.99484130535664],[-75.17672066076189,40.99484242791116],[-75.17672393599328,40.994843312422276],[-75.17672731031963,40.994843950371674],[-75.17673075124426,40.9948443356155],[-75.17673422562915,40.99484446444367]]],"type":"Polygon"}},{"type":"Feature","properties":{},"geometry":{"coordinates":[[[-75.17661809026265,40.99486585850421],[-75.1766214309667,40.994865734632896],[-75.17662473949791,40.99486536421187],[-75.17662798399326,40.9948647508085],[-75.1766311332065,40.99486390033023],[-75.1766341568089,40.99486282096762],[-75.17663702568153,40.99486152311552],[-75.17663971219555,40.994860019272984],[-75.17664219047835,40.99485832392284],[-75.1766444366627,40.994856453392266],[-75.17664642911663,40.99485442569549],[-75.17664814865172,40.99485226036038],[-75.17664957870792,40.99484997824028],[-75.17665070551307,40.994847601313296],[-75.17665151821542,40.99484515247051],[-75.17665200898823,40.994842655295635],[-75.17665217310514,40.994840133837855],[-75.17665200898564,40.99483761238016],[-75.17665151821032,40.994835115205575],[-75.17665070550568,40.99483266636325],[-75.17664957869853,40.99483028943689],[-75.17664814864067,40.99482800731755],[-75.17664642910434,40.99482584198331],[-75.17664443664964,40.99482381428748],[-75.17664219046505,40.994821943757884],[-75.17663971218249,40.99482024840872],[-75.17663702566925,40.99481874456713],[-75.17663415679785,40.99481744671589],[-75.17663113319709,40.994816367354034],[-75.1766279839859,40.994815516876386],[-75.17662473949282,40.99481490347348],[-75.1766214309641,40.99481453305275],[-75.17661809026265,40.99481440918153],[-75.17661474956118,40.99481453305275],[-75.17661144103248,40.99481490347348],[-75.1766081965394,40.994815516876386],[-75.1766050473282,40.994816367354034],[-75.17660202372744,40.99481744671589],[-75.17659915485605,40.99481874456713],[-75.1765964683428,40.99482024840872],[-75.17659399006024,40.994821943757884],[-75.17659174387565,40.99482381428748],[-75.17658975142096,40.99482584198331],[-75.17658803188462,40.99482800731755],[-75.17658660182676,40.99483028943689],[-75.1765854750196,40.99483266636325],[-75.17658466231497,40.994835115205575],[-75.17658417153966,40.99483761238016],[-75.17658400742016,40.994840133837855],[-75.17658417153706,40.994842655295635],[-75.17658466230988,40.99484515247051],[-75.17658547501222,40.994847601313296],[-75.17658660181736,40.99484997824028],[-75.17658803187356,40.99485226036038],[-75.17658975140867,40.99485442569549],[-75.17659174386259,40.994856453392266],[-75.17659399004695,40.99485832392284],[-75.17659646832973,40.994860019272984],[-75.17659915484376,40.99486152311552],[-75.17660202371638,40.99486282096762],[-75.17660504731879,40.99486390033023],[-75.17660819653203,40.9948647508085],[-75.17661144102738,40.99486536421187],[-75.17661474955858,40.994865734632896],[-75.17661809026265,40.99486585850421]]],"type":"Polygon"}},{"type":"Feature","properties":{},"geometry":{"coordinates":[[[-75.17688309628083,40.995304246262066],[-75.176886757275,40.99530411051546],[-75.17689038301174,40.995303704583],[-75.17689393857322,40.995303032374025],[-75.17689738971734,40.995302100362274],[-75.17690070320768,40.99530091752356],[-75.17690384713352,40.995299495249256],[-75.17690679121709,40.99529784723667],[-75.17690950710524,40.99529598935708],[-75.1769119686425,40.995293939502915],[-75.17691415212289,40.99529171741536],[-75.17691603651835,40.9952893444944],[-75.17691760368109,40.99528684359257],[-75.17691883851856,40.995284238794895],[-75.17691972913862,40.99528155518705],[-75.17692026696415,40.995278818613635],[-75.17692044681563,40.995276055429365],[-75.17692026696103,40.995273292245216],[-75.17691972913252,40.99527055567215],[-75.17691883850969,40.99526787206486],[-75.1769176036698,40.995265267267946],[-75.17691603650506,40.99526276636701],[-75.17691415210814,40.99526039344709],[-75.17691196862683,40.99525817136069],[-75.17690950708928,40.99525612150768],[-75.17690679120143,40.99525426362927],[-75.17690384711877,40.99525261561782],[-75.1769007031944,40.99525119334457],[-75.17689738970604,40.99525001050676],[-75.17689393856433,40.99524907849576],[-75.17689038300564,40.99524840628733],[-75.17688675727189,40.99524800035522],[-75.17688309628083,40.99524786460873],[-75.17687943528978,40.99524800035522],[-75.17687580955602,40.99524840628733],[-75.17687225399733,40.99524907849576],[-75.17686880285562,40.99525001050676],[-75.17686548936726,40.99525119334457],[-75.1768623454429,40.99525261561782],[-75.17685940136023,40.99525426362927],[-75.17685668547239,40.99525612150768],[-75.17685422393484,40.99525817136069],[-75.17685204045353,40.99526039344709],[-75.1768501560566,40.99526276636701],[-75.17684858889186,40.995265267267946],[-75.17684735405196,40.99526787206486],[-75.17684646342914,40.99527055567215],[-75.17684592560063,40.995273292245216],[-75.17684574574605,40.995276055429365],[-75.17684592559752,40.995278818613635],[-75.17684646342303,40.99528155518705],[-75.17684735404309,40.995284238794895],[-75.17684858888056,40.99528684359257],[-75.17685015604333,40.9952893444944],[-75.17685204043877,40.99529171741536],[-75.17685422391916,40.995293939502915],[-75.17685668545641,40.99529598935708],[-75.17685940134457,40.99529784723667],[-75.17686234542813,40.995299495249256],[-75.17686548935397,40.99530091752356],[-75.17686880284433,40.995302100362274],[-75.17687225398845,40.995303032374025],[-75.17687580954991,40.995303704583],[-75.17687943528666,40.99530411051546],[-75.17688309628083,40.995304246262066]]],"type":"Polygon"}},{"type":"Feature","properties":{},"geometry":{"coordinates":[[[-75.17609952758329,40.995541395505754],[-75.17610299186809,40.995541267053426],[-75.1761064227899,40.995540882933575],[-75.17610978730701,40.99554024684545],[-75.17611305301726,40.99553936491494],[-75.17611618847006,40.99553824563553],[-75.17611916346922,40.995536899786515],[-75.17612194936387,40.99553534032915],[-75.17612451932433,40.9955335822819],[-75.17612684860045,40.99553164257572],[-75.17612891476004,40.99552953989105],[-75.17613069790485,40.99552729447793],[-75.17613218086228,40.995524927960915],[-75.17613334935062,40.995522463130875],[-75.17613419211673,40.99551992372547],[-75.17613470104438,40.99551733420058],[-75.1761348712323,40.99551471949474],[-75.17613470104158,40.995512104789],[-75.17613419211126,40.995509515264416],[-75.17613334934268,40.99550697585951],[-75.17613218085216,40.99550451103014],[-75.17613069789297,40.99550214451394],[-75.17612891474683,40.995499899101745],[-75.17612684858643,40.9954977964181],[-75.17612451931004,40.99549585671297],[-75.17612194934986,40.995494098666775],[-75.17611916345601,40.995492539210424],[-75.17611618845817,40.995491193362334],[-75.17611305300716,40.995490074083754],[-75.17610978729907,40.99548919215391],[-75.17610642278443,40.99548855606629],[-75.1761029918653,40.99548817194673],[-75.17609952758329,40.995488043494525],[-75.17609606330129,40.99548817194673],[-75.17609263238216,40.99548855606629],[-75.17608926786752,40.99548919215391],[-75.17608600215945,40.995490074083754],[-75.17608286670844,40.995491193362334],[-75.17607989171059,40.995492539210424],[-75.17607710581673,40.995494098666775],[-75.17607453585656,40.99549585671297],[-75.17607220658017,40.9954977964181],[-75.17607014041977,40.995499899101745],[-75.17606835727362,40.99550214451394],[-75.17606687431443,40.99550451103014],[-75.17606570582392,40.99550697585951],[-75.17606486305533,40.995509515264416],[-75.17606435412502,40.995512104789],[-75.17606418393429,40.99551471949474],[-75.17606435412222,40.99551733420058],[-75.17606486304986,40.99551992372547],[-75.17606570581599,40.995522463130875],[-75.17606687430431,40.995524927960915],[-75.17606835726174,40.99552729447793],[-75.17607014040655,40.99552953989105],[-75.17607220656615,40.99553164257572],[-75.17607453584226,40.9955335822819],[-75.17607710580272,40.99553534032915],[-75.17607989169738,40.995536899786515],[-75.17608286669655,40.99553824563553],[-75.17608600214933,40.99553936491494],[-75.17608926785958,40.99554024684545],[-75.1760926323767,40.995540882933575],[-75.1760960632985,40.995541267053426],[-75.17609952758329,40.995541395505754]]],"type":"Polygon"}},{"type":"Feature","properties":{},"geometry":{"coordinates":[[[-75.17623767137485,40.994950718504725],[-75.17624085911037,40.994950600305536],[-75.1762440161462,40.994950246846294],[-75.17624711207836,40.994949661531024],[-75.17625011709129,40.99494884999662],[-75.17625300224503,40.994947820058606],[-75.17625573975397,40.99494658163589],[-75.17625830325439,40.99494514665513],[-75.17626066805833,40.99494352893603],[-75.1762628113915,40.994941744058075],[-75.17626471261238,40.99493980921066],[-75.17626635341121,40.99493774302742],[-75.17626771798619,40.99493556540686],[-75.17626879319576,40.99493329732065],[-75.17626956868509,40.994930960611725],[-75.17627003698581,40.99492857778385],[-75.17627019358798,40.99492617178499],[-75.17627003698344,40.994923765786204],[-75.17626956868044,40.994921382958594],[-75.17626879318902,40.994919046250075],[-75.17626771797762,40.99491677816443],[-75.17626635340112,40.99491460054457],[-75.1762647126012,40.99491253436213],[-75.17626281137963,40.99491059951557],[-75.17626066804623,40.99490881463852],[-75.17625830324249,40.9949071969203],[-75.17625573974279,40.994905761940394],[-75.17625300223494,40.994904523518464],[-75.17625011708272,40.994903493581155],[-75.17624711207162,40.99490268204732],[-75.17624401614157,40.99490209673247],[-75.17624085910799,40.99490174327349],[-75.17623767137485,40.99490162507439],[-75.17623448364171,40.99490174327349],[-75.17623132660813,40.99490209673247],[-75.17622823067808,40.99490268204732],[-75.17622522566698,40.994903493581155],[-75.17622234051476,40.994904523518464],[-75.17621960300693,40.994905761940394],[-75.17621703950721,40.9949071969203],[-75.17621467470347,40.99490881463852],[-75.17621253137008,40.99491059951557],[-75.17621063014852,40.99491253436213],[-75.17620898934858,40.99491460054457],[-75.17620762477209,40.99491677816443],[-75.17620654956067,40.994919046250075],[-75.17620577406926,40.994921382958594],[-75.17620530576626,40.994923765786204],[-75.17620514916173,40.99492617178499],[-75.17620530576389,40.99492857778385],[-75.17620577406461,40.994930960611725],[-75.17620654955395,40.99493329732065],[-75.17620762476352,40.99493556540686],[-75.1762089893385,40.99493774302742],[-75.17621063013733,40.99493980921066],[-75.1762125313582,40.994941744058075],[-75.17621467469137,40.99494352893603],[-75.17621703949531,40.99494514665513],[-75.17621960299574,40.99494658163589],[-75.17622234050468,40.994947820058606],[-75.17622522565843,40.99494884999662],[-75.17622823067134,40.994949661531024],[-75.1762313266035,40.994950246846294],[-75.17623448363935,40.994950600305536],[-75.17623767137485,40.994950718504725]]],"type":"Polygon"}},{"type":"Feature","properties":{},"geometry":{"coordinates":[[[-75.17587981239598,40.9953094776747],[-75.17588366005599,40.995309335006695],[-75.17588747066088,40.99530890837668],[-75.17589120751241,40.9953082018933],[-75.17589483462258,40.99530722236044],[-75.17589831706034,40.99530597921151],[-75.17590162128784,40.99530448441873],[-75.17590471548357,40.99530275237781],[-75.17590756984869,40.995300799769254],[-75.1759101568941,40.99529864539776],[-75.17591245170517,40.99529631001114],[-75.17591443218163,40.99529381610045],[-75.17591607925038,40.995291187683435],[-75.17591737704936,40.9952884500732],[-75.17591831308003,40.99528562963444],[-75.17591887832798,40.99528275352953],[-75.17591906734958,40.99527984945694],[-75.17591887832452,40.99527694538449],[-75.17591831307327,40.99527406927996],[-75.17591737703955,40.99527124884181],[-75.17591607923792,40.995268511232396],[-75.17591443216696,40.9952658828164],[-75.17591245168887,40.99526338890686],[-75.17591015687681,40.99526105352148],[-75.17590756983104,40.99525889915129],[-75.17590471546627,40.995256946544025],[-75.17590162127155,40.995255214504354],[-75.17589831704568,40.99525371971274],[-75.17589483461012,40.99525247656482],[-75.17589120750262,40.995251497032775],[-75.17588747065413,40.995250790550024],[-75.17588366005255,40.99525036392038],[-75.17587981239598,40.995250221252505],[-75.1758759647394,40.99525036392038],[-75.1758721541378,40.995250790550024],[-75.17586841728934,40.995251497032775],[-75.17586479018183,40.99525247656482],[-75.17586130774627,40.99525371971274],[-75.1758580035204,40.995255214504354],[-75.17585490932568,40.995256946544025],[-75.1758520549609,40.99525889915129],[-75.17584946791514,40.99526105352148],[-75.17584717310307,40.99526338890686],[-75.17584519262499,40.9952658828164],[-75.17584354555403,40.995268511232396],[-75.1758422477524,40.99527124884181],[-75.17584131171867,40.99527406927996],[-75.17584074646743,40.99527694538449],[-75.17584055744237,40.99527984945694],[-75.17584074646398,40.99528275352953],[-75.17584131171192,40.99528562963444],[-75.1758422477426,40.9952884500732],[-75.17584354554155,40.995291187683435],[-75.17584519261032,40.99529381610045],[-75.17584717308678,40.99529631001114],[-75.17584946789785,40.99529864539776],[-75.17585205494326,40.995300799769254],[-75.17585490930838,40.99530275237781],[-75.1758580035041,40.99530448441873],[-75.17586130773161,40.99530597921151],[-75.17586479016936,40.99530722236044],[-75.17586841727955,40.9953082018933],[-75.17587215413107,40.99530890837668],[-75.17587596473595,40.995309335006695],[-75.17587981239598,40.9953094776747]]],"type":"Polygon"}},{"type":"Feature","properties":{},"geometry":{"coordinates":[[[-75.17652551443855,40.99453241311417],[-75.17652930012808,40.994532272742326],[-75.17653304935929,40.99453185297868],[-75.17653672602502,40.99453115786575],[-75.17654029471689,40.994530194097905],[-75.17654372106642,40.99452897095675],[-75.17654697207598,40.994527500221814],[-75.17655001643654,40.994525796057104],[-75.1765528248292,40.994523874874666],[-75.17655537020764,40.994521755176535],[-75.17655762805846,40.99451945737663],[-75.17655957663735,40.99451700360401],[-75.17656119717842,40.99451441748986],[-75.17656247407503,40.99451172393989],[-75.17656339503,40.99450894889447],[-75.17656395117409,40.994506119078814],[-75.17656413715135,40.9945032617456],[-75.17656395117076,40.99450040441251],[-75.17656339502348,40.99449757459722],[-75.17656247406553,40.99449479955239],[-75.17656119716635,40.99449210600322],[-75.17655957662313,40.99448951989006],[-75.17655762804269,40.994487066118545],[-75.1765553701909,40.99448476831984],[-75.17655282481213,40.99448264862298],[-75.17655001641978,40.9944807274418],[-75.17654697206021,40.99447902327829],[-75.17654372105223,40.994477552544474],[-75.17654029470482,40.9944763294043],[-75.17653672601553,40.99447536563725],[-75.17653304935276,40.994474670524916],[-75.17652930012474,40.994474250761634],[-75.17652551443855,40.994474110389916],[-75.17652172875236,40.994474250761634],[-75.17651797952435,40.994474670524916],[-75.17651430286159,40.99447536563725],[-75.1765107341723,40.9944763294043],[-75.17650730782489,40.994477552544474],[-75.17650405681691,40.99447902327829],[-75.17650101245732,40.9944807274418],[-75.17649820406497,40.99448264862298],[-75.1764956586862,40.99448476831984],[-75.17649340083443,40.994487066118545],[-75.17649145225397,40.99448951989006],[-75.17648983171077,40.99449210600322],[-75.17648855481157,40.99449479955239],[-75.17648763385364,40.99449757459722],[-75.17648707770635,40.99450040441251],[-75.17648689172577,40.9945032617456],[-75.17648707770303,40.994506119078814],[-75.1764876338471,40.99450894889447],[-75.17648855480208,40.99451172393989],[-75.17648983169869,40.99451441748986],[-75.17649145223976,40.99451700360401],[-75.17649340081864,40.99451945737663],[-75.17649565866947,40.994521755176535],[-75.1764982040479,40.994523874874666],[-75.17650101244057,40.994525796057104],[-75.17650405680114,40.994527500221814],[-75.17650730781068,40.99452897095675],[-75.17651073416022,40.994530194097905],[-75.1765143028521,40.99453115786575],[-75.17651797951781,40.99453185297868],[-75.17652172874904,40.994532272742326],[-75.17652551443855,40.99453241311417]]],"type":"Polygon"}},{"type":"Feature","properties":{},"geometry":{"coordinates":[[[-75.1762000653295,40.99452789968684],[-75.17620352961441,40.99452777123245],[-75.17620696053635,40.994527387106345],[-75.17621032505356,40.994526751007875],[-75.17621359076394,40.994525869063025],[-75.17621672621682,40.994524749765425],[-75.1762197012161,40.99452340389452],[-75.17622248711085,40.9945218444118],[-75.1762250570714,40.99452008633596],[-75.17622738634759,40.994518146598246],[-75.17622945250726,40.9945160438794],[-75.17623123565214,40.99451379842977],[-75.1762327186096,40.99451143187427],[-75.176233887098,40.99450896700415],[-75.17623472986412,40.99450642755746],[-75.17623523879178,40.994503837990464],[-75.17623540897972,40.99450122324211],[-75.17623523878899,40.99449860849387],[-75.17623472985866,40.99449601892718],[-75.17623388709004,40.99449347948099],[-75.17623271859948,40.99449101461154],[-75.17623123564024,40.99448864805686],[-75.17622945249404,40.99448640260816],[-75.17622738633357,40.99448429989033],[-75.17622505705708,40.99448236015366],[-75.17622248709682,40.99448060207887],[-75.17621970120288,40.99447904259718],[-75.17621672620493,40.9944776967272],[-75.17621359075382,40.99447657743042],[-75.17621032504562,40.994475695486244],[-75.17620696053086,40.99447505938827],[-75.17620352961163,40.994474675262474],[-75.1762000653295,40.99447454680818],[-75.17619660104737,40.994474675262474],[-75.17619317012813,40.99447505938827],[-75.17618980561338,40.994475695486244],[-75.17618653990517,40.99447657743042],[-75.17618340445405,40.9944776967272],[-75.17618042945611,40.99447904259718],[-75.17617764356217,40.99448060207887],[-75.1761750736019,40.99448236015366],[-75.17617274432541,40.99448429989033],[-75.17617067816495,40.99448640260816],[-75.17616889501875,40.99448864805686],[-75.1761674120595,40.99449101461154],[-75.17616624356896,40.99449347948099],[-75.17616540080033,40.99449601892718],[-75.17616489186999,40.99449860849387],[-75.17616472167927,40.99450122324211],[-75.1761648918672,40.994503837990464],[-75.17616540079486,40.99450642755746],[-75.176166243561,40.99450896700415],[-75.1761674120494,40.99451143187427],[-75.17616889500685,40.99451379842977],[-75.17617067815173,40.9945160438794],[-75.1761727443114,40.994518146598246],[-75.17617507358759,40.99452008633596],[-75.17617764354814,40.9945218444118],[-75.1761804294429,40.99452340389452],[-75.17618340444217,40.994524749765425],[-75.17618653989506,40.994525869063025],[-75.17618980560543,40.994526751007875],[-75.17619317012264,40.994527387106345],[-75.17619660104458,40.99452777123245],[-75.1762000653295,40.99452789968684]]],"type":"Polygon"}},{"type":"Feature","properties":{},"geometry":{"type":"Polygon","coordinates":[[[-75.17658758096786,40.99375264644999],[-75.17659107546504,40.99375251687392],[-75.17659453630827,40.993752129393584],[-75.17659793016769,40.99375148774067],[-75.17660122435852,40.99375059809461],[-75.1766043871559,40.99374946902322],[-75.17660738810034,40.99374811140006],[-75.17661019829107,40.99374653829983],[-75.17661279066441,40.99374476487234],[-75.17661514025437,40.993742808196686],[-75.17661722443313,40.99374068711675],[-75.17661902312892,40.99373842205968],[-75.17662051901935,40.99373603483925],[-75.17662169769818,40.99373354844571],[-75.17662254781415,40.99373098682438],[-75.17662306118017,40.9937283746451],[-75.17662323285232,40.99372573706458],[-75.17662306117734,40.99372309948416],[-75.17662254780858,40.99372048730519],[-75.17662169769011,40.99371792568438],[-75.17662051900906,40.99371543929151],[-75.17661902311683,40.99371305207192],[-75.17661722441969,40.9937107870158],[-75.17661514024009,40.99370866593689],[-75.17661279064984,40.993706709262305],[-75.17661019827679,40.99370493583589],[-75.1766073880869,40.99370336273669],[-75.17660438714381,40.993702005114486],[-75.17660122434823,40.99370087604392],[-75.17659793015959,40.993699986398546],[-75.1765945363027,40.99369934474613],[-75.17659107546221,40.99369895726612],[-75.17658758096786,40.99369882769014],[-75.17658408647353,40.99369895726612],[-75.17658062563302,40.99369934474613],[-75.17657723177614,40.993699986398546],[-75.17657393758749,40.99370087604392],[-75.17657077479193,40.993702005114486],[-75.17656777384883,40.99370336273669],[-75.17656496365893,40.99370493583589],[-75.17656237128588,40.993706709262305],[-75.17656002169564,40.99370866593689],[-75.17655793751605,40.9937107870158],[-75.1765561388189,40.99371305207192],[-75.17655464292667,40.99371543929151],[-75.17655346424563,40.99371792568438],[-75.17655261412716,40.99372048730519],[-75.1765521007584,40.99372309948416],[-75.1765519290834,40.99372573706458],[-75.17655210075556,40.9937283746451],[-75.17655261412158,40.99373098682438],[-75.17655346423754,40.99373354844571],[-75.17655464291637,40.99373603483925],[-75.1765561388068,40.99373842205968],[-75.1765579375026,40.99374068711675],[-75.17656002168135,40.993742808196686],[-75.17656237127132,40.99374476487234],[-75.17656496364465,40.99374653829983],[-75.17656777383539,40.99374811140006],[-75.17657077477982,40.99374946902322],[-75.17657393757722,40.99375059809461],[-75.17657723176805,40.99375148774067],[-75.17658062562745,40.993752129393584],[-75.17658408647068,40.99375251687392],[-75.17658758096786,40.99375264644999]]]}},{"type":"Feature","properties":{},"geometry":{"type":"Polygon","coordinates":[[[-75.17555784965553,40.99444405736715],[-75.17556124239889,40.994443931565435],[-75.17556460246821,40.99444355537183],[-75.17556789750421,40.99444293240927],[-75.1755710957738,40.99444206867729],[-75.17557416647591,40.99444097249403],[-75.17557708003793,40.99443965441642],[-75.17557980840068,40.994438127138224],[-75.17558232528853,40.994436405368006],[-75.17558460646245,40.994434505687366],[-75.1755866299535,40.994432446391286],[-75.17558837627438,40.99443024731193],[-75.17558982860704,40.99442792962763],[-75.17559097296478,40.99442551565898],[-75.17559179832686,40.99442302865381],[-75.1755922967446,40.99442049256336],[-75.17559246341797,40.99441793181158],[-75.1755922967419,40.99441537105988],[-75.1755917983216,40.99441283496974],[-75.17559097295717,40.99441034796505],[-75.17558982859734,40.99440793399703],[-75.17558837626297,40.994405616313514],[-75.17558662994084,40.994403417235056],[-75.17558460644901,40.99440135793994],[-75.1755823252748,40.99439945826032],[-75.17557980838724,40.994397736491116],[-75.17557708002526,40.99439620921389],[-75.17557416646449,40.99439489113717],[-75.1755710957641,40.9943937949547],[-75.17556789749659,40.99439293122336],[-75.17556460246297,40.99439230826128],[-75.1755612423962,40.99439193206798],[-75.17555784965553,40.99439180626635],[-75.17555445691487,40.99439193206798],[-75.17555109684811,40.99439230826128],[-75.17554780181447,40.99439293122336],[-75.17554460354698,40.9943937949547],[-75.17554153284658,40.99439489113717],[-75.1755386192858,40.99439620921389],[-75.17553589092384,40.994397736491116],[-75.17553337403626,40.99439945826032],[-75.17553109286207,40.99440135793994],[-75.17552906937024,40.994403417235056],[-75.1755273230481,40.994405616313514],[-75.17552587071373,40.99440793399703],[-75.1755247263539,40.99441034796505],[-75.17552390098948,40.99441283496974],[-75.17552340256917,40.99441537105988],[-75.17552323589311,40.99441793181158],[-75.17552340256648,40.99442049256336],[-75.17552390098422,40.99442302865381],[-75.17552472634628,40.99442551565898],[-75.17552587070404,40.99442792962763],[-75.1755273230367,40.99443024731193],[-75.17552906935757,40.994432446391286],[-75.17553109284862,40.994434505687366],[-75.17553337402254,40.994436405368006],[-75.17553589091038,40.994438127138224],[-75.17553861927314,40.99443965441642],[-75.17554153283517,40.99444097249403],[-75.17554460353728,40.99444206867729],[-75.17554780180686,40.99444293240927],[-75.17555109684285,40.99444355537183],[-75.17555445691218,40.994443931565435],[-75.17555784965553,40.99444405736715]]]}},{"type":"Feature","properties":{},"geometry":{"type":"Polygon","coordinates":[[[-75.17507463733557,40.99494211665399],[-75.1750780532378,40.99494198999451],[-75.17508143624298,40.99494161123587],[-75.1750847537709,40.99494098402572],[-75.1750879738719,40.99494011440444],[-75.17509106553462,40.99493901074699],[-75.17509399898462,40.99493768368219],[-75.17509674597119,40.99493614599041],[-75.17509928003932,40.994934412480475],[-75.17510157678453,40.99493249984705],[-75.17510361408793,40.99493042650987],[-75.17510537232918,40.99492821243631],[-75.17510683457547,40.99492587894911],[-75.17510798674459,40.994923448521064],[-75.17510881774058,40.9949209445585],[-75.1751093195605,40.99491839117599],[-75.17510948737159,40.994915812963974],[-75.17510931955778,40.99491323475206],[-75.17510881773525,40.994910681369845],[-75.17510798673688,40.994908177407765],[-75.17510683456564,40.99490574698037],[-75.17510537231762,40.99490341349397],[-75.17510361407507,40.994901199421314],[-75.1751015767709,40.99489912608511],[-75.17509928002542,40.994897213452724],[-75.17509674595756,40.994895479943814],[-75.17509399897178,40.994893942253015],[-75.17509106552305,40.994892615189116],[-75.17508797386206,40.99489151153246],[-75.17508475376316,40.994890641911844],[-75.17508143623766,40.99489001470217],[-75.1750780532351,40.99488963594382],[-75.17507463733557,40.99488950928444],[-75.17507122143606,40.99488963594382],[-75.17506783843348,40.99489001470217],[-75.17506452090798,40.994890641911844],[-75.17506130080909,40.99489151153246],[-75.17505820914809,40.994892615189116],[-75.17505527569936,40.994893942253015],[-75.17505252871358,40.994895479943814],[-75.17504999464572,40.994897213452724],[-75.17504769790024,40.99489912608511],[-75.17504566059607,40.994901199421314],[-75.17504390235352,40.99490341349397],[-75.1750424401055,40.99490574698037],[-75.17504128793426,40.994908177407765],[-75.17504045693589,40.994910681369845],[-75.17503995511336,40.99491323475206],[-75.17503978729955,40.994915812963974],[-75.17503995511063,40.99491839117599],[-75.17504045693056,40.9949209445585],[-75.17504128792655,40.994923448521064],[-75.17504244009567,40.99492587894911],[-75.17504390234197,40.99492821243631],[-75.17504566058321,40.99493042650987],[-75.17504769788661,40.99493249984705],[-75.17504999463182,40.994934412480475],[-75.17505252869995,40.99493614599041],[-75.17505527568652,40.99493768368219],[-75.17505820913652,40.99493901074699],[-75.17506130079924,40.99494011440444],[-75.17506452090025,40.99494098402572],[-75.17506783842816,40.99494161123587],[-75.17507122143334,40.99494198999451],[-75.17507463733557,40.99494211665399]]]}},{"type":"Feature","properties":{},"geometry":{"type":"Polygon","coordinates":[[[-75.17486349917627,40.99537668945535],[-75.17486709985343,40.995376555945406],[-75.17487066585406,40.995376156701354],[-75.17487416283558,40.99537549556813],[-75.17487755712011,40.99537457891284],[-75.17488081601881,40.99537341556335],[-75.17488390814665,40.9953720167234],[-75.17488680372475,40.99537039586457],[-75.17488947486709,40.99536856859664],[-75.1748918958491,40.99536655251722],[-75.17489404335541,40.99536436704228],[-75.17489589670438,40.99536203321914],[-75.17489743804724,40.995359573523814],[-75.17489865254008,40.995357011644515],[-75.17489952848668,40.99535437225357],[-75.17490005745124,40.99535168076975],[-75.17490023433959,40.995348963113535],[-75.17490005744823,40.99534624545743],[-75.17489952848076,40.995343553973946],[-75.1748986525315,40.99534091458354],[-75.17489743803633,40.99533835270496],[-75.17489589669152,40.99533589301052],[-75.17489404334114,40.995333559188396],[-75.17489189583394,40.995331373714535],[-75.17488947485164,40.995329357636265],[-75.1748868037096,40.99532753036948],[-75.17488390813237,40.995325909511735],[-75.17488081600597,40.995324510672795],[-75.17487755710918,40.99532334732419],[-75.174874162827,40.99532243066962],[-75.17487066584815,40.995321769536936],[-75.17486709985042,40.99532137029322],[-75.17486349917627,40.99532123678339],[-75.17485989850212,40.99532137029322],[-75.17485633250438,40.995321769536936],[-75.17485283552553,40.99532243066962],[-75.17484944124334,40.99532334732419],[-75.17484618234656,40.995324510672795],[-75.17484309022015,40.995325909511735],[-75.17484019464294,40.99532753036948],[-75.1748375235009,40.995329357636265],[-75.17483510251859,40.995331373714535],[-75.17483295501138,40.995333559188396],[-75.174831101661,40.99533589301052],[-75.1748295603162,40.99533835270496],[-75.17482834582103,40.99534091458354],[-75.17482746987176,40.995343553973946],[-75.1748269409043,40.99534624545743],[-75.17482676401293,40.995348963113535],[-75.17482694090128,40.99535168076975],[-75.17482746986585,40.99535437225357],[-75.17482834581244,40.995357011644515],[-75.17482956030528,40.995359573523814],[-75.17483110164814,40.99536203321914],[-75.17483295499711,40.99536436704228],[-75.17483510250342,40.99536655251722],[-75.17483752348544,40.99536856859664],[-75.17484019462778,40.99537039586457],[-75.17484309020587,40.9953720167234],[-75.17484618233371,40.99537341556335],[-75.17484944123241,40.99537457891284],[-75.17485283551694,40.99537549556813],[-75.17485633249846,40.995376156701354],[-75.17485989849911,40.995376555945406],[-75.17486349917627,40.99537668945535]]]}},{"type":"Feature","properties":{},"geometry":{"type":"Polygon","coordinates":[[[-75.17420486013847,40.99463898979996],[-75.17420838458902,40.994638859114964],[-75.17421187509714,40.99463846831857],[-75.1742152980473,40.994637821174365],[-75.17421862047456,40.99463692391469],[-75.17422181038212,40.99463578518068],[-75.17422483704941,40.99463441593896],[-75.1742276713279,40.99463282937609],[-75.17423028592198,40.99463104077158],[-75.17423265565162,40.99462906735064],[-75.1742347576951,40.99462692811844],[-75.17423657180854,40.99462464367697],[-75.1742380805211,40.99462223602665],[-75.17423926930307,40.99461972835448],[-75.17424012670585,40.99461714481074],[-75.17424064447222,40.99461451027637],[-75.17424081761587,40.99461185012338],[-75.17424064446934,40.99460918997049],[-75.17424012670018,40.99460655543644],[-75.17423926929484,40.99460397189321],[-75.17423808051063,40.994601464221745],[-75.17423657179624,40.99459905657227],[-75.17423475768142,40.99459677213176],[-75.17423265563711,40.99459463290061],[-75.17423028590716,40.994592659480766],[-75.17422767131337,40.99459087087734],[-75.17422483703572,40.994589284315516],[-75.17422181036983,40.99458791507477],[-75.1742186204641,40.9945867763416],[-75.17421529803907,40.994585879082614],[-75.17421187509147,40.99458523193893],[-75.17420838458614,40.994584841142846],[-75.17420486013847,40.99458471045797],[-75.17420133569081,40.994584841142846],[-75.17419784518546,40.99458523193893],[-75.17419442223786,40.994585879082614],[-75.17419109981284,40.9945867763416],[-75.17418790990712,40.99458791507477],[-75.17418488324121,40.994589284315516],[-75.17418204896356,40.99459087087734],[-75.17417943436979,40.994592659480766],[-75.17417706463984,40.99459463290061],[-75.17417496259552,40.99459677213176],[-75.1741731484807,40.99459905657227],[-75.1741716397663,40.994601464221745],[-75.1741704509821,40.99460397189321],[-75.17416959357675,40.99460655543644],[-75.17416907580761,40.99460918997049],[-75.17416890266108,40.99461185012338],[-75.17416907580471,40.99461451027637],[-75.1741695935711,40.99461714481074],[-75.17417045097388,40.99461972835448],[-75.17417163975584,40.99462223602665],[-75.1741731484684,40.99462464367697],[-75.17417496258184,40.99462692811844],[-75.17417706462533,40.99462906735064],[-75.17417943435497,40.99463104077158],[-75.17418204894905,40.99463282937609],[-75.17418488322754,40.99463441593896],[-75.17418790989481,40.99463578518068],[-75.17419109980237,40.99463692391469],[-75.17419442222965,40.994637821174365],[-75.17419784517979,40.99463846831857],[-75.17420133568793,40.994638859114964],[-75.17420486013847,40.99463898979996]]]}},{"type":"Feature","properties":{},"geometry":{"type":"Polygon","coordinates":[[[-75.17512480447705,40.99615499282169],[-75.1751282560954,40.99615486484022],[-75.17513167447274,40.99615448212838],[-75.17513502668821,40.996153848371875],[-75.17513828045806,40.99615296967415],[-75.1751414044467,40.99615185449753],[-75.17514436856841,40.996150513581824],[-75.175147144277,40.99614895984076],[-75.17514970484095,40.996147208237744],[-75.17515202560055,40.9961452756417],[-75.17515408420564,40.99614318066456],[-75.17515586083078,40.99614094348216],[-75.17515733836608,40.996138585639784],[-75.17515850258208,40.99613612984473],[-75.1751593422668,40.996133599747694],[-75.17515984933365,40.99613101971488],[-75.17516001889935,40.99612841459343],[-75.17515984933088,40.99612580947207],[-75.17515934226137,40.99612322943957],[-75.17515850257418,40.996120699343024],[-75.17515733835603,40.996118243548636],[-75.17515586081898,40.99611588570707],[-75.17515408419253,40.99611364852559],[-75.17515202558661,40.99611155354947],[-75.17514970482674,40.99610962095446],[-75.1751471442631,40.9961078693525],[-75.1751443685553,40.99610631561244],[-75.1751414044349,40.99610497469765],[-75.17513828044802,40.996103859521845],[-75.17513502668032,40.996102980824794],[-75.17513167446731,40.99610234706878],[-75.17512825609263,40.996101964357244],[-75.17512480447705,40.996101836375885],[-75.17512135286147,40.996101964357244],[-75.17511793448678,40.99610234706878],[-75.17511458227378,40.996102980824794],[-75.17511132850608,40.996103859521845],[-75.1751082045192,40.99610497469765],[-75.1751052403988,40.99610631561244],[-75.17510246469101,40.9961078693525],[-75.17509990412735,40.99610962095446],[-75.17509758336747,40.99611155354947],[-75.17509552476156,40.99611364852559],[-75.17509374813511,40.99611588570707],[-75.17509227059807,40.996118243548636],[-75.17509110637991,40.996120699343024],[-75.17509026669272,40.99612322943957],[-75.17508975962322,40.99612580947207],[-75.17508959005475,40.99612841459343],[-75.17508975962043,40.99613101971488],[-75.17509026668729,40.996133599747694],[-75.17509110637202,40.99613612984473],[-75.17509227058802,40.996138585639784],[-75.1750937481233,40.99614094348216],[-75.17509552474844,40.99614318066456],[-75.17509758335355,40.9961452756417],[-75.17509990411315,40.996147208237744],[-75.17510246467708,40.99614895984076],[-75.17510524038569,40.996150513581824],[-75.1751082045074,40.99615185449753],[-75.17511132849604,40.99615296967415],[-75.17511458226589,40.996153848371875],[-75.17511793448135,40.99615448212838],[-75.1751213528587,40.99615486484022],[-75.17512480447705,40.99615499282169]]]}},{"type":"Feature","properties":{},"geometry":{"type":"Polygon","coordinates":[[[-75.17702516630895,40.995515301325476],[-75.17702881771937,40.99551516593467],[-75.17703243396467,40.995514761066154],[-75.17703598021839,40.995514090619025],[-75.17703942232811,40.99551316105008],[-75.17704272714441,40.99551198131157],[-75.1770458628401,40.995510562765034],[-75.17704879921665,40.99550891907189],[-75.17705150799516,40.99550706606179],[-75.1770539630886,40.995505021580264],[-75.17705614085308,40.995502805316804],[-75.17705802031557,40.99550043861525],[-75.17705958337581,40.99549794426825],[-75.17706081498073,40.99549534629774],[-75.17706170326933,40.9954926697236],[-75.17706223968693,40.995489940322734],[-75.1770624190676,40.99548718438075],[-75.17706223968383,40.995484428438864],[-75.17706170326325,40.99548169903835],[-75.17706081497191,40.99547902246477],[-75.17705958336457,40.99547642449501],[-75.17705802030235,40.995473930148904],[-75.1770561408384,40.9954715634484],[-75.177053963073,40.99546934718606],[-75.17705150797926,40.99546730270571],[-75.17704879920107,40.99546544969677],[-75.17704586282541,40.99546380600475],[-75.17704272713122,40.99546238745925],[-75.17703942231688,40.99546120772166],[-75.17703598020957,40.99546027815345],[-75.1770324339586,40.99545960770688],[-75.17702881771626,40.995459202838695],[-75.17702516630895,40.99545906744802],[-75.17702151490163,40.995459202838695],[-75.1770178986593,40.99545960770688],[-75.17701435240834,40.99546027815345],[-75.17701091030102,40.99546120772166],[-75.1770076054867,40.99546238745925],[-75.17700446979248,40.99546380600475],[-75.17700153341684,40.99546544969677],[-75.17699882463864,40.99546730270571],[-75.1769963695449,40.99546934718606],[-75.1769941917795,40.9954715634484],[-75.17699231231556,40.995473930148904],[-75.17699074925332,40.99547642449501],[-75.17698951764599,40.99547902246477],[-75.17698862935465,40.99548169903835],[-75.17698809293407,40.995484428438864],[-75.1769879135503,40.99548718438075],[-75.17698809293097,40.995489940322734],[-75.17698862934857,40.9954926697236],[-75.17698951763717,40.99549534629774],[-75.1769907492421,40.99549794426825],[-75.17699231230233,40.99550043861525],[-75.17699419176482,40.995502805316804],[-75.1769963695293,40.995505021580264],[-75.17699882462276,40.99550706606179],[-75.17700153340125,40.99550891907189],[-75.1770044697778,40.995510562765034],[-75.17700760547348,40.99551198131157],[-75.17701091028978,40.99551316105008],[-75.17701435239951,40.995514090619025],[-75.17701789865322,40.995514761066154],[-75.17702151489853,40.99551516593467],[-75.17702516630895,40.995515301325476]]]}},{"type":"Feature","properties":{},"geometry":{"type":"Polygon","coordinates":[[[-75.17582958445178,40.99402357403838],[-75.17583314945065,40.994023441848654],[-75.1758366801166,40.9940230465525],[-75.17584014244736,40.99402239195686],[-75.1758435030987,40.99402148436587],[-75.17584672970573,40.99402033252011],[-75.17584979119438,40.994018947512515],[-75.17585265808087,40.994017342681474],[-75.1758553027555,40.99401553348239],[-75.17585769974855,40.994013537338866],[-75.17585982597575,40.994011373474876],[-75.17586166096031,40.99400906272964],[-75.17586318703039,40.99400662735688],[-75.1758643894891,40.994004090810606],[-75.17586525675617,40.99400147751914],[-75.17586578047936,40.99399881264992],[-75.17586595561498,40.9939961218671],[-75.1758657804764,40.993993431084384],[-75.17586525675038,40.9939907662155],[-75.1758643894807,40.99398815292456],[-75.17586318701967,40.99398561637899],[-75.17586166094772,40.99398318100711],[-75.17585982596175,40.993980870262845],[-75.17585769973371,40.99397870639993],[-75.17585530274033,40.99397671025752],[-75.17585265806602,40.99397490105956],[-75.1758497911804,40.99397329622958],[-75.17584672969313,40.99397191122298],[-75.175843503088,40.993970759378094],[-75.17584014243893,40.99396985178781],[-75.1758366801108,40.99396919719269],[-75.17583314944771,40.99396880189688],[-75.17582958445178,40.99396866970725],[-75.17582601945584,40.99396880189688],[-75.17582248879273,40.99396919719269],[-75.17581902646461,40.99396985178781],[-75.17581566581555,40.993970759378094],[-75.17581243921042,40.99397191122298],[-75.17580937772314,40.99397329622958],[-75.17580651083752,40.99397490105956],[-75.1758038661632,40.99397671025752],[-75.17580146916983,40.99397870639993],[-75.17579934294179,40.993980870262845],[-75.17579750795583,40.99398318100711],[-75.17579598188387,40.99398561637899],[-75.17579477942286,40.99398815292456],[-75.17579391215317,40.9939907662155],[-75.17579338842714,40.993993431084384],[-75.17579321328857,40.9939961218671],[-75.17579338842418,40.99399881264992],[-75.17579391214737,40.99400147751914],[-75.17579477941443,40.994004090810606],[-75.17579598187315,40.99400662735688],[-75.17579750794323,40.99400906272964],[-75.17579934292779,40.994011373474876],[-75.17580146915499,40.994013537338866],[-75.17580386614804,40.99401553348239],[-75.17580651082267,40.994017342681474],[-75.17580937770916,40.994018947512515],[-75.17581243919781,40.99402033252011],[-75.17581566580485,40.99402148436587],[-75.17581902645618,40.99402239195686],[-75.17582248878693,40.9940230465525],[-75.17582601945288,40.994023441848654],[-75.17582958445178,40.99402357403838]]]}},{"type":"Feature","properties":{},"geometry":{"type":"Polygon","coordinates":[[[-75.1739000326862,40.99659866503972],[-75.17390349961458,40.996598536491454],[-75.17390693315451,40.99659815208463],[-75.17391030023906,40.99659751552131],[-75.17391356844138,40.99659663293197],[-75.17391670628682,40.996595512816405],[-75.17391968355618,40.99659416596198],[-75.17392247157676,40.99659260533962],[-75.17392504349833,40.99659084597903],[-75.17392737455191,40.99658890482381],[-75.17392944228818,40.99658680056834],[-75.1739312267937,40.9965845534778],[-75.17393271088275,40.99658218519288],[-75.17393388026277,40.99657971852149],[-75.173934723672,40.99657717721904],[-75.17393523298799,40.996574585759646],[-75.17393540330579,40.996571969100515],[-75.17393523298519,40.996569352441476],[-75.17393472366652,40.996566760982404],[-75.17393388025482,40.99656421968044],[-75.17393271087263,40.99656175300972],[-75.1739312267818,40.99655938472563],[-75.17392944227494,40.996557137636024],[-75.17392737453785,40.996555033381576],[-75.173925043484,40.9965530922274],[-75.1739224715627,40.99655133286786],[-75.17391968354295,40.99654977224652],[-75.1739167062749,40.99654842539303],[-75.17391356843125,40.996547305278284],[-75.17391030023111,40.99654642268961],[-75.17390693314903,40.9965457861268],[-75.17390349961178,40.99654540172028],[-75.1739000326862,40.99654527317212],[-75.1738965657606,40.99654540172028],[-75.17389313222337,40.9965457861268],[-75.17388976514128,40.99654642268961],[-75.17388649694115,40.996547305278284],[-75.1738833590975,40.99654842539303],[-75.17388038182945,40.99654977224652],[-75.17387759380969,40.99655133286786],[-75.17387502188839,40.9965530922274],[-75.17387269083454,40.996555033381576],[-75.17387062309746,40.996557137636024],[-75.17386883859061,40.99655938472563],[-75.17386735449978,40.99656175300972],[-75.17386618511759,40.99656421968044],[-75.17386534170588,40.996566760982404],[-75.17386483238721,40.996569352441476],[-75.1738646620666,40.996571969100515],[-75.17386483238441,40.996574585759646],[-75.17386534170039,40.99657717721904],[-75.17386618510963,40.99657971852149],[-75.17386735448964,40.99658218519288],[-75.17386883857868,40.9965845534778],[-75.17387062308421,40.99658680056834],[-75.17387269082049,40.99658890482381],[-75.17387502187407,40.99659084597903],[-75.17387759379565,40.99659260533962],[-75.17388038181622,40.99659416596198],[-75.17388335908558,40.996595512816405],[-75.17388649693102,40.99659663293197],[-75.17388976513332,40.99659751552131],[-75.1738931322179,40.99659815208463],[-75.17389656575781,40.996598536491454],[-75.1739000326862,40.99659866503972]]]}},{"type":"Feature","properties":{},"geometry":{"type":"Polygon","coordinates":[[[-75.1736765534422,40.996646720745694],[-75.17368018754618,40.99664658599891],[-75.1736837866517,40.996646183056235],[-75.17368731609736,40.996645515798264],[-75.17369074189264,40.99664459065104],[-75.17369403104524,40.99664341652425],[-75.17369715187877,40.99664200472539],[-75.17370007433789,40.99664036885086],[-75.1737027702777,40.99663852465507],[-75.17370521373483,40.99663648989863],[-75.17370738117746,40.99663428417736],[-75.17370925173192,40.99663192873361],[-75.17371080738381,40.99662944625158],[-75.17371203315135,40.99662686063896],[-75.17371291722976,40.99662419679661],[-75.17371345110493,40.9966214803788],[-75.1737136296354,40.996618737546136],[-75.17371345110186,40.99661599471357],[-75.17371291722372,40.9966132782961],[-75.1737120331426,40.9966106144543],[-75.17371080737267,40.996608028842424],[-75.17370925171885,40.996605546361295],[-75.17370738116293,40.99660319091857],[-75.1737052137194,40.99660098519843],[-75.17370277026197,40.99659895044313],[-75.17370007432245,40.996597106248494],[-75.17369715186423,40.996595470375084],[-75.17369403103216,40.99659405857725],[-75.17369074188152,40.99659288445137],[-75.17368731608862,40.99659195930488],[-75.17368378664567,40.99659129204745],[-75.17368018754311,40.996590889105114],[-75.1736765534422,40.99659075435845],[-75.17367291934131,40.996590889105114],[-75.17366932023876,40.99659129204745],[-75.17366579079581,40.99659195930488],[-75.17366236500291,40.99659288445137],[-75.17365907585227,40.99659405857725],[-75.17365595502021,40.996595470375084],[-75.17365303256197,40.996597106248494],[-75.17365033662246,40.99659895044313],[-75.17364789316504,40.99660098519843],[-75.17364572572151,40.99660319091857],[-75.17364385516558,40.996605546361295],[-75.17364229951174,40.996608028842424],[-75.17364107374182,40.9966106144543],[-75.1736401896607,40.9966132782961],[-75.17363965578257,40.99661599471357],[-75.17363947724903,40.996618737546136],[-75.1736396557795,40.9966214803788],[-75.17364018965466,40.99662419679661],[-75.17364107373308,40.99662686063896],[-75.17364229950061,40.99662944625158],[-75.1736438551525,40.99663192873361],[-75.17364572570696,40.99663428417736],[-75.17364789314959,40.99663648989863],[-75.17365033660673,40.99663852465507],[-75.17365303254654,40.99664036885086],[-75.17365595500566,40.99664200472539],[-75.17365907583918,40.99664341652425],[-75.17366236499178,40.99664459065104],[-75.17366579078707,40.996645515798264],[-75.17366932023273,40.996646183056235],[-75.17367291933824,40.99664658599891],[-75.1736765534422,40.996646720745694]]]}},{"type":"Feature","properties":{},"geometry":{"type":"Polygon","coordinates":[[[-75.17380682379525,40.99457201206739],[-75.17381055063149,40.994571873877895],[-75.17381424157624,40.99457146064024],[-75.17381786108358,40.994570776334136],[-75.17382137429567,40.99456982754984],[-75.17382474737835,40.994568623424676],[-75.17382794784692,40.99456717555503],[-75.17383094487909,40.9945654978847],[-75.1738337096118,40.99456360657059],[-75.17383621541917,40.9945615198271],[-75.1738384381689,40.99455925775072],[-75.1738403564547,40.99455684212652],[-75.17384195180246,40.99455429621829],[-75.17384320884815,40.99455164454451],[-75.17384411548576,40.99454891264228],[-75.17384466298392,40.99454612682134],[-75.17384484606994,40.994543313910626],[-75.17384466298068,40.99454050100004],[-75.17384411547944,40.99453771517943],[-75.17384320883896,40.99453498327779],[-75.17384195179076,40.99453233160479],[-75.17384035644093,40.99452978569751],[-75.1738384381536,40.99452737007437],[-75.17383621540294,40.99452510799917],[-75.17383370959524,40.994523021256896],[-75.17383094486284,40.994521129944005],[-75.17382794783161,40.99451945227485],[-75.17382474736459,40.99451800440628],[-75.17382137428399,40.994516800282064],[-75.1738178610744,40.99451585149855],[-75.17381424156989,40.99451516719303],[-75.17381055062827,40.99451475395572],[-75.17380682379525,40.99451461576634],[-75.17380309696222,40.99451475395572],[-75.17379940602059,40.99451516719303],[-75.1737957865161,40.99451585149855],[-75.1737922733065,40.994516800282064],[-75.1737889002259,40.99451800440628],[-75.17378569975888,40.99451945227485],[-75.17378270272765,40.994521129944005],[-75.17377993799523,40.994523021256896],[-75.17377743218755,40.99452510799917],[-75.1737752094369,40.99452737007437],[-75.17377329114956,40.99452978569751],[-75.17377169579973,40.99453233160479],[-75.17377043875153,40.99453498327779],[-75.17376953211105,40.99453771517943],[-75.1737689846098,40.99454050100004],[-75.17376880152055,40.994543313910626],[-75.17376898460657,40.99454612682134],[-75.17376953210473,40.99454891264228],[-75.17377043874232,40.99455164454451],[-75.17377169578802,40.99455429621829],[-75.17377329113579,40.99455684212652],[-75.17377520942159,40.99455925775072],[-75.17377743217132,40.9945615198271],[-75.1737799379787,40.99456360657059],[-75.1737827027114,40.9945654978847],[-75.17378569974358,40.99456717555503],[-75.17378890021214,40.994568623424676],[-75.17379227329481,40.99456982754984],[-75.17379578650691,40.994570776334136],[-75.17379940601425,40.99457146064024],[-75.173803096959,40.994571873877895],[-75.17380682379525,40.99457201206739]]]}},{"type":"Feature","properties":{},"geometry":{"type":"Polygon","coordinates":[[[-75.17179482254495,40.99618501792784],[-75.17179836986443,40.99618488639798],[-75.17180188302126,40.99618449307507],[-75.17180532818175,40.99618384174704],[-75.17180867216707,40.99618293868654],[-75.17181188277284,40.996181792590555],[-75.17181492907909,40.99618041449661],[-75.17181778174823,40.99617881767653],[-75.17182041330749,40.9961770175086],[-75.17182279841349,40.9961750313294],[-75.17182491409638,40.996172878266954],[-75.17182673998097,40.99617057905646],[-75.17182825848302,40.99616815584056],[-75.17182945497858,40.99616563195617],[-75.17183031794474,40.9961630317097],[-75.17183083907071,40.99616038014294],[-75.17183101333781,40.996157702791926],[-75.17183083906778,40.99615502544103],[-75.171830317939,40.99615237387459],[-75.17182945497025,40.99614977362864],[-75.17182825847243,40.996147249744965],[-75.17182673996851,40.996144826529914],[-75.17182491408253,40.996142527320394],[-75.1718227983988,40.996140374259014],[-75.1718204132925,40.99613838808093],[-75.17181778173352,40.99613658791408],[-75.17181492906525,40.996134991095076],[-75.17181188276038,40.996133613002115],[-75.17180867215647,40.996132466906985],[-75.1718053281734,40.99613156384719],[-75.17180188301552,40.99613091251969],[-75.1717983698615,40.996130519197095],[-75.17179482254495,40.996130387667336],[-75.1717912752284,40.996130519197095],[-75.17178776207439,40.99613091251969],[-75.1717843169165,40.99613156384719],[-75.17178097293342,40.996132466906985],[-75.17177776232953,40.996133613002115],[-75.17177471602466,40.996134991095076],[-75.17177186335638,40.99613658791408],[-75.1717692317974,40.99613838808093],[-75.17176684669111,40.996140374259014],[-75.17176473100737,40.996142527320394],[-75.1717629051214,40.996144826529914],[-75.17176138661748,40.996147249744965],[-75.17176019011966,40.99614977362864],[-75.1717593271509,40.99615237387459],[-75.17175880602211,40.99615502544103],[-75.1717586317521,40.996157702791926],[-75.1717588060192,40.99616038014294],[-75.17175932714517,40.9961630317097],[-75.17176019011133,40.99616563195617],[-75.17176138660687,40.99616815584056],[-75.17176290510893,40.99617057905646],[-75.17176473099352,40.996172878266954],[-75.1717668466764,40.9961750313294],[-75.17176923178242,40.9961770175086],[-75.17177186334166,40.99617881767653],[-75.1717747160108,40.99618041449661],[-75.17177776231706,40.996181792590555],[-75.17178097292282,40.99618293868654],[-75.17178431690816,40.99618384174704],[-75.17178776206865,40.99618449307507],[-75.17179127522547,40.99618488639798],[-75.17179482254495,40.99618501792784]]]}},{"type":"Feature","properties":{},"geometry":{"type":"Polygon","coordinates":[[[-75.17203490916783,40.99760629610743],[-75.17203870308842,40.997606155436955],[-75.17204246047143,40.99760573478024],[-75.17204614513116,40.99760503818845],[-75.1720497215823,40.99760407237015],[-75.17205315538159,40.997602846626734],[-75.17205641345967,40.99760137276277],[-75.17205946443944,40.9975996649724],[-75.17206227893827,40.99759773970259],[-75.17206482985101,40.99759561549477],[-75.17206709261099,40.997593312806224],[-75.17206904542657,40.99759085381313],[-75.1720706694911,40.99758826219695],[-75.17207194916402,40.997585562916385],[-75.17207287212138,40.99758278196699],[-75.17207342947466,40.99757994613082],[-75.17207361585628,40.99757708271856],[-75.17207342947131,40.99757421930641],[-75.17207287211481,40.997571383470614],[-75.17207194915449,40.99756860252182],[-75.17207066947898,40.99756590324205],[-75.17206904541231,40.99756331162685],[-75.17206709259513,40.997560852634884],[-75.1720648298342,40.997558549947556],[-75.17206227892113,40.99755642574099],[-75.17205946442262,40.99755450047245],[-75.17205641344383,40.997552792683294],[-75.17205315536732,40.99755131882044],[-75.17204972157015,40.99755009307801],[-75.17204614512163,40.99754912726051],[-75.17204246046488,40.99754843066932],[-75.17203870308506,40.99754801001298],[-75.17203490916783,40.99754786934261],[-75.1720311152506,40.99754801001298],[-75.1720273578708,40.99754843066932],[-75.17202367321404,40.99754912726051],[-75.17202009676552,40.99755009307801],[-75.17201666296835,40.99755131882044],[-75.17201340489186,40.997552792683294],[-75.17201035391307,40.99755450047245],[-75.17200753941455,40.99755642574099],[-75.17200498850147,40.997558549947556],[-75.17200272574054,40.997560852634884],[-75.17200077292335,40.99756331162685],[-75.17199914885668,40.99756590324205],[-75.17199786918118,40.99756860252182],[-75.17199694622086,40.997571383470614],[-75.17199638886436,40.99757421930641],[-75.1719962024794,40.99757708271856],[-75.171996388861,40.99757994613082],[-75.17199694621429,40.99758278196699],[-75.17199786917165,40.997585562916385],[-75.17199914884456,40.99758826219695],[-75.1720007729091,40.99759085381313],[-75.17200272572468,40.997593312806224],[-75.17200498848466,40.99759561549477],[-75.1720075393974,40.99759773970259],[-75.17201035389623,40.9975996649724],[-75.172013404876,40.99760137276277],[-75.17201666295408,40.997602846626734],[-75.17202009675339,40.99760407237015],[-75.17202367320452,40.99760503818845],[-75.17202735786424,40.99760573478024],[-75.17203111524725,40.997606155436955],[-75.17203490916783,40.99760629610743]]]}},{"type":"Feature","properties":{},"geometry":{"type":"Polygon","coordinates":[[[-75.17130347061227,40.998079956304565],[-75.17130709106813,40.99807982206675],[-75.17131067665699,40.99807942064609],[-75.1713141928476,40.998078755908494],[-75.1713176057771,40.99807783425576],[-75.17132088257709,40.9980766645639],[-75.17132399169014,40.99807525809772],[-75.17132690317378,40.99807362840227],[-75.17132958898884,40.99807179117241],[-75.17133202326941,40.998069764101686],[-75.17133418257208,40.998067566711924],[-75.17133604610157,40.99806522016522],[-75.17133759591113,40.99806274706008],[-75.17133881707521,40.99806017121389],[-75.17133969783343,40.99805751743347],[-75.1713402297036,40.998054811276184],[-75.17134040756359,40.99805207880379],[-75.17134022970055,40.99804934633152],[-75.17133969782745,40.998046640174564],[-75.17133881706654,40.998043986394684],[-75.17133759590007,40.99804141054923],[-75.17133604608858,40.99803893744498],[-75.17133418255766,40.99803659089929],[-75.1713320232541,40.99803439351064],[-75.17132958897322,40.998032366441066],[-75.17132690315847,40.998030529212365],[-75.1713239916757,40.99802889951801],[-75.1713208825641,40.99802749305285],[-75.17131760576606,40.9980263233619],[-75.17131419283892,40.99802540170989],[-75.171310676651,40.99802473697284],[-75.17130709106509,40.998024335552515],[-75.17130347061227,40.99802420131482],[-75.17129985015944,40.998024335552515],[-75.17129626457353,40.99802473697284],[-75.17129274838561,40.99802540170989],[-75.17128933545848,40.9980263233619],[-75.17128605866044,40.99802749305285],[-75.17128294954883,40.99802889951801],[-75.17128003806606,40.998030529212365],[-75.17127735225132,40.998032366441066],[-75.17127491797044,40.99803439351064],[-75.17127275866687,40.99803659089929],[-75.17127089513595,40.99803893744498],[-75.17126934532446,40.99804141054923],[-75.171268124158,40.998043986394684],[-75.1712672433971,40.998046640174564],[-75.17126671152398,40.99804934633152],[-75.17126653366094,40.99805207880379],[-75.17126671152093,40.998054811276184],[-75.17126724339111,40.99805751743347],[-75.17126812414932,40.99806017121389],[-75.17126934531342,40.99806274706008],[-75.17127089512296,40.99806522016522],[-75.17127275865245,40.998067566711924],[-75.17127491795512,40.998069764101686],[-75.17127735223569,40.99807179117241],[-75.17128003805074,40.99807362840227],[-75.1712829495344,40.99807525809772],[-75.17128605864745,40.9980766645639],[-75.17128933544743,40.99807783425576],[-75.17129274837694,40.998078755908494],[-75.17129626456754,40.99807942064609],[-75.1712998501564,40.99807982206675],[-75.17130347061227,40.998079956304565]]]}},{"type":"Feature","properties":{},"geometry":{"type":"Polygon","coordinates":[[[-75.16992325743227,40.99612407284843],[-75.16992679003481,40.99612394186411],[-75.16993028861643,40.99612355017264],[-75.16993371948381,40.99612290154621],[-75.16993704959579,40.99612200223145],[-75.16994024688154,40.99612086088928],[-75.16994328054945,40.99611948851145],[-75.16994612138359,40.9961178983147],[-75.16994874202517,40.996116105613545],[-75.16995111723597,40.99611412767269],[-75.16995322414142,40.996111983540786],[-75.16995504245088,40.99610969386701],[-75.16995655465307,40.9961072807022],[-75.16995774618466,40.99610476728646],[-75.16995860557059,40.99610217782537],[-75.16995912453454,40.996099537256846],[-75.16995929807867,40.996096871011034],[-75.16995912453164,40.99609420476533],[-75.16995860556489,40.996091564197116],[-75.1699577461764,40.99608897473655],[-75.16995655464255,40.996086461321504],[-75.16995504243852,40.99608404815755],[-75.16995322412768,40.99608175848474],[-75.16995111722139,40.996079614353896],[-75.16994874201029,40.99607763641413],[-75.169946121369,40.99607584371407],[-75.1699432805357,40.99607425351839],[-75.16994024686919,40.996072881141515],[-75.16993704958529,40.99607173980019],[-75.16993371947554,40.996070840486134],[-75.16993028861073,40.99607019186023],[-75.16992679003192,40.99606980016907],[-75.16992325743227,40.99606966918486],[-75.16991972483262,40.99606980016907],[-75.1699162262538,40.99607019186023],[-75.169912795389,40.996070840486134],[-75.16990946527926,40.99607173980019],[-75.16990626799536,40.996072881141515],[-75.16990323432883,40.99607425351839],[-75.16990039349554,40.99607584371407],[-75.16989777285426,40.99607763641413],[-75.16989539764316,40.996079614353896],[-75.16989329073687,40.99608175848474],[-75.16989147242602,40.99608404815755],[-75.16988996022198,40.996086461321504],[-75.16988876868815,40.99608897473655],[-75.16988790929965,40.996091564197116],[-75.1698873903329,40.99609420476533],[-75.16988721678588,40.996096871011034],[-75.16988739033,40.996099537256846],[-75.16988790929396,40.99610217782537],[-75.16988876867988,40.99610476728646],[-75.16988996021148,40.9961072807022],[-75.16989147241367,40.99610969386701],[-75.16989329072312,40.996111983540786],[-75.16989539762858,40.99611412767269],[-75.16989777283938,40.996116105613545],[-75.16990039348096,40.9961178983147],[-75.16990323431509,40.99611948851145],[-75.169906267983,40.99612086088928],[-75.16990946526874,40.99612200223145],[-75.16991279538074,40.99612290154621],[-75.1699162262481,40.99612355017264],[-75.16991972482973,40.99612394186411],[-75.16992325743227,40.99612407284843]]]}},{"type":"Feature","properties":{},"geometry":{"type":"Polygon","coordinates":[[[-75.17017545086664,40.99802983454311],[-75.1701788884189,40.99802970708682],[-75.17018229286562,40.99802932594546],[-75.17018563142007,40.998028694789596],[-75.17018887193011,40.99802781969765],[-75.17019198318783,40.99802670909722],[-75.1701949352301,40.998025373684],[-75.1701976996271,40.9980238263188],[-75.17020024975616,40.99802208190355],[-75.17020256105818,40.998020157237995],[-75.17020461127403,40.998018070857704],[-75.17020638065901,40.998015842855665],[-75.17020785217304,40.99801349468879],[-75.17020901164463,40.99801104897121],[-75.17020984790746,40.99800852925654],[-75.17021035290792,40.99800595981099],[-75.17021052178258,40.998003365379766],[-75.17021035290516,40.998000770948636],[-75.17020984790207,40.9979982015034],[-75.1702090116368,40.99799568178921],[-75.17020785216309,40.99799323607229],[-75.17020638064731,40.99799088790623],[-75.17020461126103,40.99798865990512],[-75.17020256104436,40.99798657352581],[-75.17020024974208,40.997984648861284],[-75.17019769961328,40.99798290444709],[-75.17019493521707,40.99798135708288],[-75.17019198317611,40.997980021670585],[-75.17018887192015,40.99797891107095],[-75.17018563141224,40.997978035979656],[-75.17018229286023,40.99797740482429],[-75.17017888841616,40.99797702368323],[-75.17017545086664,40.99797689622705],[-75.17017201331713,40.99797702368323],[-75.17016860887304,40.99797740482429],[-75.17016527032104,40.997978035979656],[-75.17016202981313,40.99797891107095],[-75.17015891855716,40.997980021670585],[-75.1701559665162,40.99798135708288],[-75.17015320212,40.99798290444709],[-75.1701506519912,40.997984648861284],[-75.17014834068891,40.99798657352581],[-75.17014629047226,40.99798865990512],[-75.17014452108596,40.99799088790623],[-75.17014304957019,40.99799323607229],[-75.17014189009647,40.99799568178921],[-75.17014105383122,40.9979982015034],[-75.17014054882812,40.998000770948636],[-75.17014037995071,40.998003365379766],[-75.17014054882537,40.99800595981099],[-75.17014105382582,40.99800852925654],[-75.17014189008866,40.99801104897121],[-75.17014304956024,40.99801349468879],[-75.17014452107426,40.998015842855665],[-75.17014629045926,40.998018070857704],[-75.1701483406751,40.998020157237995],[-75.17015065197711,40.99802208190355],[-75.17015320210619,40.9980238263188],[-75.17015596650319,40.998025373684],[-75.17015891854545,40.99802670909722],[-75.17016202980317,40.99802781969765],[-75.17016527031322,40.998028694789596],[-75.17016860886766,40.99802932594546],[-75.17017201331437,40.99802970708682],[-75.17017545086664,40.99802983454311]]]}},{"type":"Feature","properties":{},"geometry":{"type":"Polygon","coordinates":[[[-75.17081223832268,40.99868398152843],[-75.1708158258261,40.998683848513636],[-75.17081937877984,40.99868345075025],[-75.170822862967,40.99868279206897],[-75.1708262448329,40.99868187881324],[-75.17082949180829,40.99868071977825],[-75.17083257262301,40.99867932612614],[-75.17083545760708,40.99867771127855],[-75.17083811897655,40.99867589078737],[-75.17084053110095,40.99867388218494],[-75.1708426707502,40.998671704815216],[-75.17084451731834,40.99866937964748],[-75.17084605302193,40.99866692907437],[-75.17084726307132,40.998664376696254],[-75.17084813581313,40.99866174709396],[-75.17084866284237,40.998659065591994],[-75.17084883908355,40.99865635801468],[-75.17084866283938,40.998653650437475],[-75.17084813580725,40.998650968935834],[-75.1708472630628,40.998648339334075],[-75.17084605301109,40.998645786956686],[-75.1708445173056,40.998643336384454],[-75.17084267073604,40.99864101121772],[-75.1708405310859,40.99863883384908],[-75.17083811896121,40.99863682524777],[-75.17083545759205,40.99863500475772],[-75.17083257260884,40.99863338991122],[-75.17082949179554,40.998631996260116],[-75.17082624482205,40.998630837226],[-75.17082286295847,40.998629923970995],[-75.17081937877398,40.998629265290255],[-75.1708158258231,40.998628867527195],[-75.17081223832268,40.998628734512515],[-75.17080865082227,40.998628867527195],[-75.1708050978714,40.998629265290255],[-75.1708016136869,40.998629923970995],[-75.17079823182333,40.998630837226],[-75.17079498484983,40.998631996260116],[-75.17079190403655,40.99863338991122],[-75.17078901905333,40.99863500475772],[-75.17078635768416,40.99863682524777],[-75.17078394555948,40.99863883384908],[-75.17078180590934,40.99864101121772],[-75.17077995933978,40.998643336384454],[-75.17077842363429,40.998645786956686],[-75.17077721358258,40.998648339334075],[-75.17077634083813,40.998650968935834],[-75.170775813806,40.998653650437475],[-75.17077563756183,40.99865635801468],[-75.170775813803,40.998659065591994],[-75.17077634083225,40.99866174709396],[-75.17077721357406,40.998664376696254],[-75.17077842362345,40.99866692907437],[-75.17077995932704,40.99866937964748],[-75.17078180589517,40.998671704815216],[-75.17078394554443,40.99867388218494],[-75.17078635766883,40.99867589078737],[-75.1707890190383,40.99867771127855],[-75.17079190402237,40.99867932612614],[-75.17079498483709,40.99868071977825],[-75.17079823181248,40.99868187881324],[-75.17080161367838,40.99868279206897],[-75.17080509786554,40.99868345075025],[-75.17080865081928,40.998683848513636],[-75.17081223832268,40.99868398152843]]]}},{"type":"Feature","properties":{},"geometry":{"type":"Polygon","coordinates":[[[-75.17156429165897,40.99890945209686],[-75.17156796301656,40.99890931597346],[-75.17157159901693,40.99890890891415],[-75.17157516464334,40.99890823483916],[-75.17157862555686,40.99890730024022],[-75.17158194842696,40.99890611411803],[-75.17158510125252,40.99890468789561],[-75.17158805367009,40.99890303530826],[-75.1715907772463,40.99890117227135],[-75.17159324575158,40.998899116726925],[-75.1715954354129,40.99889688847105],[-75.17159732514263,40.99889450896304],[-75.17159889674166,40.998892001118875],[-75.17160013507467,40.99888938909049],[-75.17160102821586,40.99888669803316],[-75.17160156756383,40.99888395386323],[-75.17160174792443,40.998881183008585],[-75.1716015675607,40.998878412154035],[-75.17160102820971,40.99887566798446],[-75.17160013506575,40.998872976927686],[-75.17159889673029,40.99887036490006],[-75.17159732512928,40.99886785705681],[-75.17159543539806,40.998865477549856],[-75.17159324573582,40.998863249295106],[-75.17159077723024,40.99886119375188],[-75.17158805365435,40.99885933071614],[-75.17158510123767,40.99885767812993],[-75.17158194841359,40.998856251908556],[-75.17157862554552,40.99885506578729],[-75.17157516463443,40.998854131189105],[-75.17157159901079,40.99885345711467],[-75.17156796301342,40.99885305005571],[-75.17156429165897,40.99885291393242],[-75.17156062030449,40.99885305005571],[-75.17155698430714,40.99885345711467],[-75.17155341868349,40.998854131189105],[-75.17154995777241,40.99885506578729],[-75.17154663490432,40.998856251908556],[-75.17154348208025,40.99885767812993],[-75.17154052966357,40.99885933071614],[-75.17153780608768,40.99886119375188],[-75.1715353375821,40.998863249295106],[-75.17153314791987,40.998865477549856],[-75.17153125818864,40.99886785705681],[-75.17152968658762,40.99887036490006],[-75.17152844825218,40.998872976927686],[-75.17152755510821,40.99887566798446],[-75.17152701575722,40.998878412154035],[-75.17152683539351,40.998881183008585],[-75.1715270157541,40.99888395386323],[-75.17152755510206,40.99888669803316],[-75.17152844824325,40.99888938909049],[-75.17152968657626,40.998892001118875],[-75.17153125817528,40.99889450896304],[-75.17153314790501,40.99889688847105],[-75.17153533756633,40.998899116726925],[-75.17153780607163,40.99890117227135],[-75.17154052964781,40.99890303530826],[-75.1715434820654,40.99890468789561],[-75.17154663489097,40.99890611411803],[-75.17154995776106,40.99890730024022],[-75.17155341867456,40.99890823483916],[-75.17155698430099,40.99890890891415],[-75.17156062030135,40.99890931597346],[-75.17156429165897,40.99890945209686]]]}},{"type":"Feature","properties":{},"geometry":{"type":"Polygon","coordinates":[[[-75.17231568112788,40.999239339046],[-75.17231910270415,40.9992392121844],[-75.17232249132874,40.999238832821334],[-75.1723258143673,40.9992382046103],[-75.17232903981709,40.999237333601315],[-75.17233213661528,40.99923622818267],[-75.17233507493795,40.99923489900017],[-75.17233782648745,40.99923335885459],[-75.17234036476482,40.999231622578364],[-75.17234266532509,40.99922970689282],[-75.1723447060126,40.99922763024708],[-75.17234646717439,40.99922541264036],[-75.17234793184957,40.999223075429434],[-75.17234908593252,40.99922064112298],[-75.17234991830885,40.99921813316467],[-75.1723504209623,40.99921557570753],[-75.17235058905216,40.999212993381285],[-75.1723504209596,40.99921041105514],[-75.17234991830351,40.99920785359831],[-75.17234908592478,40.99920534564048],[-75.17234793183971,40.99920291133468],[-75.1723464671628,40.999200574124565],[-75.17234470599969,40.999198356518754],[-75.1723426653114,40.99919627987399],[-75.17234036475088,40.99919436418947],[-75.17233782647376,40.99919262791428],[-75.17233507492506,40.99919108776968],[-75.17233213660367,40.999189758588095],[-75.17232903980722,40.99918865317025],[-75.17232581435954,40.99918778216191],[-75.1723224913234,40.99918715395137],[-75.17231910270144,40.999186774588615],[-75.17231568112788,40.99918664772711],[-75.17231225955433,40.999186774588615],[-75.17230887093237,40.99918715395137],[-75.17230554789623,40.99918778216191],[-75.17230232244854,40.99918865317025],[-75.1722992256521,40.999189758588095],[-75.17229628733071,40.99919108776968],[-75.172293535782,40.99919262791428],[-75.17229099750489,40.99919436418947],[-75.17228869694436,40.99919627987399],[-75.17228665625608,40.999198356518754],[-75.17228489509297,40.999200574124565],[-75.17228343041606,40.99920291133468],[-75.17228227633099,40.99920534564048],[-75.17228144395226,40.99920785359831],[-75.17228094129617,40.99921041105514],[-75.17228077320361,40.999212993381285],[-75.17228094129345,40.99921557570753],[-75.17228144394691,40.99921813316467],[-75.17228227632324,40.99922064112298],[-75.1722834304062,40.999223075429434],[-75.17228489508138,40.99922541264036],[-75.17228665624317,40.99922763024708],[-75.17228869693068,40.99922970689282],[-75.17229099749095,40.999231622578364],[-75.17229353576832,40.99923335885459],[-75.1722962873178,40.99923489900017],[-75.1722992256405,40.99923622818267],[-75.17230232243868,40.999237333601315],[-75.17230554788847,40.9992382046103],[-75.17230887092703,40.999238832821334],[-75.17231225955162,40.9992392121844],[-75.17231568112788,40.999239339046]]]}},{"type":"Feature","properties":{},"geometry":{"type":"Polygon","coordinates":[[[-75.17238434424517,40.995064943496324],[-75.17238795932755,40.99506480945163],[-75.17239153959464,40.99506440860842],[-75.17239505056651,40.995063744827085],[-75.17239845843052,40.99506282450016],[-75.17240173036706,40.99506165649096],[-75.17240483486555,40.99506025204802],[-75.17240774202796,40.995058624696945],[-75.1724104238567,40.995056790110006],[-75.17241285452431,40.9950547659553],[-75.17241501062212,40.99505257172657],[-75.17241687138576,40.995050228555435],[-75.17241841889506,40.99504775900795],[-75.17241963824671,40.99504518686721],[-75.1724205176977,40.99504253690434],[-75.17242104877847,40.995039834639954],[-75.17242122637448,40.99503710609832],[-75.17242104877543,40.99503437755681],[-75.17242051769173,40.995031675292765],[-75.17241963823805,40.99502902533043],[-75.17241841888405,40.99502645319042],[-75.17241687137282,40.995023983643826],[-75.17241501060774,40.995021640473716],[-75.17241285450903,40.995019446246076],[-75.17241042384113,40.99501742209252],[-75.17240774201268,40.99501558750673],[-75.17240483485116,40.99501396015675],[-75.17240173035411,40.99501255571484],[-75.17239845841952,40.995011387706526],[-75.17239505055785,40.99501046738035],[-75.17239153958869,40.99500980359953],[-75.17238795932451,40.99500940275667],[-75.17238434424517,40.995009268712074],[-75.17238072916585,40.99500940275667],[-75.17237714890167,40.99500980359953],[-75.17237363793251,40.99501046738035],[-75.17237023007084,40.995011387706526],[-75.17236695813625,40.99501255571484],[-75.1723638536392,40.99501396015675],[-75.17236094647768,40.99501558750673],[-75.17235826464923,40.99501742209252],[-75.17235583398131,40.995019446246076],[-75.17235367788261,40.995021640473716],[-75.17235181711753,40.995023983643826],[-75.17235026960631,40.99502645319042],[-75.1723490502523,40.99502902533043],[-75.17234817079863,40.995031675292765],[-75.17234763971493,40.99503437755681],[-75.17234746211587,40.99503710609832],[-75.17234763971189,40.995039834639954],[-75.17234817079266,40.99504253690434],[-75.17234905024365,40.99504518686721],[-75.17235026959528,40.99504775900795],[-75.17235181710458,40.995050228555435],[-75.17235367786823,40.99505257172657],[-75.17235583396605,40.9950547659553],[-75.17235826463366,40.995056790110006],[-75.1723609464624,40.995058624696945],[-75.1723638536248,40.99506025204802],[-75.1723669581233,40.99506165649096],[-75.17237023005984,40.99506282450016],[-75.17237363792385,40.995063744827085],[-75.17237714889572,40.99506440860842],[-75.17238072916281,40.99506480945163],[-75.17238434424517,40.995064943496324]]]}},{"type":"Feature","properties":{},"geometry":{"type":"Polygon","coordinates":[[[-75.17146818428158,40.995116520965745],[-75.17147190639328,40.995116382952574],[-75.17147559265895,40.99511597024219],[-75.1714792075778,40.99511528680924],[-75.17148271633619,40.995114339235556],[-75.17148608514273,40.99511313664681],[-75.17148928155403,40.99511169062459],[-75.17149227478683,40.9951100150949],[-75.17149503601468,40.995108126194026],[-75.1714975386454,40.99510604211314],[-75.17149975857733,40.995103782923096],[-75.1715016744313,40.99510137038112],[-75.17150326775663,40.995098827721385],[-75.17150452320875,40.99509617943103],[-75.171505428697,40.99509345101461],[-75.17150597550108,40.99509066874825],[-75.17150615835502,40.995087859426704],[-75.17150597549787,40.99508505010529],[-75.17150542869068,40.99508226783928],[-75.17150452319957,40.995079539423436],[-75.17150326774495,40.99507689113387],[-75.17150167441758,40.99507434847506],[-75.17149975856206,40.99507193593418],[-75.17149753862921,40.99506967674529],[-75.17149503599815,40.99506759266562],[-75.17149227477064,40.99506570376596],[-75.17148928153878,40.995064028237444],[-75.17148608512902,40.99506258221631],[-75.1714827163245,40.9950613796285],[-75.17147920756864,40.99506043205559],[-75.17147559265264,40.99505974862321],[-75.17147190639005,40.99505933591318],[-75.17146818428158,40.99505919790013],[-75.1714644621731,40.99505933591318],[-75.17146077591052,40.99505974862321],[-75.1714571609945,40.99506043205559],[-75.17145365223865,40.9950613796285],[-75.17145028343414,40.99506258221631],[-75.17144708702438,40.995064028237444],[-75.17144409379252,40.99506570376596],[-75.171441332565,40.99506759266562],[-75.17143882993395,40.99506967674529],[-75.17143661000108,40.99507193593418],[-75.17143469414557,40.99507434847506],[-75.17143310081819,40.99507689113387],[-75.17143184536359,40.995079539423436],[-75.17143093987247,40.99508226783928],[-75.17143039306528,40.99508505010529],[-75.17143021020814,40.995087859426704],[-75.17143039306207,40.99509066874825],[-75.17143093986614,40.99509345101461],[-75.1714318453544,40.99509617943103],[-75.17143310080651,40.995098827721385],[-75.17143469413185,40.99510137038112],[-75.17143660998583,40.995103782923096],[-75.17143882991776,40.99510604211314],[-75.17144133254848,40.995108126194026],[-75.17144409377632,40.9951100150949],[-75.17144708700913,40.99511169062459],[-75.17145028342041,40.99511313664681],[-75.17145365222697,40.995114339235556],[-75.17145716098536,40.99511528680924],[-75.17146077590421,40.99511597024219],[-75.17146446216988,40.995116382952574],[-75.17146818428158,40.995116520965745]]]}},{"type":"Feature","properties":{},"geometry":{"type":"Polygon","coordinates":[[[-75.17152737705081,40.9976654719051],[-75.17153086078994,40.9976653427356],[-75.17153431097876,40.997664956471084],[-75.17153769438995,40.9976643168315],[-75.17154097843941,40.99766342997691],[-75.17154413149993,40.997662304448255],[-75.17154712320574,40.99766095108497],[-75.17154992474512,40.99765938292071],[-75.17155250913768,40.99765761505777],[-75.17155485149428,40.997655664521645],[-75.17155692925678,40.99765355009709],[-75.17155872241518,40.997651292147175],[-75.1715602137004,40.99764891241721],[-75.1715613887506,40.99764643382532],[-75.17156223624943,40.99764388024169],[-75.17156274803504,40.997641276258726],[-75.17156291917868,40.99763864695424],[-75.17156274803222,40.99763601764985],[-75.1715622362439,40.99763341366721],[-75.17156138874259,40.99763086008408],[-75.17156021369019,40.99762838149287],[-75.17155872240315,40.997626001763734],[-75.17155692924341,40.99762374381476],[-75.1715548514801,40.99762162939124],[-75.17155250912322,40.99761967885617],[-75.17154992473094,40.99761791099431],[-75.17154712319238,40.997616342831066],[-75.17154413148788,40.99761498946873],[-75.17154097842918,40.99761386394089],[-75.17153769438191,40.99761297708699],[-75.1715343109732,40.997612337447904],[-75.17153086078713,40.99761195118369],[-75.17152737705081,40.9976118220143],[-75.17152389331447,40.99761195118369],[-75.1715204431284,40.997612337447904],[-75.17151705971969,40.99761297708699],[-75.17151377567242,40.99761386394089],[-75.17151062261372,40.99761498946873],[-75.17150763090922,40.997616342831066],[-75.17150482937066,40.99761791099431],[-75.17150224497838,40.99761967885617],[-75.1714999026215,40.99762162939124],[-75.17149782485819,40.99762374381476],[-75.17149603169845,40.997626001763734],[-75.17149454041142,40.99762838149287],[-75.17149336535903,40.99763086008408],[-75.1714925178577,40.99763341366721],[-75.1714920060694,40.99763601764985],[-75.17149183492292,40.99763864695424],[-75.17149200606657,40.997641276258726],[-75.17149251785217,40.99764388024169],[-75.171493365351,40.99764643382532],[-75.1714945404012,40.99764891241721],[-75.17149603168642,40.997651292147175],[-75.17149782484483,40.99765355009709],[-75.17149990260732,40.997655664521645],[-75.17150224496392,40.99765761505777],[-75.17150482935648,40.99765938292071],[-75.17150763089586,40.99766095108497],[-75.17151062260167,40.997662304448255],[-75.17151377566219,40.99766342997691],[-75.17151705971166,40.9976643168315],[-75.17152044312284,40.997664956471084],[-75.17152389331166,40.9976653427356],[-75.17152737705081,40.9976654719051]]]}},{"type":"Feature","properties":{},"geometry":{"type":"Polygon","coordinates":[[[-75.16905393540466,40.99824686289549],[-75.16905761092977,40.99824672661619],[-75.16906125105751,40.998246319090725],[-75.16906482073145,40.99824564424378],[-75.1690682855736,40.99824470857453],[-75.1690716122156,40.99824352109399],[-75.16907476862006,40.99824209323825],[-75.16907772438907,40.99824043875836],[-75.16908045105691,40.99823857358787],[-75.16908292236431,40.99823651568943],[-75.1690851145112,40.99823428488173],[-75.16908700638604,40.99823190264869],[-75.16908857976907,40.998229391932526],[-75.16908981950776,40.99822677691283],[-75.16909071366278,40.99822408277369],[-75.169091253623,40.99822133546112],[-75.16909143418832,40.99821856143326],[-75.16909125361985,40.998215787405506],[-75.16909071365663,40.9982130400933],[-75.16908981949881,40.9982103459547],[-75.16908857975768,40.99820773093576],[-75.16908700637266,40.99820522022052],[-75.16908511449634,40.998202837988536],[-75.16908292234852,40.99820060718198],[-75.16908045104081,40.99819854928472],[-75.16907772437328,40.99819668411543],[-75.1690747686052,40.998195029636676],[-75.16907161220222,40.998193601781985],[-75.1690682855622,40.99819241430236],[-75.1690648207225,40.99819147863386],[-75.16906125105135,40.99819080378748],[-75.16905761092663,40.99819039626235],[-75.16905393540466,40.99819025998317],[-75.1690502598827,40.99819039626235],[-75.16904661975796,40.99819080378748],[-75.16904305008681,40.99819147863386],[-75.1690395852471,40.99819241430236],[-75.1690362586071,40.998193601781985],[-75.16903310220412,40.998195029636676],[-75.16903014643603,40.99819668411543],[-75.1690274197685,40.99819854928472],[-75.1690249484608,40.99820060718198],[-75.16902275631298,40.998202837988536],[-75.16902086443666,40.99820522022052],[-75.16901929105164,40.99820773093576],[-75.1690180513105,40.9982103459547],[-75.1690171571527,40.9982130400933],[-75.16901661718947,40.998215787405506],[-75.16901643662099,40.99821856143326],[-75.16901661718633,40.99822133546112],[-75.16901715714654,40.99822408277369],[-75.16901805130156,40.99822677691283],[-75.16901929104026,40.998229391932526],[-75.16902086442327,40.99823190264869],[-75.16902275629812,40.99823428488173],[-75.16902494844501,40.99823651568943],[-75.1690274197524,40.99823857358787],[-75.16903014642024,40.99824043875836],[-75.16903310218925,40.99824209323825],[-75.16903625859372,40.99824352109399],[-75.16903958523572,40.99824470857453],[-75.16904305007787,40.99824564424378],[-75.1690466197518,40.998246319090725],[-75.16905025987955,40.99824672661619],[-75.16905393540466,40.99824686289549]]]}},{"type":"Feature","properties":{},"geometry":{"type":"Polygon","coordinates":[[[-75.1708862181152,40.99948531661873],[-75.1708898946988,40.99948518030274],[-75.17089353587485,40.99948477266758],[-75.17089710657679,40.99948409763897],[-75.17090057241676,40.99948316171785],[-75.17090390001678,40.99948197391764],[-75.17090705733025,40.99948054567754],[-75.17091001395046,40.999478890752265],[-75.17091274140355,40.999477025079706],[-75.17091521342263,40.9994749666273],[-75.17091740620083,40.999472735219086],[-75.17091929862052,40.99947035234478],[-75.17092087245663,40.999467840952754],[-75.17092211255235,40.99946522522913],[-75.17092300696488,40.99946253036474],[-75.17092354708059,40.99945978231262],[-75.17092372769791,40.99945700753801],[-75.17092354707745,40.99945423276354],[-75.17092300695872,40.999451484711756],[-75.1709221125434,40.99944878984794],[-75.17092087244525,40.999446174125055],[-75.17091929860712,40.99944366273396],[-75.17091740618596,40.999441279860704],[-75.17091521340684,40.999439048453624],[-75.17091274138744,40.99943699000241],[-75.17091001393466,40.99943512433103],[-75.17090705731538,40.99943346940691],[-75.1709039000034,40.99943204116785],[-75.17090057240536,40.999430853368565],[-75.17089710656784,40.9994299174482],[-75.17089353586867,40.999429242420156],[-75.17088989469566,40.999428834785334],[-75.1708862181152,40.99942869846946],[-75.17088254153474,40.999428834785334],[-75.17087890036171,40.999429242420156],[-75.17087532966256,40.9994299174482],[-75.17087186382504,40.999430853368565],[-75.170868536227,40.99943204116785],[-75.17086537891502,40.99943346940691],[-75.17086242229574,40.99943512433103],[-75.17085969484296,40.99943699000241],[-75.17085722282357,40.999439048453624],[-75.17085503004444,40.999441279860704],[-75.17085313762328,40.99944366273396],[-75.17085156378515,40.999446174125055],[-75.170850323687,40.99944878984794],[-75.17084942927168,40.999451484711756],[-75.17084888915296,40.99945423276354],[-75.17084870853247,40.99945700753801],[-75.17084888914981,40.99945978231262],[-75.17084942926552,40.99946253036474],[-75.17085032367805,40.99946522522913],[-75.17085156377377,40.999467840952754],[-75.17085313760988,40.99947035234478],[-75.17085503002957,40.999472735219086],[-75.17085722280775,40.9994749666273],[-75.17085969482685,40.999477025079706],[-75.17086242227994,40.999478890752265],[-75.17086537890015,40.99948054567754],[-75.1708685362136,40.99948197391764],[-75.17087186381364,40.99948316171785],[-75.17087532965361,40.99948409763897],[-75.17087890035555,40.99948477266758],[-75.17088254153158,40.99948518030274],[-75.1708862181152,40.99948531661873]]]}}]}