{"type":"FeatureCollection","features":[{"type":"Feature","properties":{},"geometry":{"type":"Polygon","coordinates":[[[-75.17702744359073,40.99549460093321],[-75.17702839937053,40.99549456549381],[-75.17702934594563,40.995494459516905],[-75.17703027419999,40.99549428402314],[-75.17703117519406,40.995494040702575],[-75.17703204025072,40.99549373189854],[-75.17703286103902,40.995493360585],[-75.17703362965435,40.99549293033788],[-75.17703433869444,40.99549244530072],[-75.17703498133092,40.99549191014469],[-75.17703555137483,40.995491330023626],[-75.17703604333632,40.99549071052443],[-75.17703645247755,40.995490057613196],[-75.17703677485827,40.99548937757783],[-75.17703700737377,40.99548867696745],[-75.17703714778482,40.9954879625293],[-75.17703719473914,40.99548724114383],[-75.17703714778459,40.995486519758366],[-75.17703700737336,40.995485805320236],[-75.17703677485767,40.99548510470989],[-75.17703645247678,40.995484424674586],[-75.17703604333542,40.99548377176342],[-75.17703555137382,40.995483152264285],[-75.17703498132985,40.9954825721433],[-75.17703433869336,40.995482036987354],[-75.17703362965327,40.99548155195027],[-75.17703286103801,40.99548112170323],[-75.17703204024981,40.99548075038976],[-75.17703117519329,40.99548044158579],[-75.1770302741994,40.99548019826528],[-75.1770293459452,40.99548002277153],[-75.17702839937031,40.99547991679466],[-75.17702744359073,40.995479881355266],[-75.17702648781115,40.99547991679466],[-75.17702554123626,40.99548002277153],[-75.17702461298207,40.99548019826528],[-75.17702371198817,40.99548044158579],[-75.17702284693165,40.99548075038976],[-75.17702202614345,40.99548112170323],[-75.1770212575282,40.99548155195027],[-75.1770205484881,40.995482036987354],[-75.17701990585162,40.9954825721433],[-75.17701933580764,40.995483152264285],[-75.17701884384606,40.99548377176342],[-75.17701843470469,40.995484424674586],[-75.17701811232381,40.99548510470989],[-75.1770178798081,40.995485805320236],[-75.17701773939687,40.995486519758366],[-75.17701769244232,40.99548724114383],[-75.17701773939666,40.9954879625293],[-75.1770178798077,40.99548867696745],[-75.1770181123232,40.99548937757783],[-75.17701843470391,40.995490057613196],[-75.17701884384515,40.99549071052443],[-75.17701933580665,40.995491330023626],[-75.17701990585054,40.99549191014469],[-75.17702054848704,40.99549244530072],[-75.17702125752713,40.99549293033788],[-75.17702202614244,40.995493360585],[-75.17702284693074,40.99549373189854],[-75.1770237119874,40.995494040702575],[-75.17702461298147,40.99549428402314],[-75.17702554123584,40.995494459516905],[-75.17702648781095,40.99549456549381],[-75.17702744359073,40.99549460093321]]]}},{"type":"Feature","properties":{},"geometry":{"type":"Polygon","coordinates":[[[-75.17688133060126,40.99528073858427],[-75.17688222972289,40.9952807052456],[-75.17688312018551,40.99528060555064],[-75.17688399341343,40.9952804404595],[-75.17688484099702,40.995280211562125],[-75.17688565477356,40.9952799210629],[-75.17688642690595,40.995279571759504],[-75.17688714995812,40.99527916701591],[-75.17688781696668,40.995278710730034],[-75.17688842150801,40.995278207296145],[-75.17688895776,40.995277661562604],[-75.17688942055828,40.99527707878512],[-75.17688980544582,40.99527646457615],[-75.17689010871598,40.995275824850864],[-75.17689032744809,40.995275165770174],[-75.17689045953564,40.99527449368138],[-75.17689050370656,40.99527381505708],[-75.17689045953544,40.99527313643277],[-75.17689032744772,40.99527246434401],[-75.17689010871545,40.99527180526334],[-75.17688980544516,40.995271165538114],[-75.17688942055747,40.99527055132919],[-75.1768889577591,40.99526996855177],[-75.17688842150707,40.995269422818296],[-75.17688781696573,40.99526891938448],[-75.17688714995718,40.99526846309867],[-75.17688642690506,40.99526805835515],[-75.17688565477276,40.99526770905181],[-75.17688484099634,40.99526741855264],[-75.1768839934129,40.99526718965531],[-75.17688312018514,40.99526702456421],[-75.17688222972272,40.99526692486927],[-75.17688133060126,40.9952668915306],[-75.1768804314798,40.99526692486927],[-75.17687954101737,40.99526702456421],[-75.17687866778962,40.99526718965531],[-75.17687782020617,40.99526741855264],[-75.17687700642976,40.99526770905181],[-75.17687623429745,40.99526805835515],[-75.17687551124534,40.99526846309867],[-75.17687484423678,40.99526891938448],[-75.17687423969545,40.995269422818296],[-75.1768737034434,40.99526996855177],[-75.17687324064504,40.99527055132919],[-75.17687285575737,40.995271165538114],[-75.17687255248705,40.99527180526334],[-75.17687233375479,40.99527246434401],[-75.17687220166707,40.99527313643277],[-75.17687215749596,40.99527381505708],[-75.17687220166688,40.99527449368138],[-75.17687233375442,40.995275165770174],[-75.17687255248651,40.995275824850864],[-75.17687285575668,40.99527646457615],[-75.17687324064424,40.99527707878512],[-75.17687370344251,40.995277661562604],[-75.1768742396945,40.995278207296145],[-75.17687484423583,40.995278710730034],[-75.17687551124438,40.99527916701591],[-75.17687623429656,40.995279571759504],[-75.17687700642895,40.9952799210629],[-75.1768778202055,40.995280211562125],[-75.17687866778908,40.9952804404595],[-75.176879541017,40.99528060555064],[-75.17688043147962,40.9952807052456],[-75.17688133060126,40.99528073858427]]]}},{"type":"Feature","properties":{},"geometry":{"type":"Polygon","coordinates":[[[-75.17686812279292,40.99484032833881],[-75.17686903373827,40.99484029456149],[-75.17686993591073,40.99484019355483],[-75.17687082062184,40.9948400262916],[-75.1768716793514,40.99483979438259],[-75.17687250382933,40.99483950006126],[-75.17687328611548,40.99483914616205],[-75.176874018676,40.99483873609322],[-75.17687469445593,40.994838273803964],[-75.17687530694712,40.994837763746375],[-75.176875850251,40.994837210832586],[-75.1768763191352,40.99483662038745],[-75.17687670908413,40.9948359980973],[-75.17687701634237,40.99483534995512],[-75.17687723795086,40.99483468220287],[-75.1768773717754,40.99483400127137],[-75.17687741652716,40.99483331371836],[-75.1768773717752,40.99483262616536],[-75.17687723795049,40.99483194523389],[-75.17687701634182,40.99483127748167],[-75.17687670908343,40.99483062933953],[-75.17687631913438,40.99483000704943],[-75.17687585025008,40.99482941660437],[-75.17687530694617,40.99482886369065],[-75.17687469445494,40.99482835363312],[-75.17687401867504,40.994827891343945],[-75.17687328611457,40.99482748127519],[-75.17687250382852,40.99482712737605],[-75.1768716793507,40.994826833054766],[-75.17687082062129,40.99482660114581],[-75.17686993591035,40.99482643388261],[-75.17686903373809,40.99482633287597],[-75.17686812279292,40.99482629909866],[-75.17686721184776,40.99482633287597],[-75.1768663096755,40.99482643388261],[-75.17686542496455,40.99482660114581],[-75.17686456623515,40.994826833054766],[-75.17686374175733,40.99482712737605],[-75.17686295947128,40.99482748127519],[-75.17686222691081,40.994827891343945],[-75.1768615511309,40.99482835363312],[-75.17686093863968,40.99482886369065],[-75.17686039533577,40.99482941660437],[-75.17685992645147,40.99483000704943],[-75.17685953650242,40.99483062933953],[-75.17685922924402,40.99483127748167],[-75.17685900763536,40.99483194523389],[-75.17685887381063,40.99483262616536],[-75.17685882905867,40.99483331371836],[-75.17685887381045,40.99483400127137],[-75.17685900763497,40.99483468220287],[-75.17685922924346,40.99483534995512],[-75.17685953650172,40.9948359980973],[-75.17685992645065,40.99483662038745],[-75.17686039533486,40.994837210832586],[-75.17686093863873,40.994837763746375],[-75.1768615511299,40.994838273803964],[-75.17686222690985,40.99483873609322],[-75.17686295947037,40.99483914616205],[-75.17686374175652,40.99483950006126],[-75.17686456623446,40.99483979438259],[-75.176865424964,40.9948400262916],[-75.17686630967512,40.99484019355483],[-75.17686721184756,40.99484029456149],[-75.17686812279292,40.99484032833881]]]}},{"type":"Feature","properties":{},"geometry":{"type":"Polygon","coordinates":[[[-75.17673365201611,40.99482339225946],[-75.17673458445798,40.994823357685064],[-75.1767355079199,40.99482325429481],[-75.17673641350845,40.99482308308445],[-75.17673729250231,40.99482284570279],[-75.17673813643628,40.994822544435976],[-75.17673893718283,40.99482218218536],[-75.17673968703033,40.99482176243962],[-75.17674037875733,40.99482128924113],[-75.1767410057021,40.994820767147054],[-75.17674156182687,40.99482020118545],[-75.1767420417758,40.994819596806835],[-75.17674244092674,40.9948189598317],[-75.17674275543567,40.99481829639447],[-75.17674298227368,40.99481761288441],[-75.17674311925622,40.9948169158841],[-75.17674316506404,40.994816212106045],[-75.176743119256,40.994815508327974],[-75.17674298227328,40.99481481132768],[-75.17674275543509,40.99481412781767],[-75.176742440926,40.994813464380485],[-75.17674204177493,40.99481282740541],[-75.17674156182589,40.99481222302687],[-75.17674100570109,40.994811657065334],[-75.17674037875629,40.99481113497133],[-75.17673968702931,40.99481066177292],[-75.17673893718188,40.99481024202725],[-75.17673813643543,40.9948098797767],[-75.17673729250157,40.994809578509944],[-75.17673641350787,40.99480934112834],[-75.1767355079195,40.99480916991801],[-75.17673458445778,40.99480906652778],[-75.17673365201611,40.994809031953395],[-75.17673271957446,40.99480906652778],[-75.17673179611273,40.99480916991801],[-75.17673089052435,40.99480934112834],[-75.17673001153065,40.994809578509944],[-75.17672916759679,40.9948098797767],[-75.17672836685036,40.99481024202725],[-75.17672761700292,40.99481066177292],[-75.17672692527593,40.99481113497133],[-75.17672629833115,40.994811657065334],[-75.17672574220633,40.99481222302687],[-75.17672526225729,40.99481282740541],[-75.17672486310622,40.994813464380485],[-75.17672454859714,40.99481412781767],[-75.17672432175894,40.99481481132768],[-75.17672418477623,40.994815508327974],[-75.1767241389682,40.994816212106045],[-75.17672418477602,40.9948169158841],[-75.17672432175856,40.99481761288441],[-75.17672454859657,40.99481829639447],[-75.17672486310549,40.9948189598317],[-75.17672526225644,40.994819596806835],[-75.17672574220536,40.99482020118545],[-75.17672629833012,40.994820767147054],[-75.1767269252749,40.99482128924113],[-75.1767276170019,40.99482176243962],[-75.1767283668494,40.99482218218536],[-75.17672916759594,40.994822544435976],[-75.17673001152993,40.99482284570279],[-75.17673089052379,40.99482308308445],[-75.17673179611234,40.99482325429481],[-75.17673271957426,40.994823357685064],[-75.17673365201611,40.99482339225946]]]}},{"type":"Feature","properties":{},"geometry":{"type":"Polygon","coordinates":[[[-75.17661936332259,40.994845848238135],[-75.1766203586405,40.99484581133233],[-75.17662134437296,40.99484570097035],[-75.1766223110268,40.99484551821506],[-75.17662324929265,40.994845264826466],[-75.17662415013446,40.99484494324484],[-75.17662500487663,40.99484455656722],[-75.17662580528754,40.9948441085175],[-75.1766265436588,40.99484360341064],[-75.17662721287948,40.99484304611111],[-75.17662780650461,40.994842441985995],[-75.17662831881727,40.99484179685336],[-75.17662874488359,40.9948411169262],[-75.17662908060036,40.99484040875258],[-75.17662932273441,40.994839679152584],[-75.17662946895389,40.994838935152664],[-75.17662951785061,40.99483818391796],[-75.17662946895366,40.99483743268326],[-75.17662932273397,40.99483668868337],[-75.17662908059971,40.994835959083424],[-75.17662874488278,40.99483525090985],[-75.17662831881628,40.99483457098276],[-75.17662780650352,40.99483392585021],[-75.17662721287832,40.99483332172519],[-75.17662654365762,40.99483276442574],[-75.17662580528639,40.99483225931896],[-75.17662500487553,40.99483181126932],[-75.17662415013346,40.99483142459177],[-75.17662324929181,40.99483110301022],[-75.17662231102615,40.99483084962168],[-75.17662134437252,40.99483066686642],[-75.17662035864028,40.994830556504475],[-75.17661936332259,40.99483051959868],[-75.17661836800492,40.994830556504475],[-75.17661738227267,40.99483066686642],[-75.17661641561904,40.99483084962168],[-75.17661547735337,40.99483110301022],[-75.17661457651171,40.99483142459177],[-75.17661372176964,40.99483181126932],[-75.1766129213588,40.99483225931896],[-75.17661218298757,40.99483276442574],[-75.17661151376687,40.99483332172519],[-75.17661092014167,40.99483392585021],[-75.17661040782889,40.99483457098276],[-75.17660998176243,40.99483525090985],[-75.17660964604548,40.994835959083424],[-75.17660940391121,40.99483668868337],[-75.17660925769152,40.99483743268326],[-75.17660920879457,40.99483818391796],[-75.1766092576913,40.994838935152664],[-75.17660940391077,40.994839679152584],[-75.17660964604482,40.99484040875258],[-75.17660998176159,40.9948411169262],[-75.17661040782792,40.99484179685336],[-75.17661092014058,40.994842441985995],[-75.1766115137657,40.99484304611111],[-75.17661218298639,40.99484360341064],[-75.17661292135764,40.9948441085175],[-75.17661372176855,40.99484455656722],[-75.17661457651074,40.99484494324484],[-75.17661547735254,40.994845264826466],[-75.17661641561838,40.99484551821506],[-75.17661738227223,40.99484570097035],[-75.17661836800468,40.99484581133233],[-75.17661936332259,40.994845848238135]]]}},{"type":"Feature","properties":{},"geometry":{"type":"Polygon","coordinates":[[[-75.1762391950673,40.9949323351425],[-75.17624013409812,40.99493230032383],[-75.17624106408554,40.99493219620318],[-75.17624197607331,40.994932023783264],[-75.17624286127847,40.994931784724585],[-75.17624371117599,40.99493148132942],[-75.17624451758088,40.9949311165196],[-75.17624527272707,40.99493069380849],[-75.17624596934206,40.994930217267],[-75.17624660071705,40.994929691484494],[-75.17624716077157,40.994929121524535],[-75.176247644112,40.994928512876164],[-75.1762480460835,40.99492787140101],[-75.17624836281485,40.994927203276795],[-75.17624859125577,40.99492651493795],[-75.17624872920626,40.99492581301355],[-75.1762487753378,40.9949251042635],[-75.17624872920607,40.99492439551346],[-75.17624859125537,40.99492369358909],[-75.17624836281426,40.99492300525028],[-75.17624804608275,40.99492233712611],[-75.17624764411113,40.99492169565101],[-75.1762471607706,40.994921087002716],[-75.17624660071601,40.994920517042836],[-75.176245969341,40.9949199912604],[-75.17624527272604,40.994919514718994],[-75.17624451757992,40.994919092007954],[-75.1762437111751,40.99491872719821],[-75.17624286127771,40.99491842380311],[-75.17624197607273,40.99491818474446],[-75.17624106408515,40.99491801232458],[-75.17624013409791,40.994917908203945],[-75.1762391950673,40.9949178733853],[-75.17623825603668,40.994917908203945],[-75.17623732604943,40.99491801232458],[-75.17623641406186,40.99491818474446],[-75.17623552885688,40.99491842380311],[-75.17623467895949,40.99491872719821],[-75.17623387255468,40.994919092007954],[-75.17623311740854,40.994919514718994],[-75.17623242079358,40.9949199912604],[-75.17623178941858,40.994920517042836],[-75.17623122936398,40.994921087002716],[-75.17623074602346,40.99492169565101],[-75.17623034405185,40.99492233712611],[-75.17623002732033,40.99492300525028],[-75.1762297988792,40.99492369358909],[-75.17622966092851,40.99492439551346],[-75.1762296147968,40.9949251042635],[-75.17622966092831,40.99492581301355],[-75.17622979887881,40.99492651493795],[-75.17623002731973,40.994927203276795],[-75.17623034405109,40.99492787140101],[-75.17623074602258,40.994928512876164],[-75.17623122936303,40.994929121524535],[-75.17623178941754,40.994929691484494],[-75.17623242079253,40.994930217267],[-75.17623311740752,40.99493069380849],[-75.1762338725537,40.9949311165196],[-75.17623467895861,40.99493148132942],[-75.17623552885613,40.994931784724585],[-75.17623641406126,40.994932023783264],[-75.17623732604903,40.99493219620318],[-75.17623825603647,40.99493230032383],[-75.1762391950673,40.9949323351425]]]}},{"type":"Feature","properties":{},"geometry":{"type":"Polygon","coordinates":[[[-75.17652626289878,40.9945098561355],[-75.1765271748289,40.994509822321504],[-75.17652807797663,40.99450972120515],[-75.17652896364415,40.99450955376024],[-75.176529823302,40.99450932159939],[-75.17653064867125,40.99450902695839],[-75.17653143180306,40.99450867267484],[-75.1765321651555,40.99450826216065],[-75.17653284166596,40.99450779936934],[-75.17653345481929,40.994507288757795],[-75.1765339987105,40.994506735243505],[-75.17653446810158,40.99450614415713],[-75.17653485847205,40.99450552119114],[-75.17653516606245,40.994504872345026],[-75.1765353879105,40.994504203867564],[-75.17653552187971,40.994503522196545],[-75.17653556667987,40.994502833896824],[-75.17653552187952,40.9945021455971],[-75.17653538791012,40.994501463926106],[-75.1765351660619,40.99450079544868],[-75.17653485847134,40.99450014660262],[-75.17653446810074,40.994499523636684],[-75.17653399870957,40.99449893255037],[-75.17653345481833,40.99449837903616],[-75.17653284166498,40.99449786842469],[-75.17653216515454,40.99449740563343],[-75.17653143180215,40.99449699511932],[-75.17653064867042,40.994496640835834],[-75.17652982330131,40.9944963461949],[-75.1765289636436,40.99449611403409],[-75.17652807797623,40.994495946589225],[-75.1765271748287,40.99449584547289],[-75.17652626289878,40.994495811658894],[-75.17652535096886,40.99449584547289],[-75.17652444782132,40.994495946589225],[-75.17652356215396,40.99449611403409],[-75.17652270249626,40.9944963461949],[-75.17652187712714,40.994496640835834],[-75.17652109399542,40.99449699511932],[-75.17652036064302,40.99449740563343],[-75.17651968413259,40.99449786842469],[-75.17651907097924,40.99449837903616],[-75.17651852708799,40.99449893255037],[-75.17651805769682,40.994499523636684],[-75.17651766732622,40.99450014660262],[-75.17651735973567,40.99450079544868],[-75.17651713788744,40.994501463926106],[-75.17651700391805,40.9945021455971],[-75.17651695911769,40.994502833896824],[-75.17651700391785,40.994503522196545],[-75.17651713788706,40.994504203867564],[-75.17651735973512,40.994504872345026],[-75.17651766732551,40.99450552119114],[-75.17651805769599,40.99450614415713],[-75.17651852708707,40.994506735243505],[-75.17651907097827,40.994507288757795],[-75.17651968413159,40.99450779936934],[-75.17652036064206,40.99450826216065],[-75.1765210939945,40.99450867267484],[-75.17652187712632,40.99450902695839],[-75.17652270249556,40.99450932159939],[-75.17652356215342,40.99450955376024],[-75.17652444782094,40.99450972120515],[-75.17652535096866,40.994509822321504],[-75.17652626289878,40.9945098561355]]]}},{"type":"Feature","properties":{},"geometry":{"type":"Polygon","coordinates":[[[-75.17658817832768,40.99373175578307],[-75.17658914321153,40.99373172000514],[-75.176590098803,40.99373161301592],[-75.17659103589926,40.99373143584578],[-75.17659194547552,40.993731190200954],[-75.1765928187721,40.99373087844714],[-75.17659364737861,40.99373050358671],[-75.1765944233152,40.99373006922978],[-75.1765951391091,40.99372957955941],[-75.17659578786686,40.993729039291416],[-75.17659636334058,40.99372845362889],[-75.17659685998814,40.99372782821207],[-75.17659727302654,40.99372716906405],[-75.17659759847803,40.99372648253283],[-75.1765978332083,40.99372577523002],[-75.17659797495679,40.99372505396737],[-75.17659802235838,40.99372432569104],[-75.17659797495656,40.993723597414714],[-75.17659783320788,40.99372287615209],[-75.17659759847741,40.99372216884932],[-75.17659727302578,40.993721482318136],[-75.17659685998723,40.99372082317019],[-75.17659636333956,40.99372019775344],[-75.17659578786576,40.993719612090985],[-75.17659513910799,40.99371907182309],[-75.1765944233141,40.9937185821528],[-75.1765936473776,40.99371814779594],[-75.17659281877116,40.993717772935575],[-75.17659194547475,40.99371746118184],[-75.17659103589865,40.99371721553706],[-75.17659009880259,40.99371703836695],[-75.1765891432113,40.99371693137776],[-75.17658817832768,40.99371689559984],[-75.17658721344407,40.99371693137776],[-75.17658625785278,40.99371703836695],[-75.17658532075671,40.99371721553706],[-75.17658441118061,40.99371746118184],[-75.1765835378842,40.993717772935575],[-75.17658270927777,40.99371814779594],[-75.17658193334127,40.9937185821528],[-75.17658121754738,40.99371907182309],[-75.1765805687896,40.993719612090985],[-75.17657999331581,40.99372019775344],[-75.17657949666814,40.99372082317019],[-75.1765790836296,40.993721482318136],[-75.17657875817795,40.99372216884932],[-75.1765785234475,40.99372287615209],[-75.1765783816988,40.993723597414714],[-75.17657833429699,40.99372432569104],[-75.17657838169859,40.99372505396737],[-75.17657852344706,40.99372577523002],[-75.17657875817734,40.99372648253283],[-75.17657908362882,40.99372716906405],[-75.17657949666723,40.99372782821207],[-75.17657999331479,40.99372845362889],[-75.17658056878851,40.993729039291416],[-75.17658121754627,40.99372957955941],[-75.17658193334017,40.99373006922978],[-75.17658270927674,40.99373050358671],[-75.17658353788327,40.99373087844714],[-75.17658441117985,40.993731190200954],[-75.1765853207561,40.99373143584578],[-75.17658625785236,40.99373161301592],[-75.17658721344384,40.99373172000514],[-75.17658817832768,40.99373175578307]]]}},{"type":"Feature","properties":{},"geometry":{"type":"Polygon","coordinates":[[[-75.17582879147098,40.99400256295774],[-75.17582978499375,40.99400252611804],[-75.17583076894836,40.99400241595369],[-75.17583173385879,40.99400223352568],[-75.17583267043238,40.99400198059085],[-75.17583356964946,40.99400165958513],[-75.17583442285003,40.99400127359996],[-75.17583522181734,40.99400082635262],[-75.17583595885688,40.9940003221503],[-75.17583662687056,40.99399976584879],[-75.17583721942505,40.99399916280555],[-75.17583773081371,40.993998518828235],[-75.17583815611161,40.9939978401187],[-75.17583849122288,40.99399713321328],[-75.17583873292023,40.993996404919855],[-75.17583887887598,40.9939956622523],[-75.1758389276845,40.993994912362915],[-75.17583887887575,40.993994162473534],[-75.17583873291979,40.99399341980601],[-75.17583849122222,40.99399269151263],[-75.17583815611077,40.99399198460726],[-75.17583773081275,40.99399130589779],[-75.17583721942397,40.99399066192054],[-75.17583662686941,40.993990058877394],[-75.17583595885571,40.99398950257597],[-75.17583522181619,40.993988998373744],[-75.17583442284894,40.99398855112648],[-75.17583356964846,40.99398816514139],[-75.17583267043155,40.99398784413573],[-75.17583173385812,40.99398759120096],[-75.17583076894792,40.99398740877299],[-75.17582978499352,40.99398729860868],[-75.17582879147098,40.99398726176898],[-75.17582779794843,40.99398729860868],[-75.17582681399405,40.99398740877299],[-75.17582584908385,40.99398759120096],[-75.17582491251042,40.99398784413573],[-75.1758240132935,40.99398816514139],[-75.17582316009302,40.99398855112648],[-75.17582236112577,40.993988998373744],[-75.17582162408625,40.99398950257597],[-75.17582095607256,40.993990058877394],[-75.17582036351799,40.99399066192054],[-75.17581985212922,40.99399130589779],[-75.17581942683118,40.99399198460726],[-75.17581909171975,40.99399269151263],[-75.17581885002218,40.99399341980601],[-75.1758187040662,40.993994162473534],[-75.17581865525747,40.993994912362915],[-75.17581870406597,40.9939956622523],[-75.17581885002173,40.993996404919855],[-75.17581909171908,40.99399713321328],[-75.17581942683036,40.9939978401187],[-75.17581985212824,40.993998518828235],[-75.17582036351692,40.99399916280555],[-75.17582095607139,40.99399976584879],[-75.17582162408507,40.9940003221503],[-75.17582236112462,40.99400082635262],[-75.17582316009192,40.99400127359996],[-75.17582401329251,40.99400165958513],[-75.17582491250958,40.99400198059085],[-75.17582584908317,40.99400223352568],[-75.1758268139936,40.99400241595369],[-75.1758277979482,40.99400252611804],[-75.17582879147098,40.99400256295774]]]}},{"type":"Feature","properties":{},"geometry":{"type":"Polygon","coordinates":[[[-75.17555867485106,40.994423902941065],[-75.17555973442343,40.99442386365249],[-75.17556078379157,40.99442374616516],[-75.17556181284942,40.99442355161053],[-75.17556281168663,40.99442328186227],[-75.17556377068385,40.994422939518195],[-75.17556468060538,40.994422527875294],[-75.17556553268821,40.99442205089788],[-75.1755663187263,40.994421513179525],[-75.17556703114965,40.99442091989876],[-75.1755676630973,40.99442027676919],[-75.17556820848317,40.99441958998452],[-75.17556866205496,40.99441886615883],[-75.17556901944448,40.994418112263006],[-75.17556927720992,40.99441733555744],[-75.17556943286883,40.99441654352226],[-75.17556948492214,40.994415743785176],[-75.17556943286856,40.9944149440481],[-75.1755692772094,40.99441415201295],[-75.17556901944374,40.99441337530743],[-75.17556866205399,40.99441262141166],[-75.17556820848205,40.99441189758607],[-75.17556766309606,40.99441121080147],[-75.17556703114835,40.994410567672],[-75.17556631872496,40.99440997439133],[-75.1755655326869,40.99440943667307],[-75.17556468060414,40.99440895969576],[-75.17556377068273,40.99440854805294],[-75.1755628116857,40.994408205708936],[-75.17556181284868,40.994407935960744],[-75.17556078379106,40.994407741406164],[-75.17555973442319,40.99440762391886],[-75.17555867485106,40.994407584630295],[-75.17555761527893,40.99440762391886],[-75.17555656591107,40.994407741406164],[-75.17555553685344,40.994407935960744],[-75.17555453801643,40.994408205708936],[-75.1755535790194,40.99440854805294],[-75.17555266909797,40.99440895969576],[-75.17555181701522,40.99440943667307],[-75.17555103097716,40.99440997439133],[-75.17555031855377,40.994410567672],[-75.17554968660606,40.99441121080147],[-75.17554914122006,40.99441189758607],[-75.17554868764812,40.99441262141166],[-75.17554833025838,40.99441337530743],[-75.17554807249272,40.99441415201295],[-75.17554791683357,40.9944149440481],[-75.17554786477997,40.994415743785176],[-75.17554791683328,40.99441654352226],[-75.1755480724922,40.99441733555744],[-75.17554833025764,40.994418112263006],[-75.17554868764717,40.99441886615883],[-75.17554914121895,40.99441958998452],[-75.17554968660482,40.99442027676919],[-75.17555031855245,40.99442091989876],[-75.17555103097583,40.994421513179525],[-75.17555181701391,40.99442205089788],[-75.17555266909673,40.994422527875294],[-75.17555357901827,40.994422939518195],[-75.17555453801548,40.99442328186227],[-75.17555553685268,40.99442355161053],[-75.17555656591055,40.99442374616516],[-75.17555761527868,40.99442386365249],[-75.17555867485106,40.994423902941065]]]}},{"type":"Feature","properties":{},"geometry":{"type":"Polygon","coordinates":[[[-75.17620298503103,40.99450981845845],[-75.1762040297757,40.99450977971973],[-75.17620506445894,40.99450966387667],[-75.17620607911613,40.9945094720449],[-75.17620706397557,40.99450920607185],[-75.17620800955254,40.99450886851899],[-75.1762089067406,40.99450846263716],[-75.17620974689935,40.9945079923352],[-75.17621052193758,40.994507462142394],[-75.17621122439128,40.99450687716478],[-75.1762118474954,40.99450624303602],[-75.17621238524913,40.994505565863115],[-75.17621283247362,40.99450485216762],[-75.17621318486182,40.99450410882281],[-75.17621343902007,40.9945033429875],[-75.17621359250069,40.99450256203709],[-75.17621364382556,40.99450177349259],[-75.17621359250045,40.9945009849481],[-75.17621343901958,40.99450020399772],[-75.1762131848611,40.99449943816246],[-75.17621283247269,40.9944986948177],[-75.17621238524805,40.99449798112227],[-75.1762118474942,40.99449730394945],[-75.17621122438999,40.99449666982078],[-75.17621052193628,40.99449608484326],[-75.17620974689807,40.99449555465057],[-75.1762089067394,40.994495084348706],[-75.17620800955146,40.99449467846694],[-75.17620706397464,40.99449434091417],[-75.17620607911539,40.99449407494118],[-75.17620506445844,40.99449388310945],[-75.17620402977546,40.99449376726642],[-75.17620298503103,40.994493728527715],[-75.1762019402866,40.99449376726642],[-75.17620090560361,40.99449388310945],[-75.17619989094666,40.99449407494118],[-75.17619890608741,40.99449434091417],[-75.17619796051059,40.99449467846694],[-75.17619706332266,40.994495084348706],[-75.176196223164,40.99449555465057],[-75.17619544812578,40.99449608484326],[-75.17619474567206,40.99449666982078],[-75.17619412256786,40.99449730394945],[-75.17619358481402,40.99449798112227],[-75.17619313758938,40.9944986948177],[-75.17619278520095,40.99449943816246],[-75.17619253104249,40.99450020399772],[-75.17619237756162,40.9945009849481],[-75.17619232623649,40.99450177349259],[-75.17619237756136,40.99450256203709],[-75.17619253104199,40.9945033429875],[-75.17619278520024,40.99450410882281],[-75.17619313758844,40.99450485216762],[-75.17619358481294,40.994505565863115],[-75.17619412256667,40.99450624303602],[-75.17619474567078,40.99450687716478],[-75.17619544812449,40.994507462142394],[-75.17619622316272,40.9945079923352],[-75.17619706332147,40.99450846263716],[-75.17619796050953,40.99450886851899],[-75.17619890608648,40.99450920607185],[-75.17619989094594,40.9945094720449],[-75.17620090560311,40.99450966387667],[-75.17620194028635,40.99450977971973],[-75.17620298503103,40.99450981845845]]]}},{"type":"Feature","properties":{},"geometry":{"type":"Polygon","coordinates":[[[-75.17587953226716,40.99528699419106],[-75.17588061650133,40.99528695398856],[-75.17588169029372,40.99528683376826],[-75.17588274330312,40.99528663468794],[-75.1758837653885,40.99528635866484],[-75.17588474670657,40.99528600835721],[-75.17588567780673,40.99528558713875],[-75.17588654972197,40.99528509906597],[-75.17588735405525,40.995284548839315],[-75.17588808306043,40.995283941757755],[-75.17588872971677,40.99528328366782],[-75.17588928779662,40.99528258090727],[-75.17588975192538,40.9952818402441],[-75.17589011763324,40.99528106881128],[-75.1758903813982,40.99528027403814],[-75.17589054068011,40.99527946357877],[-75.17589059394497,40.99527864523834],[-75.17589054067983,40.995277826897926],[-75.17589038139766,40.99527701643859],[-75.17589011763245,40.99527622166549],[-75.1758897519244,40.99527545023273],[-75.17588928779547,40.995274709569635],[-75.17588872971548,40.99527400680918],[-75.17588808305905,40.99527334871935],[-75.17588735405386,40.9952727416379],[-75.17588654972059,40.99527219141134],[-75.17588567780543,40.995271703338666],[-75.1758847467054,40.995271282120285],[-75.17588376538751,40.99527093181275],[-75.17588274330235,40.99527065578971],[-75.1758816902932,40.995270456709434],[-75.17588061650106,40.99527033648915],[-75.17587953226716,40.99527029628668],[-75.17587844803327,40.99527033648915],[-75.17587737424115,40.995270456709434],[-75.17587632123198,40.99527065578971],[-75.17587529914684,40.99527093181275],[-75.17587431782893,40.995271282120285],[-75.17587338672891,40.995271703338666],[-75.17587251481375,40.99527219141134],[-75.1758717104805,40.9952727416379],[-75.17587098147528,40.99527334871935],[-75.17587033481885,40.99527400680918],[-75.17586977673888,40.995274709569635],[-75.17586931260995,40.99527545023273],[-75.17586894690189,40.99527622166549],[-75.17586868313667,40.99527701643859],[-75.1758685238545,40.995277826897926],[-75.17586847058936,40.99527864523834],[-75.17586852385423,40.99527946357877],[-75.17586868313614,40.99528027403814],[-75.1758689469011,40.99528106881128],[-75.17586931260895,40.9952818402441],[-75.17586977673771,40.99528258090727],[-75.17587033481756,40.99528328366782],[-75.1758709814739,40.995283941757755],[-75.17587171047909,40.995284548839315],[-75.17587251481237,40.99528509906597],[-75.17587338672762,40.99528558713875],[-75.17587431782776,40.99528600835721],[-75.17587529914584,40.99528635866484],[-75.1758763212312,40.99528663468794],[-75.17587737424061,40.99528683376826],[-75.17587844803302,40.99528695398856],[-75.17587953226716,40.99528699419106]]]}},{"type":"Feature","properties":{},"geometry":{"type":"Polygon","coordinates":[[[-75.17610035512652,40.99552202395484],[-75.17610143936069,40.99552198375249],[-75.17610251315311,40.995521863532616],[-75.17610356616252,40.995521664452994],[-75.1761045882479,40.99552138843088],[-75.176105569566,40.995521038124515],[-75.17610650066617,40.995520616907534],[-75.1761073725814,40.99552012883649],[-75.1761081769147,40.995519578611784],[-75.17610890591988,40.99551897153239],[-75.17610955257624,40.9955183134448],[-75.1761101106561,40.99551761068674],[-75.17611057478486,40.99551687002621],[-75.1761109404927,40.99551609859611],[-75.1761112042577,40.9955153038258],[-75.17611136353959,40.99551449336931],[-75.17611141680446,40.995513675031795],[-75.17611136353932,40.99551285669428],[-75.17611120425715,40.995512046237835],[-75.17611094049192,40.99551125146756],[-75.17611057478386,40.995510480037545],[-75.17611011065493,40.99550973937708],[-75.17610955257494,40.99550903661913],[-75.17610890591851,40.995508378531625],[-75.1761081769133,40.99550777145233],[-75.17610737258002,40.99550722122773],[-75.17610650066487,40.99550673315679],[-75.17610556956483,40.9955063119399],[-75.17610458824691,40.99550596163361],[-75.17610356616176,40.99550568561156],[-75.17610251315257,40.99550548653198],[-75.17610143936044,40.99550536631215],[-75.17610035512652,40.99550532610981],[-75.17609927089262,40.99550536631215],[-75.17609819710049,40.99550548653198],[-75.17609714409132,40.99550568561156],[-75.17609612200614,40.99550596163361],[-75.17609514068823,40.9955063119399],[-75.17609420958819,40.99550673315679],[-75.17609333767302,40.99550722122773],[-75.17609253333976,40.99550777145233],[-75.17609180433455,40.995508378531625],[-75.17609115767812,40.99550903661913],[-75.17609059959814,40.99550973937708],[-75.17609013546918,40.995510480037545],[-75.17608976976112,40.99551125146756],[-75.1760895059959,40.995512046237835],[-75.17608934671374,40.99551285669428],[-75.1760892934486,40.995513675031795],[-75.17608934671347,40.99551449336931],[-75.17608950599538,40.9955153038258],[-75.17608976976035,40.99551609859611],[-75.1760901354682,40.99551687002621],[-75.17609059959696,40.99551761068674],[-75.17609115767682,40.9955183134448],[-75.17609180433318,40.99551897153239],[-75.17609253333836,40.995519578611784],[-75.17609333767166,40.99552012883649],[-75.17609420958689,40.995520616907534],[-75.17609514068707,40.995521038124515],[-75.17609612200516,40.99552138843088],[-75.17609714409053,40.995521664452994],[-75.17609819709995,40.995521863532616],[-75.17609927089235,40.99552198375249],[-75.17610035512652,40.99552202395484]]]}},{"type":"Feature","properties":{},"geometry":{"type":"Polygon","coordinates":[[[-75.17507430050823,40.994923229126904],[-75.17507540015578,40.99492318835267],[-75.17507648921311,40.99492306642265],[-75.17507755719201,40.99492286451109],[-75.17507859380726,40.994922584562524],[-75.17507958907568,40.99492222927301],[-75.1750805334123,40.99492180206417],[-75.1750814177226,40.994921307050255],[-75.17508223349023,40.99492074899854],[-75.17508297285889,40.994920133283365],[-75.17508362870804,40.994919465834386],[-75.1750841947215,40.994918753079524],[-75.17508466544827,40.99491800188299],[-75.175085036355,40.99491721947923],[-75.17508530386964,40.9949164134032],[-75.17508546541588,40.99491559141786],[-75.17508551943796,40.9949147614394],[-75.17508546541559,40.99491393146095],[-75.17508530386908,40.99491310947564],[-75.17508503635419,40.99491230339967],[-75.17508466544726,40.99491152099596],[-75.17508419472031,40.99491076979952],[-75.1750836287067,40.99491005704474],[-75.17508297285747,40.994909389595875],[-75.17508223348878,40.994908773880795],[-75.17508141772119,40.99490821582919],[-75.17508053341095,40.994907720815384],[-75.17507958907449,40.99490729360663],[-75.17507859380625,40.99490693831719],[-75.17507755719122,40.9949066583687],[-75.17507648921256,40.99490645645719],[-75.17507540015549,40.9949063345272],[-75.17507430050823,40.994906293752976],[-75.17507320086096,40.9949063345272],[-75.17507211180389,40.99490645645719],[-75.17507104382524,40.9949066583687],[-75.17507000721021,40.99490693831719],[-75.17506901194197,40.99490729360663],[-75.1750680676055,40.994907720815384],[-75.17506718329527,40.99490821582919],[-75.17506636752768,40.994908773880795],[-75.17506562815899,40.994909389595875],[-75.17506497230976,40.99491005704474],[-75.17506440629614,40.99491076979952],[-75.1750639355692,40.99491152099596],[-75.17506356466225,40.99491230339967],[-75.17506329714737,40.99491310947564],[-75.17506313560087,40.99491393146095],[-75.1750630815785,40.9949147614394],[-75.17506313560058,40.99491559141786],[-75.17506329714682,40.9949164134032],[-75.17506356466146,40.99491721947923],[-75.17506393556818,40.99491800188299],[-75.17506440629495,40.994918753079524],[-75.17506497230842,40.994919465834386],[-75.17506562815757,40.994920133283365],[-75.17506636752623,40.99492074899854],[-75.17506718329386,40.994921307050255],[-75.17506806760416,40.99492180206417],[-75.17506901194078,40.99492222927301],[-75.17507000720919,40.994922584562524],[-75.17507104382445,40.99492286451109],[-75.17507211180335,40.99492306642265],[-75.17507320086068,40.99492318835267],[-75.17507430050823,40.994923229126904]]]}},{"type":"Feature","properties":{},"geometry":{"type":"Polygon","coordinates":[[[-75.17486258867086,40.995357090994766],[-75.17486368831841,40.99535705022081],[-75.17486477737575,40.99535692829159],[-75.17486584535466,40.99535672638137],[-75.17486688196992,40.99535644643464],[-75.17486787723831,40.99535609114746],[-75.17486882157493,40.995355663941424],[-75.17486970588524,40.99535516893078],[-75.17487052165286,40.99535461088273],[-75.17487126102152,40.99535399517159],[-75.17487191687067,40.99535332772701],[-75.17487248288414,40.99535261497683],[-75.17487295361093,40.995351863785245],[-75.17487332451765,40.99535108138663],[-75.17487359203228,40.99535027531591],[-75.17487375357851,40.99534945333598],[-75.17487380760059,40.99534862336298],[-75.17487375357823,40.995347793389996],[-75.17487359203172,40.9953469714101],[-75.17487332451684,40.99534616533943],[-75.1748729536099,40.99534538294088],[-75.17487248288295,40.995344631749376],[-75.17487191686934,40.995343918999296],[-75.17487126102012,40.995343251554814],[-75.17487052165143,40.995342635843784],[-75.17486970588384,40.99534207779584],[-75.17486882157361,40.995341582785294],[-75.17486787723712,40.99534115557936],[-75.17486688196888,40.995340800292254],[-75.17486584535386,40.99534052034559],[-75.17486477737519,40.99534031843543],[-75.17486368831813,40.99534019650624],[-75.17486258867086,40.99534015573229],[-75.1748614890236,40.99534019650624],[-75.17486039996652,40.99534031843543],[-75.17485933198786,40.99534052034559],[-75.17485829537284,40.995340800292254],[-75.1748573001046,40.99534115557936],[-75.17485635576811,40.995341582785294],[-75.17485547145789,40.99534207779584],[-75.17485465569028,40.995342635843784],[-75.17485391632161,40.995343251554814],[-75.17485326047237,40.995343918999296],[-75.17485269445876,40.995344631749376],[-75.1748522237318,40.99534538294088],[-75.17485185282487,40.99534616533943],[-75.17485158531001,40.9953469714101],[-75.17485142376349,40.995347793389996],[-75.17485136974113,40.99534862336298],[-75.1748514237632,40.99534945333598],[-75.17485158530944,40.99535027531591],[-75.17485185282408,40.99535108138663],[-75.1748522237308,40.995351863785245],[-75.17485269445757,40.99535261497683],[-75.17485326047104,40.99535332772701],[-75.1748539163202,40.99535399517159],[-75.17485465568886,40.99535461088273],[-75.17485547145648,40.99535516893078],[-75.17485635576679,40.995355663941424],[-75.1748573001034,40.99535609114746],[-75.1748582953718,40.99535644643464],[-75.17485933198705,40.99535672638137],[-75.17486039996597,40.99535692829159],[-75.17486148902331,40.99535705022081],[-75.17486258867086,40.995357090994766]]]}},{"type":"Feature","properties":{},"geometry":{"type":"Polygon","coordinates":[[[-75.17512273385766,40.996137318062],[-75.17512379883159,40.99613727857417],[-75.17512485354925,40.99613716049097],[-75.17512588785308,40.99613696494961],[-75.17512689178223,40.99613669383324],[-75.17512785566825,40.996136349752916],[-75.17512877022844,40.996135936022256],[-75.17512962665505,40.99613545662575],[-75.17513041670024,40.99613491618023],[-75.17513113275544,40.9961343198905],[-75.17513176792464,40.99613367349916],[-75.17513231609082,40.9961329832313],[-75.17513277197484,40.99613225573457],[-75.17513313118629,40.99613149801519],[-75.17513339026577,40.996130717370384],[-75.1751335467182,40.996129921318214],[-75.17513359903687,40.99612911752508],[-75.17513354671793,40.99612831373196],[-75.17513339026524,40.99612751767982],[-75.17513313118553,40.99612673703506],[-75.17513277197388,40.99612597931574],[-75.17513231608969,40.996125251819095],[-75.17513176792339,40.99612456155131],[-75.17513113275412,40.99612391516008],[-75.17513041669889,40.99612331887044],[-75.17512962665373,40.996122778425026],[-75.17512877022719,40.996122299028606],[-75.17512785566713,40.996121885298045],[-75.17512689178126,40.99612154121779],[-75.17512588785233,40.9961212701015],[-75.17512485354872,40.99612107456018],[-75.17512379883132,40.99612095647701],[-75.17512273385766,40.996120916989184],[-75.175121668884,40.99612095647701],[-75.17512061416662,40.99612107456018],[-75.17511957986301,40.9961212701015],[-75.17511857593408,40.99612154121779],[-75.1751176120482,40.996121885298045],[-75.17511669748815,40.996122299028606],[-75.17511584106161,40.996122778425026],[-75.17511505101643,40.99612331887044],[-75.17511433496122,40.99612391516008],[-75.17511369979195,40.99612456155131],[-75.17511315162565,40.996125251819095],[-75.17511269574145,40.99612597931574],[-75.1751123365298,40.99612673703506],[-75.17511207745008,40.99612751767982],[-75.17511192099741,40.99612831373196],[-75.17511186867846,40.99612911752508],[-75.17511192099714,40.996129921318214],[-75.17511207744957,40.996130717370384],[-75.17511233652905,40.99613149801519],[-75.17511269574051,40.99613225573457],[-75.17511315162452,40.9961329832313],[-75.1751136997907,40.99613367349916],[-75.1751143349599,40.9961343198905],[-75.1751150510151,40.99613491618023],[-75.17511584106029,40.99613545662575],[-75.1751166974869,40.996135936022256],[-75.17511761204709,40.996136349752916],[-75.17511857593311,40.99613669383324],[-75.17511957986224,40.99613696494961],[-75.1751206141661,40.99613716049097],[-75.17512166888375,40.99613727857417],[-75.17512273385766,40.996137318062]]]}},{"type":"Feature","properties":{},"geometry":{"type":"Polygon","coordinates":[[[-75.17420401632253,40.9946198124058],[-75.17420511101312,40.994619771815174],[-75.17420619516122,40.994619650434224],[-75.17420725832592,40.99461944943193],[-75.17420829026834,40.99461917074402],[-75.17420928105031,40.994618817054445],[-75.17421022113004,40.99461839176939],[-75.17421110145409,40.994617898984636],[-75.17421191354441,40.99461734344593],[-75.17421264958016,40.99461673050343],[-75.1742133024729,40.99461606606011],[-75.1742138659349,40.99461535651493],[-75.17421433453974,40.994614608701184],[-75.1742147037745,40.994613829820736],[-75.17421497008323,40.994613027374626],[-75.17421513090127,40.994612209090846],[-75.17421518467982,40.99461138284994],[-75.17421513090099,40.99461055660905],[-75.17421497008269,40.9946097383253],[-75.1742147037737,40.99460893587924],[-75.17421433453873,40.994608156998865],[-75.17421386593372,40.9946074091852],[-75.17421330247157,40.99460669964011],[-75.17421264957876,40.99460603519689],[-75.17421191354299,40.99460542225449],[-75.17421110145268,40.994604866715896],[-75.17421022112872,40.99460437393124],[-75.17420928104912,40.994603948646294],[-75.17420829026733,40.994603594956786],[-75.17420725832513,40.99460331626895],[-75.17420619516068,40.9946031152667],[-75.17420511101284,40.994602993885785],[-75.17420401632253,40.99460295329517],[-75.17420292163223,40.994602993885785],[-75.17420183748439,40.9946031152667],[-75.17420077431994,40.99460331626895],[-75.17419974237774,40.994603594956786],[-75.17419875159595,40.994603948646294],[-75.17419781151634,40.99460437393124],[-75.17419693119238,40.994604866715896],[-75.17419611910208,40.99460542225449],[-75.1741953830663,40.99460603519689],[-75.17419473017348,40.99460669964011],[-75.17419416671135,40.9946074091852],[-75.17419369810634,40.994608156998865],[-75.17419332887137,40.99460893587924],[-75.17419306256237,40.9946097383253],[-75.17419290174408,40.99461055660905],[-75.17419284796524,40.99461138284994],[-75.1741929017438,40.994612209090846],[-75.17419306256183,40.994613027374626],[-75.17419332887057,40.994613829820736],[-75.17419369810533,40.994614608701184],[-75.17419416671017,40.99461535651493],[-75.17419473017216,40.99461606606011],[-75.1741953830649,40.99461673050343],[-75.17419611910064,40.99461734344593],[-75.17419693119098,40.994617898984636],[-75.17419781151501,40.99461839176939],[-75.17419875159476,40.994618817054445],[-75.17419974237673,40.99461917074402],[-75.17420077431913,40.99461944943193],[-75.17420183748384,40.994619650434224],[-75.17420292163195,40.994619771815174],[-75.17420401632253,40.9946198124058]]]}},{"type":"Feature","properties":{},"geometry":{"type":"Polygon","coordinates":[[[-75.17380673856552,40.99454865494711],[-75.17380770147182,40.994548619242956],[-75.17380865510479,40.99454851247433],[-75.17380959028044,40.9945483356695],[-75.17381049799252,40.994548090531175],[-75.17381136949925,40.99454777942017],[-75.17381219640752,40.99454740533264],[-75.1738129707538,40.9945469718713],[-75.17381368508067,40.99454648321058],[-75.1738143325088,40.99454594405656],[-75.17381490680307,40.9945453596016],[-75.17381540243275,40.994544735474314],[-75.17381581462462,40.99454407768539],[-75.17381613940908,40.99454339256969],[-75.17381637365828,40.994542686725275],[-75.17381651511624,40.99454196694979],[-75.17381656242068,40.99454124017509],[-75.17381651511603,40.99454051340037],[-75.17381637365784,40.99453979362492],[-75.17381613940847,40.99453908778054],[-75.17381581462385,40.99453840266488],[-75.17381540243183,40.994537744876034],[-75.17381490680205,40.99453712074882],[-75.1738143325077,40.99453653629392],[-75.17381368507957,40.99453599714],[-75.17381297075272,40.99453550847936],[-75.1738121964065,40.99453507501809],[-75.17381136949832,40.99453470093065],[-75.17381049799174,40.99453438981969],[-75.17380959027983,40.994534144681424],[-75.17380865510437,40.99453396787663],[-75.1738077014716,40.99453386110803],[-75.17380673856552,40.99453382540388],[-75.17380577565943,40.99453386110803],[-75.17380482202667,40.99453396787663],[-75.17380388685119,40.994534144681424],[-75.1738029791393,40.99453438981969],[-75.17380210763271,40.99453470093065],[-75.17380128072452,40.99453507501809],[-75.17380050637831,40.99453550847936],[-75.17379979205147,40.99453599714],[-75.17379914462332,40.99453653629392],[-75.17379857032897,40.99453712074882],[-75.1737980746992,40.994537744876034],[-75.17379766250718,40.99453840266488],[-75.17379733772255,40.99453908778054],[-75.17379710347318,40.99453979362492],[-75.173796962015,40.99454051340037],[-75.17379691471034,40.99454124017509],[-75.17379696201478,40.99454196694979],[-75.17379710347275,40.994542686725275],[-75.17379733772194,40.99454339256969],[-75.1737976625064,40.99454407768539],[-75.17379807469828,40.994544735474314],[-75.17379857032796,40.9945453596016],[-75.17379914462222,40.99454594405656],[-75.17379979205036,40.99454648321058],[-75.17380050637722,40.9945469718713],[-75.17380128072351,40.99454740533264],[-75.17380210763177,40.99454777942017],[-75.1738029791385,40.994548090531175],[-75.17380388685058,40.9945483356695],[-75.17380482202624,40.99454851247433],[-75.1738057756592,40.994548619242956],[-75.17380673856552,40.99454865494711]]]}},{"type":"Feature","properties":{},"geometry":{"type":"Polygon","coordinates":[[[-75.17389882569047,40.99657912909],[-75.17389981973697,40.9965790922323],[-75.17390080421023,40.99657898201421],[-75.17390176962927,40.99657879949716],[-75.17390270669657,40.9965785464389],[-75.17390360638763,40.99657822527652],[-75.17390446003795,40.99657783910299],[-75.1739052594264,40.996577391637366],[-75.17390599685446,40.996576887189],[-75.17390666522027,40.996576330616],[-75.1739072580871,40.99657572727849],[-75.17390776974534,40.996575082986894],[-75.1739081952674,40.99657440394613],[-75.17390853055532,40.99657369669572],[-75.17390877238007,40.99657296804688],[-75.17390891841276,40.9965722250169],[-75.17390896724702,40.996571474761545],[-75.17390891841254,40.99657072450622],[-75.17390877237963,40.99656998147626],[-75.17390853055467,40.996569252827456],[-75.17390819526659,40.996568545577105],[-75.17390776974435,40.99656786653642],[-75.17390725808602,40.9965672222449],[-75.17390666521912,40.99656661890746],[-75.17390599685329,40.996566062334544],[-75.17390525942527,40.996565557886264],[-75.17390446003687,40.99656511042073],[-75.17390360638666,40.99656472424727],[-75.17390270669573,40.99656440308496],[-75.17390176962863,40.99656415002676],[-75.17390080420978,40.99656396750974],[-75.17389981973675,40.996563857291676],[-75.17389882569047,40.99656382043399],[-75.17389783164423,40.996563857291676],[-75.17389684717118,40.99656396750974],[-75.17389588175233,40.99656415002676],[-75.17389494468523,40.99656440308496],[-75.17389404499431,40.99656472424727],[-75.17389319134409,40.99656511042073],[-75.17389239195569,40.996565557886264],[-75.17389165452767,40.996566062334544],[-75.17389098616184,40.99656661890746],[-75.17389039329494,40.9965672222449],[-75.1738898816366,40.99656786653642],[-75.17388945611438,40.996568545577105],[-75.1738891208263,40.996569252827456],[-75.17388887900134,40.99656998147626],[-75.17388873296844,40.99657072450622],[-75.17388868413394,40.996571474761545],[-75.17388873296821,40.9965722250169],[-75.17388887900088,40.99657296804688],[-75.17388912082563,40.99657369669572],[-75.17388945611356,40.99657440394613],[-75.17388988163562,40.996575082986894],[-75.17389039329386,40.99657572727849],[-75.1738909861607,40.996576330616],[-75.1738916545265,40.996576887189],[-75.17389239195455,40.996577391637366],[-75.17389319134301,40.99657783910299],[-75.17389404499333,40.99657822527652],[-75.1738949446844,40.9965785464389],[-75.17389588175169,40.99657879949716],[-75.17389684717072,40.99657898201421],[-75.173897831644,40.9965790922323],[-75.17389882569047,40.99657912909]]]}},{"type":"Feature","properties":{},"geometry":{"type":"Polygon","coordinates":[[[-75.17367518993802,40.996625645877224],[-75.17367610751937,40.996625611854775],[-75.1736770162639,40.99662551011506],[-75.1736779074199,40.996625341637916],[-75.17367877240508,40.99662510804586],[-75.17367960288911,40.99662481158848],[-75.17368039087401,40.99662445512088],[-75.17368112877104,40.99662404207599],[-75.17368180947385,40.996623576431695],[-75.1736824264269,40.996623062672384],[-75.17368297368857,40.99662250574583],[-75.17368344598847,40.99662191101559],[-75.17368383877808,40.99662128420918],[-75.17368414827462,40.99662063136313],[-75.17368437149747,40.99661995876471],[-75.17368450629688,40.99661927289137],[-75.17368455137465,40.99661858034848],[-75.17368450629668,40.996617887805606],[-75.17368437149707,40.99661720193229],[-75.17368414827405,40.99661652933389],[-75.17368383877736,40.9966158764879],[-75.17368344598763,40.996615249681554],[-75.17368297368763,40.996614654951365],[-75.17368242642591,40.99661409802489],[-75.17368180947284,40.996613584265646],[-75.17368112877006,40.996613118621426],[-75.17368039087309,40.99661270557661],[-75.17367960288828,40.99661234910908],[-75.17367877240437,40.99661205265176],[-75.17367790741935,40.99661181905974],[-75.17367701626351,40.996611650582636],[-75.17367610751916,40.99661154884294],[-75.17367518993802,40.99661151482049],[-75.17367427235686,40.99661154884294],[-75.17367336361252,40.996611650582636],[-75.17367247245667,40.99661181905974],[-75.17367160747166,40.99661205265176],[-75.17367077698773,40.99661234910908],[-75.17366998900295,40.99661270557661],[-75.17366925110598,40.996613118621426],[-75.17366857040318,40.996613584265646],[-75.17366795345012,40.99661409802489],[-75.17366740618839,40.996614654951365],[-75.1736669338884,40.996615249681554],[-75.17366654109865,40.9966158764879],[-75.17366623160197,40.99661652933389],[-75.17366600837894,40.99661720193229],[-75.17366587357935,40.996617887805606],[-75.17366582850137,40.99661858034848],[-75.17366587357915,40.99661927289137],[-75.17366600837856,40.99661995876471],[-75.17366623160142,40.99662063136313],[-75.17366654109796,40.99662128420918],[-75.17366693388756,40.99662191101559],[-75.17366740618745,40.99662250574583],[-75.17366795344914,40.996623062672384],[-75.17366857040219,40.996623576431695],[-75.173669251105,40.99662404207599],[-75.17366998900201,40.99662445512088],[-75.17367077698691,40.99662481158848],[-75.17367160747095,40.99662510804586],[-75.17367247245613,40.996625341637916],[-75.17367336361212,40.99662551011506],[-75.17367427235666,40.996625611854775],[-75.17367518993802,40.996625645877224]]]}},{"type":"Feature","properties":{},"geometry":{"type":"Polygon","coordinates":[[[-75.17238300696673,40.99504460766451],[-75.17238397607022,40.99504457173083],[-75.17238493584073,40.99504446427587],[-75.17238587703511,40.99504428633447],[-75.17238679058916,40.995044039620296],[-75.17238766770484,40.995043726509344],[-75.17238849993505,40.99504335001707],[-75.17238927926496,40.99504291376927],[-75.1723899981892,40.99504242196727],[-75.17239064978412,40.99504187934738],[-75.17239122777451,40.99504129113532],[-75.17239172659403,40.99504066299592],[-75.17239214143873,40.99504000097849],[-75.1723924683135,40.99503931145862],[-75.17239270407029,40.99503860107678],[-75.17239284643867,40.995037876674324],[-75.17239289404758,40.995037145227634],[-75.17239284643846,40.99503641378095],[-75.17239270406986,40.99503568937852],[-75.17239246831288,40.99503497899671],[-75.17239214143795,40.9950342894769],[-75.17239172659309,40.99503362745953],[-75.17239122777349,40.99503299932021],[-75.17239064978303,40.995032411108234],[-75.17238999818808,40.995031868488425],[-75.17238927926385,40.995031376686505],[-75.17238849993403,40.99503094043879],[-75.17238766770392,40.99503056394657],[-75.17238679058836,40.9950302508357],[-75.17238587703449,40.99503000412157],[-75.1723849358403,40.99502982618021],[-75.17238397607001,40.99502971872527],[-75.17238300696673,40.995029682791596],[-75.17238203786344,40.99502971872527],[-75.17238107809317,40.99502982618021],[-75.17238013689897,40.99503000412157],[-75.17237922334509,40.9950302508357],[-75.17237834622955,40.99503056394657],[-75.17237751399944,40.99503094043879],[-75.1723767346696,40.995031376686505],[-75.17237601574537,40.995031868488425],[-75.17237536415043,40.995032411108234],[-75.17237478615996,40.99503299932021],[-75.17237428734036,40.99503362745953],[-75.1723738724955,40.9950342894769],[-75.17237354562059,40.99503497899671],[-75.17237330986357,40.99503568937852],[-75.172373167495,40.99503641378095],[-75.17237311988589,40.995037145227634],[-75.17237316749477,40.995037876674324],[-75.17237330986316,40.99503860107678],[-75.17237354561996,40.99503931145862],[-75.1723738724947,40.99504000097849],[-75.17237428733944,40.99504066299592],[-75.17237478615894,40.99504129113532],[-75.17237536414933,40.99504187934738],[-75.17237601574425,40.99504242196727],[-75.17237673466849,40.99504291376927],[-75.1723775139984,40.99504335001707],[-75.17237834622861,40.995043726509344],[-75.17237922334431,40.995044039620296],[-75.17238013689834,40.99504428633447],[-75.17238107809273,40.99504446427587],[-75.17238203786323,40.99504457173083],[-75.17238300696673,40.99504460766451]]]}},{"type":"Feature","properties":{},"geometry":{"type":"Polygon","coordinates":[[[-75.17146754480598,40.99509379374877],[-75.17146849509014,40.99509375851294],[-75.17146943622255,40.995093653144735],[-75.17147035913958,40.99509347865897],[-75.17147125495303,40.99509323673601],[-75.17147211503571,40.995092929705685],[-75.17147293110459,40.9950925605249],[-75.17147369530043,40.99509213274907],[-75.17147440026365,40.995091650497876],[-75.17147503920505,40.995091118415694],[-75.17147560597127,40.99509054162675],[-75.17147609510407,40.99508992568585],[-75.17147650189277,40.99508927652484],[-75.17147682241983,40.99508860039548],[-75.17147705359841,40.995087903809285],[-75.1714771932021,40.99508719347476],[-75.17147723988646,40.99508647623281],[-75.17147719320188,40.99508575899086],[-75.171477053598,40.99508504865636],[-75.17147682241924,40.9950843520702],[-75.17147650189202,40.9950836759409],[-75.17147609510316,40.995083026779945],[-75.17147560597029,40.99508241083912],[-75.171475039204,40.99508183405025],[-75.17147440026258,40.995081301968135],[-75.17147369529938,40.995080819717025],[-75.1714729311036,40.995080391941265],[-75.17147211503482,40.99508002276056],[-75.17147125495227,40.9950797157303],[-75.17147035913898,40.995079473807394],[-75.17146943622214,40.99507929932165],[-75.17146849508993,40.99507919395349],[-75.17146754480598,40.99507915871766],[-75.171466594522,40.99507919395349],[-75.1714656533898,40.99507929932165],[-75.17146473047296,40.995079473807394],[-75.17146383465968,40.9950797157303],[-75.17146297457711,40.99508002276056],[-75.17146215850835,40.995080391941265],[-75.17146139431256,40.995080819717025],[-75.17146068934935,40.995081301968135],[-75.17146005040794,40.99508183405025],[-75.17145948364166,40.99508241083912],[-75.17145899450878,40.995083026779945],[-75.17145858771993,40.9950836759409],[-75.17145826719269,40.9950843520702],[-75.17145803601395,40.99508504865636],[-75.17145789641005,40.99508575899086],[-75.1714578497255,40.99508647623281],[-75.17145789640985,40.99508719347476],[-75.17145803601353,40.995087903809285],[-75.1714582671921,40.99508860039548],[-75.17145858771916,40.99508927652484],[-75.17145899450789,40.99508992568585],[-75.17145948364066,40.99509054162675],[-75.17146005040688,40.995091118415694],[-75.17146068934828,40.995091650497876],[-75.1714613943115,40.99509213274907],[-75.17146215850735,40.9950925605249],[-75.17146297457622,40.995092929705685],[-75.17146383465891,40.99509323673601],[-75.17146473047237,40.99509347865897],[-75.17146565338939,40.995093653144735],[-75.1714665945218,40.99509375851294],[-75.17146754480598,40.99509379374877]]]}},{"type":"Feature","properties":{},"geometry":{"type":"Polygon","coordinates":[[[-75.17179624595272,40.99616525788689],[-75.1717971761514,40.99616522339637],[-75.17179809739176,40.996165120256954],[-75.17179900080174,40.996164949461935],[-75.171799877681,40.99616471265618],[-75.17180071958474,40.99616441212024],[-75.17180151840492,40.99616405074845],[-75.17180226644851,40.99616363202101],[-75.17180295651141,40.99616315997049],[-75.17180358194794,40.99616263914302],[-75.17180413673483,40.99616207455444],[-75.17180461552915,40.99616147164205],[-75.17180501371986,40.996160836212226],[-75.17180532747219,40.99616017438451],[-75.17180555376449,40.99615949253265],[-75.17180569041747,40.996158797223266],[-75.1718057361151,40.99615809515257],[-75.17180569041727,40.99615739308187],[-75.17180555376409,40.99615669777252],[-75.17180532747162,40.9961560159207],[-75.17180501371914,40.99615535409302],[-75.1718046155283,40.996154718663256],[-75.17180413673388,40.99615411575093],[-75.17180358194695,40.99615355116243],[-75.17180295651038,40.99615303033503],[-75.17180226644749,40.9961525582846],[-75.17180151840397,40.996152139557225],[-75.17180071958387,40.9961517781855],[-75.17179987768027,40.99615147764962],[-75.17179900080116,40.99615124084391],[-75.17179809739136,40.99615107004893],[-75.1717971761512,40.99615096690954],[-75.17179624595272,40.99615093241903],[-75.17179531575424,40.99615096690954],[-75.17179439451408,40.99615107004893],[-75.17179349110428,40.99615124084391],[-75.17179261422518,40.99615147764962],[-75.17179177232158,40.9961517781855],[-75.17179097350147,40.996152139557225],[-75.17179022545795,40.9961525582846],[-75.17178953539506,40.99615303033503],[-75.17178890995851,40.99615355116243],[-75.17178835517156,40.99615411575093],[-75.17178787637714,40.996154718663256],[-75.1717874781863,40.99615535409302],[-75.17178716443384,40.9961560159207],[-75.17178693814135,40.99615669777252],[-75.17178680148817,40.99615739308187],[-75.17178675579034,40.99615809515257],[-75.17178680148797,40.996158797223266],[-75.17178693814095,40.99615949253265],[-75.17178716443327,40.99616017438451],[-75.17178747818558,40.996160836212226],[-75.1717878763763,40.99616147164205],[-75.1717883551706,40.99616207455444],[-75.1717889099575,40.99616263914302],[-75.17178953539404,40.99616315997049],[-75.17179022545693,40.99616363202101],[-75.17179097350052,40.99616405074845],[-75.1717917723207,40.99616441212024],[-75.17179261422446,40.99616471265618],[-75.1717934911037,40.996164949461935],[-75.17179439451368,40.996165120256954],[-75.17179531575405,40.99616522339637],[-75.17179624595272,40.99616525788689]]]}},{"type":"Feature","properties":{},"geometry":{"type":"Polygon","coordinates":[[[-75.1720352856911,40.99758414859098],[-75.17203626339648,40.99758411233975],[-75.172037231686,40.99758400393518],[-75.17203818123453,40.99758382442126],[-75.1720391028974,40.99758357552682],[-75.17203998779846,40.997583259648835],[-75.17204082741564,40.997582879829395],[-75.17204161366297,40.997582439726365],[-75.17204233896845,40.99758194357818],[-75.172042996347,40.99758139616303],[-75.17204357946771,40.9975808027528],[-75.1720440827148,40.997580169062374],[-75.17204450124174,40.99757950119452],[-75.17204483101786,40.997578805581206],[-75.17204506886726,40.997578088921536],[-75.17204521249933,40.997577358117354],[-75.17204526053078,40.997576620206694],[-75.1720452124991,40.99757588229604],[-75.17204506886682,40.99757515149187],[-75.17204483101723,40.99757443483225],[-75.17204450124092,40.997573739218986],[-75.17204408271385,40.9975730713512],[-75.17204357946666,40.99757243766084],[-75.1720429963459,40.99757184425069],[-75.17204233896732,40.99757129683563],[-75.17204161366186,40.99757080068753],[-75.17204082741459,40.99757036058458],[-75.1720399877975,40.99756998076522],[-75.17203910289659,40.997569664887294],[-75.1720381812339,40.9975694159929],[-75.17203723168556,40.99756923647904],[-75.17203626339625,40.997569128074474],[-75.1720352856911,40.99756909182326],[-75.17203430798594,40.997569128074474],[-75.17203333969663,40.99756923647904],[-75.17203239014829,40.9975694159929],[-75.17203146848561,40.997569664887294],[-75.17203058358469,40.99756998076522],[-75.1720297439676,40.99757036058458],[-75.17202895772034,40.99757080068753],[-75.17202823241489,40.99757129683563],[-75.17202757503631,40.99757184425069],[-75.17202699191553,40.99757243766084],[-75.17202648866834,40.9975730713512],[-75.17202607014127,40.997573739218986],[-75.17202574036497,40.99757443483225],[-75.17202550251538,40.99757515149187],[-75.17202535888309,40.99757588229604],[-75.17202531085141,40.997576620206694],[-75.17202535888288,40.997577358117354],[-75.17202550251493,40.997578088921536],[-75.17202574036435,40.997578805581206],[-75.17202607014046,40.99757950119452],[-75.1720264886674,40.997580169062374],[-75.17202699191448,40.9975808027528],[-75.17202757503519,40.99758139616303],[-75.17202823241374,40.99758194357818],[-75.17202895771922,40.997582439726365],[-75.17202974396656,40.997582879829395],[-75.17203058358373,40.997583259648835],[-75.17203146848479,40.99758357552682],[-75.17203239014766,40.99758382442126],[-75.17203333969618,40.99758400393518],[-75.17203430798573,40.99758411233975],[-75.1720352856911,40.99758414859098]]]}},{"type":"Feature","properties":{},"geometry":{"type":"Polygon","coordinates":[[[-75.17152643249399,40.99764447081069],[-75.17152724406266,40.997644440719476],[-75.17152804781547,40.997644350735655],[-75.17152883601186,40.997644201725805],[-75.17152960106102,40.997643995124974],[-75.17153033559518,40.997643732922846],[-75.17153103254032,40.99764341764456],[-75.17153168518446,40.99764305232644],[-75.17153228724234,40.997642640486674],[-75.17153283291577,40.99764218609153],[-75.17153331694963,40.99764169351707],[-75.17153373468241,40.99764116750705],[-75.17153408209111,40.99764061312725],[-75.17153435583,40.99764003571665],[-75.17153455326283,40.997639440836004],[-75.17153467248822,40.99763883421437],[-75.17153471235794,40.99763822169383],[-75.17153467248806,40.99763760917331],[-75.17153455326253,40.997637002551684],[-75.17153435582958,40.997636407671074],[-75.17153408209056,40.997635830260506],[-75.17153373468176,40.997635275880754],[-75.1715333169489,40.997634749870784],[-75.171532832915,40.99763425729638],[-75.17153228724156,40.9976338029013],[-75.1715316851837,40.9976333910616],[-75.17153103253959,40.997633025743525],[-75.17153033559453,40.99763271046529],[-75.17152960106048,40.997632448263204],[-75.1715288360114,40.997632241662416],[-75.17152804781517,40.99763209265259],[-75.17152724406252,40.99763200266878],[-75.17152643249399,40.99763197257758],[-75.17152562092548,40.99763200266878],[-75.17152481717284,40.99763209265259],[-75.17152402897659,40.997632241662416],[-75.17152326392753,40.997632448263204],[-75.17152252939347,40.99763271046529],[-75.1715218324484,40.997633025743525],[-75.1715211798043,40.9976333910616],[-75.17152057774645,40.9976338029013],[-75.17152003207299,40.99763425729638],[-75.1715195480391,40.997634749870784],[-75.17151913030624,40.997635275880754],[-75.17151878289744,40.997635830260506],[-75.17151850915842,40.997636407671074],[-75.17151831172546,40.997637002551684],[-75.17151819249993,40.99763760917331],[-75.17151815263006,40.99763822169383],[-75.17151819249978,40.99763883421437],[-75.17151831172517,40.997639440836004],[-75.17151850915799,40.99764003571665],[-75.17151878289688,40.99764061312725],[-75.17151913030558,40.99764116750705],[-75.17151954803836,40.99764169351707],[-75.17152003207222,40.99764218609153],[-75.17152057774565,40.997642640486674],[-75.17152117980353,40.99764305232644],[-75.17152183244768,40.99764341764456],[-75.17152252939282,40.997643732922846],[-75.17152326392697,40.997643995124974],[-75.17152402897614,40.997644201725805],[-75.17152481717252,40.997644350735655],[-75.17152562092534,40.997644440719476],[-75.17152643249399,40.99764447081069]]]}},{"type":"Feature","properties":{},"geometry":{"type":"Polygon","coordinates":[[[-75.17156560330757,40.99888675405612],[-75.17156654297342,40.998886719215996],[-75.17156747358976,40.99888661503118],[-75.17156838619427,40.99888644250502],[-75.17156927199804,40.99888620329903],[-75.1715701224703,40.99888589971689],[-75.17157092942055,40.99888553468228],[-75.17157168507741,40.99888511171068],[-75.17157238216349,40.998884634875516],[-75.17157301396544,40.99888410876901],[-75.17157357439872,40.99888353845783],[-75.17157405806599,40.998882929434394],[-75.17157446030933,40.998882287563944],[-75.17157477725488,40.99888161902802],[-75.17157500585029,40.99888093026499],[-75.17157514389406,40.998880227908046],[-75.17157519005679,40.998879518721246],[-75.17157514389386,40.99887880953446],[-75.17157500584989,40.99887810717753],[-75.17157477725429,40.99887741841456],[-75.17157446030859,40.99887674987867],[-75.17157405806512,40.998876108008275],[-75.17157357439773,40.99887549898491],[-75.1715730139644,40.998874928673814],[-75.17157238216242,40.99887440256738],[-75.17157168507637,40.99887392573231],[-75.17157092941959,40.99887350276077],[-75.17157012246943,40.998873137726235],[-75.1715692719973,40.99887283414416],[-75.17156838619368,40.99887259493821],[-75.17156747358935,40.99887242241208],[-75.17156654297321,40.998872318227285],[-75.17156560330757,40.99887228338717],[-75.17156466364193,40.998872318227285],[-75.17156373302579,40.99887242241208],[-75.17156282042146,40.99887259493821],[-75.17156193461784,40.99887283414416],[-75.17156108414572,40.998873137726235],[-75.17156027719557,40.99887350276077],[-75.17155952153877,40.99887392573231],[-75.17155882445272,40.99887440256738],[-75.17155819265074,40.998874928673814],[-75.17155763221741,40.99887549898491],[-75.17155714855004,40.998876108008275],[-75.17155674630656,40.99887674987867],[-75.17155642936085,40.99887741841456],[-75.17155620076525,40.99887810717753],[-75.17155606272128,40.99887880953446],[-75.17155601655836,40.998879518721246],[-75.17155606272108,40.998880227908046],[-75.17155620076485,40.99888093026499],[-75.17155642936027,40.99888161902802],[-75.17155674630581,40.998882287563944],[-75.17155714854916,40.998882929434394],[-75.17155763221642,40.99888353845783],[-75.1715581926497,40.99888410876901],[-75.17155882445167,40.998884634875516],[-75.17155952153773,40.99888511171068],[-75.17156027719459,40.99888553468228],[-75.17156108414484,40.99888589971689],[-75.1715619346171,40.99888620329903],[-75.17156282042087,40.99888644250502],[-75.17156373302538,40.99888661503118],[-75.17156466364172,40.998886719215996],[-75.17156560330757,40.99888675405612]]]}},{"type":"Feature","properties":{},"geometry":{"type":"Polygon","coordinates":[[[-75.17231447135731,40.99921737819012],[-75.17231525591652,40.99921734910106],[-75.17231603291998,40.99921726211402],[-75.17231679488474,40.99921711806674],[-75.17231753447264,40.99921691834647],[-75.17231824456108,40.99921666487661],[-75.17231891831149,40.999216360098245],[-75.17231954923528,40.99921600694655],[-75.17232013125633,40.999215608822546],[-75.17232065876945,40.99921516956041],[-75.1723211266944,40.99921469339046],[-75.17232153052478,40.9992141848985],[-75.17232186637155,40.99921364898156],[-75.17232213100024,40.999213090800815],[-75.17232232186241,40.99921251573186],[-75.1723224371199,40.99921192931294],[-75.17232247566275,40.99921133719156],[-75.17232243711976,40.99921074507018],[-75.17232232186213,40.999210158651266],[-75.17232213099985,40.99920958358235],[-75.17232186637102,40.99920902540165],[-75.17232153052417,40.999208489484744],[-75.17232112669372,40.99920798099282],[-75.17232065876873,40.99920750482293],[-75.17232013125559,40.999207065560846],[-75.17231954923457,40.9992066674369],[-75.17231891831082,40.999206314285246],[-75.17231824456047,40.99920600950693],[-75.17231753447214,40.99920575603712],[-75.17231679488434,40.99920555631689],[-75.1723160329197,40.99920541226963],[-75.17231525591637,40.99920532528261],[-75.17231447135731,40.99920529619356],[-75.17231368679825,40.99920532528261],[-75.17231290979491,40.99920541226963],[-75.17231214783028,40.99920555631689],[-75.17231140824249,40.99920575603712],[-75.17231069815415,40.99920600950693],[-75.17231002440381,40.999206314285246],[-75.17230939348005,40.9992066674369],[-75.17230881145902,40.999207065560846],[-75.1723082839459,40.99920750482293],[-75.1723078160209,40.99920798099282],[-75.17230741219043,40.999208489484744],[-75.1723070763436,40.99920902540165],[-75.17230681171478,40.99920958358235],[-75.1723066208525,40.999210158651266],[-75.17230650559486,40.99921074507018],[-75.17230646705187,40.99921133719156],[-75.1723065055947,40.99921192931294],[-75.17230662085221,40.99921251573186],[-75.17230681171438,40.999213090800815],[-75.17230707634307,40.99921364898156],[-75.17230741218984,40.9992141848985],[-75.17230781602022,40.99921469339046],[-75.17230828394517,40.99921516956041],[-75.17230881145828,40.999215608822546],[-75.17230939347932,40.99921600694655],[-75.17231002440313,40.999216360098245],[-75.17231069815354,40.99921666487661],[-75.17231140824197,40.99921691834647],[-75.17231214782987,40.99921711806674],[-75.17231290979464,40.99921726211402],[-75.1723136867981,40.99921734910106],[-75.17231447135731,40.99921737819012]]]}},{"type":"Feature","properties":{},"geometry":{"type":"Polygon","coordinates":[[[-75.17130180944297,40.998059092992165],[-75.17130269891838,40.99805906001256],[-75.17130357982768,40.99805896139133],[-75.17130444368719,40.998058798078254],[-75.17130528217749,40.99805857164615],[-75.17130608722343,40.99805828427566],[-75.17130685107202,40.998057938734306],[-75.17130756636692,40.99805753834988],[-75.17130822621951,40.998057086978285],[-75.17130882427502,40.99805658896647],[-75.17130935477384,40.998056049110595],[-75.17130981260698,40.99805547260971],[-75.17131019336529,40.99805486501588],[-75.17131049338181,40.998054232180564],[-75.17131070976724,40.99805358019829],[-75.17131084043768,40.99805291534802],[-75.17131088413473,40.99805224403262],[-75.17131084043751,40.99805157271722],[-75.17131070976689,40.99805090786697],[-75.17131049338127,40.99805025588474],[-75.17131019336462,40.99804962304945],[-75.17130981260621,40.998049015455685],[-75.17130935477297,40.998048438954875],[-75.17130882427409,40.99804789909904],[-75.17130822621857,40.998047401087305],[-75.17130756636601,40.99804694971578],[-75.17130685107115,40.99804654933141],[-75.17130608722265,40.99804620379014],[-75.17130528217682,40.9980459164197],[-75.17130444368667,40.99804568998763],[-75.17130357982731,40.998045526674595],[-75.17130269891821,40.99804542805338],[-75.17130180944297,40.998045395073774],[-75.17130091996772,40.99804542805338],[-75.17130003905861,40.998045526674595],[-75.17129917519925,40.99804568998763],[-75.1712983367091,40.9980459164197],[-75.17129753166327,40.99804620379014],[-75.17129676781477,40.99804654933141],[-75.1712960525199,40.99804694971578],[-75.17129539266735,40.998047401087305],[-75.17129479461182,40.99804789909904],[-75.17129426411294,40.998048438954875],[-75.1712938062797,40.998049015455685],[-75.1712934255213,40.99804962304945],[-75.17129312550465,40.99805025588474],[-75.17129290911905,40.99805090786697],[-75.1712927784484,40.99805157271722],[-75.17129273475119,40.99805224403262],[-75.17129277844822,40.99805291534802],[-75.17129290911868,40.99805358019829],[-75.1712931255041,40.998054232180564],[-75.17129342552064,40.99805486501588],[-75.17129380627894,40.99805547260971],[-75.17129426411209,40.998056049110595],[-75.1712947946109,40.99805658896647],[-75.17129539266641,40.998057086978285],[-75.171296052519,40.99805753834988],[-75.1712967678139,40.998057938734306],[-75.17129753166249,40.99805828427566],[-75.17129833670843,40.99805857164615],[-75.17129917519874,40.998058798078254],[-75.17130003905824,40.99805896139133],[-75.17130091996754,40.99805906001256],[-75.17130180944297,40.998059092992165]]]}},{"type":"Feature","properties":{},"geometry":{"type":"Polygon","coordinates":[[[-75.17017525392616,40.99800938303359],[-75.17017616820335,40.998009349134364],[-75.17017707367557,40.99800924776314],[-75.1701779616226,40.99800907989618],[-75.17017882349302,40.99800884715015],[-75.17017965098654,40.99800855176652],[-75.17018043613398,40.99800819658997],[-75.17018117137388,40.99800778504108],[-75.17018184962552,40.998007321083264],[-75.17018246435697,40.99800680918471],[-75.170183009648,40.99800625427526],[-75.17018348024719,40.99800566169903],[-75.17018387162238,40.998005037162834],[-75.17018418000445,40.99800438668128],[-75.1701844024235,40.998003716518895],[-75.17018453673751,40.998003033129685],[-75.17018458165296,40.99800234309508],[-75.17018453673731,40.99800165306048],[-75.1701844024231,40.99800096967129],[-75.1701841800039,40.998000299508945],[-75.17018387162167,40.99799964902744],[-75.17018348024635,40.99799902449129],[-75.17018300964709,40.997998431915136],[-75.170182464356,40.99799787700575],[-75.17018184962453,40.99799736510727],[-75.17018117137292,40.997996901149534],[-75.17018043613305,40.99799648960071],[-75.17017965098572,40.997996134424234],[-75.17017882349232,40.99799583904065],[-75.17017796162204,40.997995606294666],[-75.17017707367519,40.99799543842774],[-75.17017616820317,40.997995337056544],[-75.17017525392616,40.997995303157325],[-75.17017433964915,40.997995337056544],[-75.17017343417713,40.99799543842774],[-75.17017254623028,40.997995606294666],[-75.17017168436,40.99799583904065],[-75.1701708568666,40.997996134424234],[-75.17017007171926,40.99799648960071],[-75.1701693364794,40.997996901149534],[-75.17016865822778,40.99799736510727],[-75.17016804349632,40.99799787700575],[-75.17016749820523,40.997998431915136],[-75.17016702760596,40.99799902449129],[-75.17016663623065,40.99799964902744],[-75.17016632784842,40.998000299508945],[-75.1701661054292,40.99800096967129],[-75.170165971115,40.99800165306048],[-75.17016592619935,40.99800234309508],[-75.17016597111481,40.998003033129685],[-75.17016610542882,40.998003716518895],[-75.17016632784787,40.99800438668128],[-75.17016663622994,40.998005037162834],[-75.17016702760513,40.99800566169903],[-75.17016749820432,40.99800625427526],[-75.17016804349534,40.99800680918471],[-75.17016865822679,40.998007321083264],[-75.17016933647844,40.99800778504108],[-75.17017007171835,40.99800819658997],[-75.17017085686578,40.99800855176652],[-75.17017168435929,40.99800884715015],[-75.17017254622972,40.99800907989618],[-75.17017343417675,40.99800924776314],[-75.17017433964897,40.998009349134364],[-75.17017525392616,40.99800938303359]]]}},{"type":"Feature","properties":{},"geometry":{"type":"Polygon","coordinates":[[[-75.17081152998216,40.9986621558147],[-75.17081247803335,40.99866212066357],[-75.17081341695429,40.99866201554866],[-75.17081433770265,40.99866184148231],[-75.17081523141111,40.998661600140885],[-75.17081608947278,40.99866129384862],[-75.17081690362406,40.998660925555264],[-75.17081766602422,40.998660498807716],[-75.1708183693309,40.998660017715764],[-75.17081900677091,40.9986594869126],[-75.17081957220535,40.99865891151015],[-75.17082006018877,40.99865829704985],[-75.17082046602162,40.99865764944929],[-75.1708207857955,40.99865697494521],[-75.17082101643085,40.99865628003347],[-75.17082115570649,40.99865557140645],[-75.17082120228116,40.9986548558886],[-75.17082115570629,40.99865414037077],[-75.17082101643044,40.998653431743776],[-75.17082078579492,40.99865273683206],[-75.17082046602086,40.99865206232804],[-75.17082006018788,40.99865141472755],[-75.17081957220435,40.998650800267306],[-75.17081900676986,40.99865022486493],[-75.17081836932984,40.998649694061854],[-75.17081766602315,40.99864921296997],[-75.17081690362306,40.998648786222496],[-75.1708160894719,40.998648417929225],[-75.17081523141036,40.99864811163701],[-75.17081433770205,40.998647870295635],[-75.17081341695388,40.99864769622933],[-75.17081247803314,40.99864759111445],[-75.17081152998216,40.99864755596332],[-75.17081058193116,40.99864759111445],[-75.17080964301044,40.99864769622933],[-75.17080872226227,40.998647870295635],[-75.17080782855395,40.99864811163701],[-75.17080697049242,40.998648417929225],[-75.17080615634126,40.998648786222496],[-75.17080539394115,40.99864921296997],[-75.17080469063447,40.998649694061854],[-75.17080405319444,40.99865022486493],[-75.17080348775995,40.998650800267306],[-75.17080299977644,40.99865141472755],[-75.17080259394346,40.99865206232804],[-75.17080227416939,40.99865273683206],[-75.17080204353387,40.998653431743776],[-75.17080190425803,40.99865414037077],[-75.17080185768316,40.9986548558886],[-75.17080190425781,40.99865557140645],[-75.17080204353346,40.99865628003347],[-75.17080227416882,40.99865697494521],[-75.1708025939427,40.99865764944929],[-75.17080299977555,40.99865829704985],[-75.17080348775897,40.99865891151015],[-75.1708040531934,40.9986594869126],[-75.1708046906334,40.998660017715764],[-75.1708053939401,40.998660498807716],[-75.17080615634026,40.998660925555264],[-75.17080697049153,40.99866129384862],[-75.1708078285532,40.998661600140885],[-75.17080872226165,40.99866184148231],[-75.17080964301003,40.99866201554866],[-75.17081058193097,40.99866212066357],[-75.17081152998216,40.9986621558147]]]}},{"type":"Feature","properties":{},"geometry":{"type":"Polygon","coordinates":[[[-75.1708828261255,40.999462560648624],[-75.17088368561332,40.99946252878156],[-75.17088453682378,40.99946243348727],[-75.17088537155928,40.99946227568345],[-75.17088618178086,40.9994620568899],[-75.17088695968563,40.99946177921367],[-75.17088769778195,40.99946144532896],[-75.17088838896154,40.999461058451274],[-75.17088902656798,40.99946062230643],[-75.17088960446073,40.99946014109475],[-75.1708901170744,40.99945961945057],[-75.17089055947226,40.99945906239761],[-75.17089092739373,40.9994584753006],[-75.17089121729555,40.9994578638136],[-75.17089142638582,40.99945723382556],[-75.17089155265086,40.99945659140362],[-75.1708915948747,40.99945594273464],[-75.1708915526507,40.99945529406568],[-75.17089142638547,40.99945465164375],[-75.17089121729505,40.99945402165575],[-75.1708909273931,40.99945341016879],[-75.17089055947152,40.99945282307183],[-75.1708901170736,40.99945226601892],[-75.17088960445987,40.99945174437481],[-75.17088902656708,40.999451263163195],[-75.17088838896068,40.999450827018414],[-75.17088769778113,40.999450440140784],[-75.1708869596849,40.999450106256134],[-75.17088618178023,40.99944982857997],[-75.17088537155878,40.999449609786446],[-75.17088453682345,40.99944945198266],[-75.17088368561315,40.999449356688395],[-75.1708828261255,40.999449324821335],[-75.17088196663786,40.999449356688395],[-75.17088111542758,40.99944945198266],[-75.17088028069223,40.999449609786446],[-75.17087947047078,40.99944982857997],[-75.17087869256612,40.999450106256134],[-75.1708779544699,40.999450440140784],[-75.17087726329035,40.999450827018414],[-75.17087662568395,40.999451263163195],[-75.17087604779115,40.99945174437481],[-75.17087553517743,40.99945226601892],[-75.17087509277951,40.99945282307183],[-75.17087472485791,40.99945341016879],[-75.17087443495598,40.99945402165575],[-75.17087422586556,40.99945465164375],[-75.17087409960033,40.99945529406568],[-75.17087405737632,40.99945594273464],[-75.17087409960017,40.99945659140362],[-75.1708742258652,40.99945723382556],[-75.17087443495548,40.9994578638136],[-75.17087472485728,40.9994584753006],[-75.17087509277877,40.99945906239761],[-75.17087553517662,40.99945961945057],[-75.1708760477903,40.99946014109475],[-75.17087662568305,40.99946062230643],[-75.17087726328948,40.999461058451274],[-75.17087795446908,40.99946144532896],[-75.1708786925654,40.99946177921367],[-75.17087947047017,40.9994620568899],[-75.17088028069173,40.99946227568345],[-75.17088111542724,40.99946243348727],[-75.17088196663771,40.99946252878156],[-75.1708828261255,40.999462560648624]]]}},{"type":"Feature","properties":{},"geometry":{"type":"Polygon","coordinates":[[[-75.16905444386717,40.99822737460746],[-75.16905545771739,40.99822733701644],[-75.16905646180369,40.998227224605344],[-75.16905744645614,40.99822703845678],[-75.16905840219201,40.99822678036346],[-75.16905931980705,40.998226452810954],[-75.1690601904641,40.998226058953776],[-75.16906100577825,40.998225602585016],[-75.1690617578976,40.99822508809971],[-75.16906243957882,40.99822452045266],[-75.16906304425696,40.998223905110606],[-75.16906356610862,40.998223247999654],[-75.1690640001081,40.99822255544811],[-75.16906434207571,40.998221834125644],[-75.1690645887182,40.998221090978994],[-75.16906473766021,40.99822033316506],[-75.16906478746735,40.99821956798199],[-75.16906473765997,40.99821880279894],[-75.16906458871773,40.99821804498502],[-75.16906434207505,40.998217301838416],[-75.16906400010723,40.998216580516],[-75.1690635661076,40.99821588796454],[-75.16906304425584,40.99821523085366],[-75.16906243957762,40.99821461551169],[-75.16906175789637,40.99821404786473],[-75.16906100577705,40.99821353337951],[-75.16906019046296,40.99821307701084],[-75.16905931980602,40.99821268315375],[-75.16905840219114,40.99821235560132],[-75.16905744645547,40.99821209750805],[-75.16905646180322,40.99821191135953],[-75.16905545771715,40.99821179894846],[-75.16905444386717,40.99821176135744],[-75.16905343001717,40.99821179894846],[-75.1690524259311,40.99821191135953],[-75.16905144127887,40.99821209750805],[-75.16905048554318,40.99821235560132],[-75.1690495679283,40.99821268315375],[-75.16904869727138,40.99821307701084],[-75.16904788195727,40.99821353337951],[-75.16904712983795,40.99821404786473],[-75.1690464481567,40.99821461551169],[-75.16904584347849,40.99821523085366],[-75.16904532162673,40.99821588796454],[-75.1690448876271,40.998216580516],[-75.16904454565928,40.998217301838416],[-75.1690442990166,40.99821804498502],[-75.16904415007436,40.99821880279894],[-75.16904410026699,40.99821956798199],[-75.16904415007411,40.99822033316506],[-75.16904429901612,40.998221090978994],[-75.16904454565861,40.998221834125644],[-75.16904488762623,40.99822255544811],[-75.1690453216257,40.998223247999654],[-75.16904584347736,40.998223905110606],[-75.1690464481555,40.99822452045266],[-75.16904712983673,40.99822508809971],[-75.16904788195608,40.998225602585016],[-75.16904869727023,40.998226058953776],[-75.16904956792729,40.998226452810954],[-75.16905048554231,40.99822678036346],[-75.16905144127819,40.99822703845678],[-75.16905242593063,40.998227224605344],[-75.16905343001694,40.99822733701644],[-75.16905444386717,40.99822737460746]]]}},{"type":"Feature","properties":{},"geometry":{"type":"Polygon","coordinates":[[[-75.16992142548075,40.99610473443162],[-75.16992248716535,40.99610469506573],[-75.16992353862533,40.9961045773472],[-75.16992456973456,40.996104382409705],[-75.16992557056291,40.996104112130595],[-75.16992653147184,40.996103769112835],[-75.16992744320729,40.99610335665984],[-75.16992829698869,40.996102878743784],[-75.1699290845937,40.99610233996725],[-75.16992979843724,40.996101745518956],[-75.16993043164463,40.996101101123784],[-75.16993097811772,40.996100412987566],[-75.16993143259367,40.99609968773748],[-75.16993179069564,40.99609893235805],[-75.16993204897491,40.996098154124006],[-75.16993220494412,40.99609736053017],[-75.16993225710121,40.99609655921927],[-75.16993220494386,40.99609575790839],[-75.1699320489744,40.99609496431459],[-75.16993179069489,40.99609418608058],[-75.16993143259272,40.99609343070123],[-75.16993097811661,40.99609270545121],[-75.1699304316434,40.99609201731509],[-75.16992979843593,40.99609137292],[-75.16992908459235,40.9960907784718],[-75.16992829698737,40.99609023969537],[-75.16992744320603,40.99608976177941],[-75.16992653147074,40.99608934932651],[-75.16992557056197,40.996089006308814],[-75.16992456973382,40.99608873602978],[-75.16992353862481,40.996088541092334],[-75.16992248716508,40.99608842337382],[-75.16992142548075,40.99608838400795],[-75.16992036379642,40.99608842337382],[-75.16991931233669,40.996088541092334],[-75.16991828122768,40.99608873602978],[-75.16991728039953,40.996089006308814],[-75.16991631949077,40.99608934932651],[-75.16991540775547,40.99608976177941],[-75.16991455397414,40.99609023969537],[-75.16991376636915,40.9960907784718],[-75.16991305252556,40.99609137292],[-75.16991241931811,40.99609201731509],[-75.16991187284489,40.99609270545121],[-75.16991141836878,40.99609343070123],[-75.16991106026661,40.99609418608058],[-75.1699108019871,40.99609496431459],[-75.16991064601763,40.99609575790839],[-75.1699105938603,40.99609655921927],[-75.16991064601737,40.99609736053017],[-75.16991080198659,40.996098154124006],[-75.16991106026586,40.99609893235805],[-75.16991141836783,40.99609968773748],[-75.16991187284378,40.996100412987566],[-75.16991241931686,40.996101101123784],[-75.16991305252427,40.996101745518956],[-75.1699137663678,40.99610233996725],[-75.16991455397282,40.996102878743784],[-75.16991540775422,40.99610335665984],[-75.16991631948964,40.996103769112835],[-75.1699172803986,40.996104112130595],[-75.16991828122693,40.996104382409705],[-75.16991931233618,40.9961045773472],[-75.16992036379615,40.99610469506573],[-75.16992142548075,40.99610473443162]]]}}]}